"business_id","name","stars","state","city","address","postal_code","categories","is_open","latitude","longitude","by_appointment_only","accepts_credit_cards","monday_hours","tuesday_hours","wednesday_hours","thursday_hours","friday_hours","saturday_hours"
"rkqsFfbdeuXevR4Z3VgFuA","McDonald's","1.5","PA","Abington","1663 Old York Rd","19001","Restaurants, Coffee & Tea, Burgers, Fast Food, Food","1","40.1311963953","-75.1157820466",NULL,"True","6:0-23:0","6:0-23:0","6:0-23:0","6:0-23:0","6:0-23:0","6:0-23:0"
"3gwwGdwihsmb4TOnUOo6RA","McDonald's","2.0","IL","Alton","2400 Homer Adams Pkwy","62002","Food, Burgers, Restaurants, Coffee & Tea, Fast Food","1","38.9161826592","-90.1515620854",NULL,"True","5:30-23:0","5:30-23:0","5:30-23:0","5:30-23:0","5:30-0:0","5:30-0:0"
"vsM7RsJNrP6ukSgy1Ew5xA","McDonald's","1.5","IL","Alton","717 E Broadway","62002","Coffee & Tea, Burgers, Food, Fast Food, Restaurants","0","38.8892222","-90.1743183",NULL,"True","0:0-0:0","0:0-0:0","0:0-0:0","0:0-0:0","0:0-0:0","0:0-0:0"
"b8kG6D1QEzwlovfm2tRS5w","McDonald's","1.5","PA","Ambler","119 W Butler Ave, Ste 21","19002","Burgers, Restaurants, Fast Food","0","40.1531681","-75.225871",NULL,"True",NULL,NULL,NULL,NULL,NULL,NULL
"n2LA9JJRhrC5DzpkFhhy-w","McDonald's","2.0","TN","Antioch","5301 Hickory Hollow Ln","37013","Restaurants, Burgers, Food, Coffee & Tea, Hot Dogs, Fast Food","1","36.0486694695","-86.6520778742",NULL,"True","0:0-0:0","0:0-0:0","0:0-0:0","0:0-0:0","0:0-0:0","0:0-0:0"
"S2f17_R3I2CXculeMDZAig","McDonald's","1.5","PA","Ardmore","111 Lancaster Pike","19003","Fast Food, Restaurants, Burgers, Coffee & Tea, Food","1","40.009306","-75.2931527",NULL,"True","6:0-23:0","6:0-23:0","6:0-23:0","6:0-4:0","0:0-0:0","0:0-0:0"
"zMqRuy0UApfa2NT-wVdURw","McDonald's","2.0","MO","Arnold","3996 Jeffco Blvd","63010","Restaurants, Burgers, Fast Food","0","38.4057648","-90.3768032",NULL,NULL,NULL,NULL,NULL,NULL,NULL,NULL
"SuzwgDT71HxOccHXsBpJag","McDonald's","1.5","MO","Arnold","2005 Richardson Rd","63010","Fast Food, Coffee & Tea, Restaurants, Burgers, Food","1","38.4184245705","-90.3907495737",NULL,"True","0:0-0:0","0:0-0:0","0:0-0:0","0:0-0:0","0:0-0:0","0:0-0:0"
"wkIwr6GfkhoodGV-thcICg","McDonald's","1.5","MO","Arnold","130 Arnold Cross Rd","63010","Fast Food, Burgers, Coffee & Tea, Food, Restaurants","1","38.4449788","-90.375794",NULL,"True","0:0-0:0","0:0-0:0","0:0-0:0","0:0-0:0","0:0-0:0","0:0-0:0"
"ZdJgP7puNRex0Hy4PWIcAQ","McDonald's","2.0","TN","Ashland City","255 S Main St","37015","Restaurants, Fast Food, Burgers, Coffee & Tea, Food","1","36.2731194","-87.0623285",NULL,"True","5:0-23:0","5:0-23:0","5:0-23:0","5:0-23:0","5:0-0:0","5:0-0:0"
"W0QKIbOBpPDD56umLllxsg","McDonald's","2.0","PA","Audubon","635 S Trooper Rd","19403","Restaurants, Burgers, Coffee & Tea, Food, Fast Food","1","40.128030722","-75.4051747211",NULL,"True","5:30-23:0","5:30-23:0","5:30-23:0","5:30-23:0","5:30-0:0","5:30-0:0"
"xYmyJQiCnsMdxHpMQomxqQ","McDonald's","2.5","IN","Avon","6856 E US Hwy 36","46123","Fast Food, Restaurants, Burgers, Coffee & Tea, Food","1","39.7632800176","-86.4024388685",NULL,"True","4:0-0:0","4:0-0:0","4:0-0:0","4:0-0:0","0:0-0:0","0:0-0:0"
"6tfH-0BnhzDc29p712rUUg","McDonald's","2.0","IN","Avon","10747 E US 36","46123","Food, Coffee & Tea, Fast Food, Burgers, Restaurants","1","39.7631306455","-86.3319026988",NULL,"True","5:0-23:0","5:0-23:0","5:0-23:0","5:0-23:0","5:0-23:0","5:0-23:0"
"wPwxfwrSNMmqxEHMzGG1Jw","McDonald's","1.0","LA","Avondale","2951 Hwy 90","70094","Sandwiches, Coffee & Tea, Burgers, Food, Restaurants, Fast Food","1","29.9091675264","-90.2043836564",NULL,NULL,"5:0-0:0","5:0-0:0","5:0-0:0","5:0-0:0","5:0-0:0","5:0-0:0"
"pvGBHwMceiP6c6L41aL2tw","McDonald's","1.0","LA","Belle Chasse","7862 Hwy 23","70037","Fast Food, Restaurants, Coffee & Tea, Food, Burgers, Sandwiches","1","29.8625218447","-89.996875897",NULL,"True","5:0-0:0","5:0-0:0","5:0-0:0","5:0-0:0","5:0-0:0","5:0-0:0"
"G1vUqy1-vDsCbCFrZkFnuQ","McDonald's","1.5","IL","Belleville","1153 N Green Mount Rd","62221","Food, Coffee & Tea, Restaurants, Fast Food, Burgers","1","38.56986","-89.929873",NULL,"True","0:0-0:0","0:0-0:0","0:0-0:0","0:0-0:0","0:0-0:0","0:0-0:0"
"Jn5nZ0b-cdBS2xHnF4msug","McDonald's","1.5","IL","Belleville","7301 Westfield Plz","62223","Restaurants, Fast Food, Burgers, Coffee & Tea, Food","0","38.544739774","-90.0519396365",NULL,"True","5:0-0:0","5:0-0:0","5:0-0:0","5:0-0:0","5:0-0:0","5:0-0:0"
"3aG8idCwlP-loKf8_hxcRQ","McDonald's","1.5","IL","Belleville","4422 W Main St","62223","Restaurants, Coffee & Tea, Fast Food, Burgers, Food","1","38.5401027559","-90.0235039741",NULL,NULL,"4:0-0:0","4:0-0:0","4:0-0:0","4:0-0:0","4:0-0:0","4:0-0:0"
"7dtnDUJuF6cyqkv5Hvuumg","McDonald's","2.0","IL","Belleville","125 S Belt E","62220","Fast Food, Coffee & Tea, Burgers, Food, Restaurants","1","38.5029623421","-89.9821762982",NULL,"True","0:0-0:0","0:0-0:0","0:0-0:0","0:0-0:0","0:0-0:0","0:0-0:0"
"3bmrxhqVpB5XCg-4j6y39A","McDonald's","1.5","IL","Belleville","906 Carlyle Ave","62221","Restaurants, Coffee & Tea, Food, Burgers, Fast Food","1","38.5175290922","-89.9490435503",NULL,"True","5:0-0:0","5:0-0:0","5:0-0:0","5:0-0:0","5:0-1:0","5:0-1:0"
"yzz9gwayRptbwV7l5cHtRQ","McDonald's","2.0","PA","Bensalem","1240 Bristol Pike","19020","Restaurants, Food, Burgers, Coffee & Tea, Fast Food","1","40.0715989","-74.9662345648",NULL,"True","5:0-0:0","5:0-0:0","5:0-0:0","5:0-0:0","5:0-0:0","5:0-0:0"
"NGK31ST2C3sT1uwNtAeFdw","McDonald's","4.0","PA","Bensalem","1930 Street Rd","19020","Restaurants, Coffee & Tea, Burgers, Fast Food, Food","0","40.096573","-74.9457398",NULL,"True","0:0-0:0","0:0-0:0","0:0-0:0","0:0-0:0","0:0-0:0","0:0-0:0"
"s5J4_ZJpBqsPYuq8ddZkOw","McDonald's","1.5","NJ","Berlin","230 White Horse Pike","08009","Fast Food, Burgers, Restaurants, Coffee & Tea, Food","1","39.7893260018","-74.9271516743",NULL,"True","6:0-0:0","6:0-0:0","6:0-0:0","6:0-0:0","6:0-0:0","6:0-0:0"
"5mfbqMGaexZBtjLOtF9usA","McDonald's","1.5","NJ","Berlin","270 Route 73 N","08091","Restaurants, Coffee & Tea, Burmese, Burgers, Fast Food, Food","1","39.8084804095","-74.9317386746",NULL,"True","6:0-0:0","6:0-0:0","6:0-0:0","6:0-0:0","6:0-0:0","6:0-0:0"
"jXb9PQf1Sss5ukgNVB1a1w","McDonald's","2.0","PA","Berwyn","260 W Swedeford Rd","19312","Food, Coffee & Tea, Burgers, Fast Food, Restaurants","1","40.0706682341","-75.4426981509",NULL,"True","5:0-23:0","5:0-23:0","5:0-23:0","5:0-23:0","5:0-23:0","5:0-23:0"
"Q3ZVqlnrW0OQsakX-yLwvQ","McDonald's","2.5","IL","Bethalto","2 Plaza Dr","62010","Coffee & Tea, Food, Fast Food, Restaurants, Burgers","1","38.9012586403","-90.0575624647",NULL,NULL,"5:30-23:0","5:30-23:0","5:30-23:0","5:30-23:0","5:30-0:0","5:30-0:0"
"nRv9MgxFMhONywEpxyI6uw","McDonald's","2.0","NJ","Beverly","4295 Us-130","08010","Burgers, Food, Coffee & Tea, Restaurants, Fast Food","1","40.0464888539","-74.9044445157",NULL,"True","5:30-23:30","5:30-23:30","5:30-23:30","5:30-0:30","5:30-0:30","5:30-0:30"
"FId1uY73JcswBn6oz5gTEQ","McDonald's","2.0","NJ","Blackwood","1521 Blackwood Clementon Rd","08012","Fast Food, Food, Desserts, Restaurants, Coffee & Tea, Burgers","1","39.8035166","-75.0437818",NULL,"True","5:0-1:0","5:0-1:0","5:0-1:0","5:0-1:0","5:0-1:0","5:0-1:0"
"sW6AmF-EUVRoOCtd5FJyCg","McDonald's","2.0","ID","Boise","8571 W Franklin Rd","83709","Coffee & Tea, Food, Restaurants, Burgers, Fast Food","1","43.6046541998","-116.288703382",NULL,"True","5:0-23:0","5:0-23:0","5:0-23:0","5:0-23:0","5:0-0:0","5:0-0:0"
"ZhcVjB2jA5nhzpTKjuR5cA","McDonald's","2.0","ID","Boise","8300 W Overland Rd","83709","Burgers, Restaurants, Food, Coffee & Tea, Fast Food","1","43.5923261","-116.285445",NULL,"True","7:0-22:0","7:0-22:0","7:0-22:0","7:0-22:0","7:0-22:0","7:0-22:0"
"KEA0YPercPSPYh1JcpkV2A","McDonald's","2.0","ID","Boise","7222 Overland Rd","83709","Burgers, Food, Coffee & Tea, Fast Food, Restaurants","1","43.5906860024","-116.2720964849",NULL,"True","5:0-0:0","5:0-0:0","5:0-0:0","5:0-0:0","5:0-1:0","5:0-1:0"
"sZs1UrdLUMQ6khJGXSvObg","McDonald's","2.5","ID","Boise","510 N Orchard","83704","Fast Food, Burgers, Coffee & Tea, Restaurants, Food","1","43.609381","-116.242945",NULL,"True","5:30-23:0","5:30-23:0","5:30-23:0","5:30-23:0","5:30-23:0","5:30-23:0"
"yvk6mmjToQHHqeT17nrQ_A","McDonald's","1.5","ID","Boise","2510 Fairview Ave","83702","Fast Food, Coffee & Tea, Food, Burgers, Restaurants","1","43.62109","-116.221601",NULL,"True","5:0-0:0","5:0-0:0","5:0-0:0","5:0-0:0","5:0-0:0","6:0-0:0"
"sPFVy3YI8viClkH08SPLeg","McDonald's","2.5","ID","Boise","9804 Fairview Ave","83704","Fast Food, Restaurants, Coffee & Tea, Burgers, Food","1","43.6203666997","-116.3047306663",NULL,"True","0:0-0:0","0:0-0:0","0:0-0:0","0:0-0:0","0:0-0:0","0:0-0:0"
"bwDeI0YRqn7rToBwH4ptKQ","McDonald's","2.0","ID","Boise","1185 Vista Ave","83705","Burgers, Restaurants, Coffee & Tea, Food, Fast Food","1","43.593852489","-116.2141993",NULL,"True","0:0-0:0","0:0-0:0","0:0-0:0","0:0-0:0","0:0-0:0","0:0-0:0"
"ef-uoHTDLBaoDZrc-MOtSg","McDonald's","2.5","ID","Boise","6574 S Federal Way","83716","Burgers, Fast Food, Coffee & Tea, Restaurants, Food","1","43.542302","-116.154943",NULL,"True","5:0-23:0","5:0-23:0","5:0-23:0","5:0-23:0","5:0-0:0","5:0-0:0"
"mM4vtt-BVT_80J9JSKdw7Q","McDonald's","2.0","ID","Boise","4825 N Glenwood St","83714","Food, Fast Food, Restaurants, Coffee & Tea, Burgers","1","43.6488241","-116.2803522",NULL,"True","5:0-0:0","5:0-0:0","5:0-0:0","5:0-0:0","5:0-0:0","5:0-0:0"
"y5fT2Nx49cWtmQTJzkphmg","McDonald's","2.5","ID","Boise","1375 S Broadway Ave","83706","Food, Fast Food, Coffee & Tea, Burgers, Restaurants","1","43.5962307","-116.1941742",NULL,"True","5:30-0:0","5:30-0:0","5:30-0:0","5:30-0:0","5:30-0:0","5:30-0:0"
"pnR9ex4IWiYrnexU6qNP9Q","McDonald's","2.0","ID","Boise","7811 Fairview Ave","83704","Fast Food, Restaurants, Burgers, Coffee & Tea, Food","1","43.6190482864","-116.2797448039",NULL,"True","5:30-23:0","5:30-23:0","5:30-23:0","5:30-23:0","5:30-0:0","5:30-0:0"
"cwzn8WC2mIUvC4DaXqhsSA","McDonald's","1.5","PA","Boothwyn","518 Conchester Hwy","19061","Food, Fast Food, Coffee & Tea, Restaurants, Burgers","1","39.849662","-75.449727",NULL,"True","5:0-1:0","5:0-1:0","5:0-1:0","5:0-1:0","5:0-1:0","5:0-1:0"
"WQv2RGlyOIlDsUmF63nh-Q","McDonald's","2.5","NJ","Bordentown","255 Rt 130","08505","Fast Food, Food, Restaurants, Burgers, Coffee & Tea","1","40.138756685","-74.7075864673",NULL,"True","5:30-23:0","5:30-23:0","5:30-23:0","6:30-23:0","5:30-0:0","5:30-0:0"
"VTOeRnkozjB4wLJhWhS3BA","McDonald's","2.0","FL","Brandon","985 E Bloomingdale Ave","33511","Restaurants, Food, Coffee & Tea, Fast Food, Burgers","1","27.893238","-82.270428",NULL,"True","0:0-0:0","0:0-0:0","0:0-0:0","0:0-0:0","0:0-0:0","0:0-0:0"
"A1lAqN3SOaBLoo6NqVcy4Q","McDonald's","2.0","FL","Brandon","11110 Causeway Blvd","33511","Sandwiches, Burgers, Food, Fast Food, Restaurants, Coffee & Tea","1","27.925332","-82.325395",NULL,"True","0:0-0:0","0:0-0:0","0:0-0:0","0:0-0:0","0:0-0:0","0:0-0:0"
"9DhjKaR2f9wKATnUvxBAgg","McDonald's","1.5","FL","Brandon","11212 Causway Blvd","33511","Coffee & Tea, Food, Burgers, Fast Food, Restaurants","1","27.923798","-82.323313",NULL,"True","0:0-0:0","0:0-0:0","0:0-0:0","0:0-0:0","0:0-0:0","0:0-0:0"
"QwwNjAyC5I8inmb2lNYrAA","McDonald's","1.5","FL","Brandon","502 W Brandon Blvd","33511","Fast Food, Coffee & Tea, Burgers, Food, Restaurants","1","27.938249","-82.2916695",NULL,"True","0:0-0:0","0:0-0:0","0:0-0:0","0:0-0:0","0:0-0:0","0:0-0:0"
"HoXdBq2Puaj69d8z6lgiVw","McDonald's","2.0","TN","Brentwood","410 Old Hickory Blvd","37211","Burgers, Food, Fast Food, Restaurants, Coffee & Tea","1","36.0409200175","-86.7450345308",NULL,"True","5:0-4:0","5:0-4:0","5:0-4:0","5:0-4:0","5:0-4:0","5:0-4:0"
"zZ_xsIQfotnHe25MxQyg0g","McDonald's","2.0","MO","Brentwood","1595 S Hanley","63144","Restaurants, Burgers, Fast Food, Food, Coffee & Tea","1","38.6267","-90.335488",NULL,"True","0:0-0:0","0:0-0:0","0:0-0:0","0:0-0:0","0:0-0:0","0:0-0:0"
"fKbrDP45PmhwvVkNx3Tuow","McDonald's","2.5","TN","Brentwood","6720 Nolensville Pike","37027","Fast Food, Restaurants, Food, Burgers, Coffee & Tea","1","35.9975745877","-86.6899944842",NULL,"True","5:0-23:0","5:0-23:0","5:0-23:0","5:0-23:0","5:0-0:0","5:0-0:0"
"9SVub2VmfgMmyqe3KQh3bA","McDonald's","2.0","TN","Brentwood","109 E Park Dr","37027","Food, Burgers, Fast Food, Restaurants, Coffee & Tea","1","36.0353716033","-86.7917333543",NULL,"True","5:0-23:0","5:0-23:0","5:0-23:0","5:0-23:0","5:0-23:0","5:0-23:0"
"MLNZIwvYb7MiVkSm0lFFhA","McDonald's","1.5","MO","Bridgeton","12499 Natural Bridge Rd","63044","Coffee & Tea, Food, Restaurants, Fast Food, Burgers","0","38.7573818003","-90.4300734401",NULL,"True","5:0-23:30","5:0-4:0","0:0-0:0","4:0-23:30","5:0-23:30","5:0-23:30"
"R22wAKcMz5BsZSQBRcyLHQ","McDonald's","1.5","PA","Bristol","75 Bristol Commerce Park","19007","Coffee & Tea, Restaurants, Fast Food, Burgers, Food","1","40.1004620596","-74.8694463819",NULL,"True","5:30-0:0","5:30-0:0","5:30-0:0","5:30-0:0","5:30-0:0","5:30-0:0"
"nEAxkQ4m0rbSAjD8mxaVrQ","McDonald's","1.5","PA","Bristol","3120 Veterans Hwy","19007","Coffee & Tea, Burgers, Restaurants, Fast Food, Food","1","40.1250626","-74.8812765",NULL,"True","5:0-23:0","5:0-23:0","5:0-23:0","5:0-23:0","5:0-4:0","0:0-0:0"
"40N6HwvUOiRvvdOfMX7wXQ","McDonald's","1.0","PA","Brookhaven","4206 Edgemont Ave","19015","Coffee & Tea, Food, Burgers, Fast Food, Restaurants","1","39.8728792323","-75.3897660971",NULL,"True","0:0-0:0","0:0-0:0","0:0-0:0","0:0-0:0","0:0-0:0","0:0-0:0"
"qXctAMyV6n9PSjPQuUSEpw","McDonald's","2.0","PA","Broomall","2601 W Chester Pike","19008","Restaurants, Burgers, Food, Coffee & Tea, Fast Food","1","39.9823796125","-75.3614473343",NULL,"True","4:0-0:0","4:0-0:0","4:0-0:0","4:0-0:0","0:0-0:0","0:0-0:0"
"JG98smIWipytmzzvo4lBTw","McDonald's","2.5","IN","Brownsburg","873 E Main St","46112","Food, Fast Food, Coffee & Tea, Restaurants, Burgers","1","39.8376531783","-86.382996887",NULL,"True","5:0-23:0","5:0-23:0","5:0-23:0","5:0-23:0","5:0-23:0","5:0-23:0"
"WRh6AOkXFl1qtnlCYUUQ6Q","McDonald's","2.5","IN","Brownsburg","1031 N Green St","46112","Coffee & Tea, Burgers, Fast Food, Restaurants, Food","1","39.8562456409","-86.3919309023",NULL,"True","5:0-23:0","5:0-23:0","5:0-23:0","5:0-23:0","5:0-23:0","5:0-23:0"
"W0JwMDaPz4KxJPqiUuh45A","McDonald's","1.5","PA","Bryn Mawr","1257 Lancaster Ave","19010","Coffee & Tea, Food, Fast Food, Restaurants, Burgers","1","40.026761","-75.328401",NULL,"True","0:0-0:0","0:0-0:0","0:0-0:0","0:0-0:0","0:0-0:0","0:0-0:0"
"enfQ1SHv5PpO_Pq8BvtCRg","McDonald's","1.5","NJ","Burlington","615 York St","08016","Coffee & Tea, Burgers, Food, Restaurants, Fast Food","1","40.0718217649","-74.8530936241",NULL,"True","6:0-0:0","6:0-0:0","6:0-0:0","0:0-0:0","0:0-0:0","0:0-0:0"
"LpoGxHNR-cEbaWhAaU1Nlg","McDonald's","3.0","NJ","Burlington","2102 Mt Holly Rd","08016","Restaurants, Coffee & Tea, Burgers, Fast Food, Food","1","40.0498755088","-74.8403297448",NULL,NULL,"6:0-0:0","6:0-0:0","6:0-0:0","6:0-0:0","6:0-0:0","6:0-0:0"
"QDgGe--XQrPrap3u5EjAmg","McDonald's","1.5","IL","Cahokia","1110 Camp Jackson Rd","62206","Fast Food, Coffee & Tea, Burgers, Food, Restaurants","1","38.5629175855","-90.1775099337",NULL,"True","5:30-23:0","5:30-23:0","5:30-23:0","5:30-23:0","5:30-23:0","5:30-23:0"
"4h7LohcAIj--xLHiF6ydzA","McDonald's","1.5","IN","Camby","8270 Windfall Ln","46113","Burgers, Restaurants, Coffee & Tea, Food, Fast Food","1","39.6430322975","-86.3326263428",NULL,"True","5:0-23:0","5:0-23:0","5:0-23:0","5:0-23:0","5:0-0:0","5:0-0:0"
"AqYorZLGd1DP68eL5hQN3Q","McDonald's","1.5","NJ","Camden","1 Haddon Ave","08103","Restaurants, Food, Fast Food, Burgers, Coffee & Tea","1","39.9438221104","-75.1173561375",NULL,"True","4:0-1:0","4:0-1:0","4:0-1:0","4:0-1:0","4:0-1:0","4:0-1:0"
"03YfclexPdS_yrIbU6ahaA","McDonald's","1.0","NJ","Camden","2720 Mount Ephraim Ave","08104","Food, Burgers, Coffee & Tea, Fast Food, Restaurants","1","39.9105894","-75.098077365",NULL,"True","0:0-0:0","0:0-0:0","0:0-0:0","0:0-0:0","0:0-0:0","0:0-0:0"
"ZnRFh390K4vgTvbNKi59GA","McDonald's","3.0","IN","Carmel","11550 N Illinois","46032","Fast Food, Restaurants, Food, Burgers, Coffee & Tea","1","39.9547773","-86.1631344",NULL,"True","5:30-22:0","5:30-22:0","5:30-22:0","5:30-22:0","5:30-22:0","5:30-22:0"
"Oj3vZFPN5xh-MwK268WqLg","McDonald's","2.0","IN","Carmel","750 E Carmel Dr","46032","Breakfast & Brunch, Restaurants, Coffee & Tea, Burgers, Fast Food, Food","1","39.962477","-86.114508",NULL,"True","5:0-23:0","5:0-23:0","5:0-23:0","5:0-23:0","5:0-1:0","5:0-1:0"
"b8jbsZHfrGZCVPjI9KXV_g","McDonald's","2.0","CA","Carpinteria","1115 Casitas Pass Rd","93013","Fast Food, Burgers, Coffee & Tea, Restaurants, Food","1","34.396815","-119.512362",NULL,"True","0:0-0:0","0:0-0:0","0:0-0:0","0:0-0:0","0:0-0:0","0:0-0:0"
"5D-Gjagh385iopO3xqjjIQ","McDonald's","1.5","IL","Caseyville","1 Rauckman Dr","62232","Burgers, Coffee & Tea, Fast Food, Restaurants, Food","1","38.6131177","-90.0457877",NULL,"True","0:0-0:0","0:0-0:0","0:0-0:0","0:0-0:0","0:0-0:0","0:0-0:0"
"CzsnLeW_yFwmmcdvmy9bMw","McDonald's","1.5","AZ","Catalina","15885 N Oracle Rd","85739","Restaurants, Fast Food, Food, Burgers, Coffee & Tea","1","32.4941906","-110.9263891223",NULL,"True","5:0-23:0","5:0-23:0","5:0-23:0","5:0-23:0","5:0-0:0","5:0-0:0"
"dr_nIjj7A0PYfaN6qS2yng","McDonald's","2.0","PA","Chalfont","4272 County Line Rd","18914","Burgers, Food, Restaurants, Fast Food, Coffee & Tea","1","40.2657993","-75.2266889",NULL,"True","5:30-23:0","5:30-23:0","5:30-23:0","5:30-23:0","5:30-23:0","5:30-23:0"
"d9i5hq9hIjmp7RN2hsOTzQ","McDonald's","2.0","LA","Chalmette","3401 Paris Rd","70043","Restaurants, Fast Food, Food, Burgers, Coffee & Tea","1","29.9504074597","-89.9591526389",NULL,NULL,"0:0-0:0","0:0-0:0","0:0-0:0","0:0-0:0","0:0-0:0","0:0-0:0"
"RMZOOXWt6S0FkzjsuwjP0g","McDonald's","2.5","LA","Chalmette","8319 W Judge Perez","70043","Fast Food, Coffee & Tea, Food, Burgers, Restaurants","1","29.953599","-89.978079",NULL,"True","0:0-0:0","0:0-0:0","0:0-0:0","0:0-0:0","0:0-0:0","0:0-0:0"
"-7Rx5jVeQmlVoAU_oXrzew","McDonald's","1.0","NJ","Cherry Hill","24 W Marlton Pike","08034","Burgers, Fast Food, Restaurants, Food, Coffee & Tea","1","39.9147636602","-75.0127789378",NULL,"True","5:30-0:0","5:30-0:0","5:30-0:0","5:30-0:0","5:30-0:0","5:30-0:0"
"-iXlYo2AI1iHgpeZnv5sPw","McDonald's","1.5","NJ","Cherry Hill","2428 Kaighns Ave","08002","Burgers, Coffee & Tea, Restaurants, Food, Fast Food","1","39.941452","-75.0079164281",NULL,"True","5:0-0:0","5:0-0:0","5:0-0:0","5:0-0:0","5:0-0:0","5:0-0:0"
"_4g4EBJowOS_LXbyMB7DnQ","McDonald's","2.5","NJ","Cherry Hill","801 Rt 38","08002","Burgers, Food, Restaurants, Fast Food, Coffee & Tea","1","39.9360793228","-75.0441165268",NULL,"True","5:30-0:0","5:30-0:0","5:30-0:0","5:30-0:0","5:30-0:0","5:30-0:0"
"phh8Fo60_xBmNXyvdovTbQ","McDonald's","1.5","MO","Chesterfield","13559 Olive St Rd","63017","Fast Food, Coffee & Tea, Food, Restaurants, Burgers","1","38.680101","-90.5010232329",NULL,"True","5:30-23:0","5:30-23:0","5:30-23:0","5:30-23:0","5:30-23:0","5:30-23:0"
"oLV14RPXy_gCS9gvlAofSg","McDonald's","2.0","MO","Chesterfield","101 Lamp And Lantern Vlg","63017","Coffee & Tea, Burgers, Restaurants, Fast Food, Food","1","38.6261663223","-90.5164505448",NULL,"True","5:0-23:0","5:0-23:0","5:0-23:0","5:0-23:0","5:0-23:0","5:0-23:0"
"3CDGF41-vPznG9zY0-05wQ","McDonald's","2.5","NJ","Cinnaminson","100 Rt 130 N","08077","Fast Food, Burgers, Restaurants, Coffee & Tea, Food","1","39.9887813273","-75.0075486302",NULL,"True","6:0-23:0","6:0-23:0","6:0-23:0","6:0-23:0","6:0-0:0","6:0-0:0"
"59fWFpyDg01BTEH-Hh6jdw","McDonald's","1.5","DE","Claymont","2702 Philadelphia Pike","19703","Food, Coffee & Tea, Fast Food, Burgers, Restaurants","1","39.794113","-75.4673805",NULL,"True","0:0-0:0","0:0-0:0","0:0-0:0","0:0-0:0","0:0-0:0","0:0-0:0"
"dAKbutwo3PmXq1G_EMwDlw","McDonald's","2.0","FL","Clearwater","539 S Missouri Ave","33756","Restaurants, Coffee & Tea, Food, Fast Food, Burgers","1","27.9597999388","-82.7871286704",NULL,"True","0:0-0:0","0:0-0:0","0:0-0:0","0:0-0:0","0:0-0:0","0:0-0:0"
"FZy-r97c8ifPtl8FMz7r-A","McDonald's","2.5","FL","Clearwater","3470 Ulmerton Rd","33762","Burgers, Food, Coffee & Tea, Restaurants, Fast Food","1","27.8931639901","-82.6810041151",NULL,"True","0:0-0:0","0:0-0:0","0:0-0:0","0:0-0:0","0:0-0:0","0:0-0:0"
"qWhYKRqQf1RRUzxZdXbM_g","McDonald's","2.5","FL","Clearwater","29978 US Hwy 19 N","33761","Food, Coffee & Tea, Burgers, Fast Food, Restaurants","1","28.04453","-82.7391839109",NULL,"True","5:0-0:0","5:0-0:0","5:0-0:0","5:0-0:0","5:0-1:0","5:0-1:0"
"iryPcdtXO3HQfUzXBqzckw","McDonald's","2.0","FL","Clearwater","2871 Gulf To Bay Blvd","33759","Coffee & Tea, Restaurants, Food, Burgers, Fast Food","1","27.960214","-82.718385",NULL,"True","0:0-0:0","0:0-0:0","0:0-0:0","0:0-0:0","0:0-0:0","0:0-0:0"
"6vXFb9q_dfhI67hma3xRjA","McDonald's","1.5","FL","Clearwater","2454 Mcmullen Booth Rd","33759","Restaurants, Coffee & Tea, Burgers, Food, Fast Food","1","28.010488743","-82.7084478406",NULL,"True","5:0-23:0","5:0-23:0","5:0-23:0","5:0-23:0","5:0-0:0","5:0-0:0"
"ccH0aidX_Z7FeAGW2oejog","McDonald's","2.0","FL","Clearwater","1860 Gulf To Bay Blvd","33765","Fast Food, Burgers, Restaurants, Coffee & Tea, Food","1","27.9609322909","-82.760405",NULL,"True","0:0-0:0","0:0-0:0","0:0-0:0","0:0-0:0","0:0-0:0","0:0-0:0"
"LdiNRhW7nBqHub1d3Q4cOw","McDonald's","3.0","FL","Clearwater","1500 S Belcher Rd","33764","Coffee & Tea, Restaurants, Fast Food, Burgers, Food","1","27.9417703716","-82.7463810845",NULL,"True","0:0-0:0","0:0-0:0","0:0-0:0","0:0-0:0","0:0-0:0","0:0-0:0"
"iZi0sfFccB8ZiC2NZun3Yg","McDonald's","1.5","FL","Clearwater","1934 N Hercules Ave","33763","Fast Food, Food, Burgers, Restaurants, Coffee & Tea","1","27.9908382224","-82.755264515",NULL,"True","0:0-0:0","0:0-0:0","0:0-0:0","0:0-0:0","0:0-0:0","0:0-0:0"
"a_gAQfVy9Op95AGdZ7PFXA","McDonald's","2.0","FL","Clearwater Beach","347 S Gulfview Blvd","33767","Restaurants, Food, Fast Food, Burgers, Coffee & Tea","1","27.9719517219","-82.8292235025",NULL,"True","4:0-1:0","5:30-1:0","5:0-1:0","4:0-1:0","5:0-3:0","4:0-3:0"
"5cpb23lEQ5brolyKRVBhgA","McDonald's","2.0","PA","Clifton Heights","531 Baltimore Pike","19018","Burgers, Restaurants, Food, Coffee & Tea, Fast Food","1","39.9263250384","-75.3069104161",NULL,"True","0:0-0:0","0:0-0:0","0:0-0:0","0:0-0:0","0:0-0:0","0:0-0:0"
"zG3ijcNz5_KyxQb3w29OZg","McDonald's","1.5","PA","Coatesville","1820 E Lincoln Hwy","19320","Coffee & Tea, Restaurants, Burgers, Fast Food, Food","1","39.9885106","-75.789604336",NULL,"True","5:0-23:0","5:0-23:0","5:0-23:0","5:0-23:0","5:0-0:0","5:0-0:0"
"smhunYEIv0HjziHb7VSa7Q","McDonald's","2.0","PA","Collegeville","222 E Main St","19426","Fast Food, Food, Burgers, Restaurants, Coffee & Tea","1","40.184927","-75.451165",NULL,"True","6:0-23:0","6:0-23:0","6:0-23:0","6:0-23:0","6:0-0:0","6:0-0:0"
"ARKOI5VLF41GQGP8UDrheg","McDonald's","1.5","PA","Collegeville","Routes 422 & 29","19426","Restaurants, Burgers, Fast Food","0","40.1628146","-75.4827305",NULL,"True",NULL,NULL,NULL,NULL,NULL,NULL
"szamoM9NWmqMgNmhCIWztQ","McDonald's","2.0","IL","Collinsville","503 Belt Line Rd","62234","Food, Restaurants, Burgers, Coffee & Tea, Fast Food","1","38.6913739777","-89.9769933522",NULL,NULL,"5:0-23:0","5:0-23:0","5:0-23:0","5:0-23:0","5:0-0:0","5:0-0:0"
"LOpRqDGLGOKk__bc2-JbBA","McDonald's","2.0","IL","Collinsville","520 Ramada Blvd","62234","Coffee & Tea, Fast Food, Restaurants, Burgers, Food","1","38.6790335464","-90.0111986604",NULL,"True","5:0-23:0","5:0-23:0","5:0-23:0","5:0-23:0","5:0-0:0","5:0-0:0"
"KsUimGJMBc7hNcNtZVrvRw","McDonald's","2.0","IL","Columbia","300 Columbia Ctr","62236","Burgers, Coffee & Tea, Food, Fast Food, Restaurants","1","38.4467912663","-90.2184712887",NULL,"True","0:0-0:0","0:0-0:0","0:0-0:0","0:0-0:0","0:0-0:0","0:0-0:0"
"QZJklQcVn5EqDarlAEwkZg","McDonald's","1.5","PA","Concordville","1 Christy Dr","19317","Coffee & Tea, Fast Food, Restaurants, Burgers, Food","1","39.8791214602","-75.5459112",NULL,NULL,"5:45-23:0","5:45-23:0","5:45-23:0","5:45-23:0","5:45-0:0","5:45-0:0"
"nXG84STJU1y_AvevXABHuA","McDonald's","2.0","PA","Conshohocken","209 213 Ridge Pike","19428","Coffee & Tea, Food, Burgers, Fast Food, Restaurants","1","40.0943832","-75.2900583",NULL,"True","5:0-0:0","5:0-0:0","5:0-0:0","5:0-0:0","5:0-1:0","5:0-1:0"
"EmN85_ePa8uogLdjN0g6Gw","McDonald's","2.5","MO","Crestwood","9915 Watson Rd","63126","Restaurants, Coffee & Tea, Food, Fast Food, Burgers","1","38.5570444993","-90.3937831521",NULL,"True","5:0-23:0","5:0-23:0","5:0-23:0","5:0-23:0","5:0-0:0","6:0-0:0"
"bDNBsMltPLACTkYFIBB0Mg","McDonald's","2.5","MO","Creve Coeur","11521 Olive Blvd","63141","Food, Burgers, Fast Food, Coffee & Tea, Restaurants","1","38.671719","-90.437116",NULL,"True","0:0-0:0","0:0-0:0","0:0-0:0","0:0-0:0","0:0-0:0","0:0-0:0"
"uswNPK8UQ44QmopDal6Fxg","McDonald's","2.5","PA","Darby","101 S Mcdade Blvd","19023","Fast Food, Food, Burgers, Restaurants, Coffee & Tea","1","39.9201859755","-75.2643706",NULL,"True","5:30-0:0","5:30-0:0","5:30-0:0","5:30-1:0","5:30-1:0","5:30-1:0"
"htc3Ten0e1WO0DO1MJM71g","McDonald's","1.5","NJ","Delran","4057 Route 130","08075","Food, Restaurants, Fast Food, Coffee & Tea, Burgers","1","40.0154247915","-74.9561517182",NULL,"True","6:0-23:0","6:0-23:0","6:0-23:0","6:0-23:0","6:0-23:0","6:0-23:0"
"zdG9d52hqH0JIk65LQzcaA","McDonald's","2.0","NJ","Deptford","1106 Hurffville Rd","08096","Restaurants, Burgers, Fast Food, Food, Coffee & Tea","1","39.8373782253","-75.0885714591",NULL,"True","0:0-0:0","0:0-0:0","0:0-0:0","0:0-0:0","0:0-0:0","0:0-0:0"
"1aSABPmktJY072mRN7_h6Q","McDonald's","1.5","MO","Des Peres","12120 Manche Ster Rd","63131","Restaurants, Burgers, Fast Food, Food, Coffee & Tea","1","38.602031","-90.438571",NULL,"True","4:0-23:0","4:0-23:0","4:0-23:0","4:0-23:0","4:0-23:0","6:0-23:0"
"4M_kLVDf0vq2dKoRcfkGCA","McDonald's","1.5","FL","Dover","4650 Mcintosh Rd","33584","Restaurants, Coffee & Tea, Fast Food, Food, Burgers","1","28.020994","-82.245088",NULL,"True","0:0-0:0","0:0-0:0","0:0-0:0","0:0-0:0","0:0-0:0","0:0-0:0"
"ZYJzr1diF0uwD4Wp7qkKxQ","McDonald's","1.5","PA","Downingtown","227 E Lincoln Hwy","19335","Coffee & Tea, Burgers, Restaurants, Food, Fast Food","1","40.0076253969","-75.7006448507",NULL,"True","5:0-23:0","5:0-23:0","5:0-23:0","5:0-23:0","5:0-4:0","0:0-0:0"
"lAeoNBksQeNB5cY8mvYg9Q","McDonald's","2.5","PA","Doylestown","800 Town Ctr","18901","Food, Coffee & Tea, Restaurants, Burgers, Fast Food","0","40.2964092619","-75.1890751719",NULL,"True","6:0-22:0","6:0-22:0","6:0-22:0","6:0-22:0","6:0-22:0","6:0-22:0"
"zCglWMsODFnewijW7S5KwQ","McDonald's","1.5","PA","Doylestown","561 N Main St","18901","Burgers, Restaurants, Coffee & Tea, Fast Food, Food","1","40.3226786738","-75.1300638914",NULL,"True","5:0-23:0","5:0-23:0","5:0-23:0","5:0-23:0","5:0-23:0","5:0-23:0"
"V_L4yNgqG1zVbrvy7lgOWg","McDonald's","2.0","PA","Dresher","1650 Limekiln Pike","19025","Coffee & Tea, Fast Food, Restaurants, Burgers, Food","1","40.144132","-75.167635",NULL,"True","5:0-0:0","5:0-0:0","5:0-0:0","5:0-0:0","5:0-0:0","5:0-0:0"
"riMs1_xoDD143yY4i1QVDQ","McDonald's","3.0","PA","Drexel Hill","5008 Township Line Rd","19026","Fast Food, Food, Burgers, Restaurants, Coffee & Tea","1","39.9559845214","-75.3210697903",NULL,"True","5:0-0:0","5:0-0:0","5:0-0:0","5:0-0:0","5:0-4:0","0:0-0:0"
"RVIDySg190UzD4bipBqSOQ","McDonald's","2.5","FL","Dunedin","1645 Main St","34698","Food, Burgers, Coffee & Tea, Fast Food, Restaurants","1","28.0190241365","-82.7586579323",NULL,"True","0:0-0:0","0:0-0:0","0:0-0:0","0:0-0:0","0:0-0:0","0:0-0:0"
"iMbqQ3nXS0V33EImLCqXMA","McDonald's","2.5","FL","Dunedin","2618 Bayshore Blvd","34698","Coffee & Tea, Fast Food, Burgers, Restaurants, Food","1","28.0504722541","-82.7802523971",NULL,"True","5:0-0:0","5:0-0:0","5:0-0:0","5:0-0:0","5:0-1:0","5:0-1:0"
"66pIa8VXmTQIHkMxMv_f0w","McDonald's","2.0","ID","Eagle","1460 W Chinden Blvd","83646","Restaurants, Burgers, Fast Food, Coffee & Tea, Salad, Food","1","43.663389609","-116.4110630751",NULL,"True","5:0-23:0","5:0-23:0","5:0-23:0","5:0-23:0","5:0-0:0","5:0-0:0"
"GEKQqHL78Gkhy1juc7dDww","McDonald's","2.0","ID","Eagle","178 S Eagle Rd","83616","Fast Food, Burgers, Restaurants, Coffee & Tea, Food","1","43.6932941","-116.3535944",NULL,"True","5:30-0:0","5:30-0:0","5:30-0:0","5:30-0:0","5:30-1:0","5:30-1:0"
"mhK2uIu7F06ypYdQ5ndmzg","McDonald's","2.0","MO","Earth City","3296 Rider Trl S","63045","Burgers, Coffee & Tea, Food, Fast Food, Restaurants","1","38.7618241811","-90.4548548616",NULL,"True","5:0-23:0","5:0-23:0","5:0-23:0","5:0-23:0","5:0-23:0","5:0-23:0"
"d3v51cMiLdNvn0GevIQDeg","McDonald's","3.0","IL","East Alton","102 Niagara Ave","62024","Burgers, Restaurants, Coffee & Tea, Fast Food, Food","1","38.882787","-90.120658",NULL,"True","5:0-23:0","5:0-23:0","5:0-23:0","5:0-23:0","5:0-0:0","5:0-0:0"
"TfS4WxvQaQ96ts6fprfH0Q","McDonald's","2.0","PA","East Norriton","689 W Germantown Pike","19403","Burgers, Restaurants, Food, Fast Food, Coffee & Tea","1","40.1522826284","-75.3470590545",NULL,"True","6:0-23:0","6:0-23:0","6:0-23:0","6:0-23:0","6:0-0:0","6:0-0:0"
"BvpSIYibEitPN-SH14I9yg","McDonald's","2.0","PA","East Norriton","2931 Dekalb Pike","19401","Burgers, Coffee & Tea, Fast Food, Food, Restaurants","1","40.143927","-75.311555",NULL,"True","6:0-23:0","6:0-23:0","6:0-23:0","6:0-23:0","6:0-0:0","6:0-0:0"
"TbG9cKTpRdALSFyAN5XWqQ","McDonald's","1.5","AB","Eaux Claires","97 Street 165 Avenue","T5Z","Fast Food, Burgers, Restaurants","1","53.6261739118","-113.4915002539",NULL,NULL,NULL,NULL,NULL,NULL,NULL,NULL
"3_kZ2pDiKJLZ9kGKKOWqdA","McDonald's","2.5","PA","Eddystone","1576 Chester Pike","19022","Restaurants, Fast Food, Burgers, Coffee & Tea, Food","1","39.8658758188","-75.3417693079",NULL,"True","5:30-4:0","5:30-4:0","5:30-4:0","5:30-4:0","5:30-4:0","5:30-4:0"
"WklNC4oBYyPqMb2ILfcV3w","McDonald's","1.5","AB","Edmonton","7419 82 Avenue NW","T6B 0G3","Food, Coffee & Tea, Restaurants, Fast Food, Burgers","1","53.5177309032","-113.4416933876",NULL,"True","5:0-23:0","5:0-23:0","5:0-23:0","5:0-23:0","5:0-23:0","5:0-23:0"
"0JGG50I4c9iAPrk7H8dRcg","McDonald's","1.5","AB","Edmonton","3708-158 Avenue NW","T5Y 0S5","Restaurants, Burgers, Coffee & Tea, Fast Food, Food","1","53.6193692336","-113.3987929313",NULL,"True","5:0-23:0","5:0-23:0","5:0-23:0","5:0-23:0","5:0-23:0","5:0-23:0"
"H5cH1BbNfP5YEkytAQaYrg","McDonald's","1.5","AB","Edmonton","17056 90th Ave","T5T 1L6","Restaurants, Food, Coffee & Tea, Fast Food, Burgers","1","53.5253414","-113.6174772",NULL,"True","0:0-0:0","0:0-0:0","0:0-0:0","0:0-0:0","0:0-0:0","0:0-0:0"
"a3oQcnZHbFooAaevF1IjbQ","McDonald's","2.5","AB","Edmonton","9857 50th St","T6A 3X5","Burgers, Fast Food, Coffee & Tea, Restaurants, Food","1","53.5392956643","-113.4178210739",NULL,NULL,"8:0-20:0","8:0-20:0","8:0-20:0","8:0-20:0","8:0-20:0","8:0-20:0"
"OCuodVY_jdUINB8KADuJqg","McDonald's","1.5","AB","Edmonton","9904 22nd Avenue NW","T6N 1J6","Coffee & Tea, Food, Fast Food, Burgers, Restaurants","1","53.4531797618","-113.4865685072",NULL,"True","6:0-23:0","6:0-23:0","6:0-23:0","6:0-23:0","6:0-23:0","6:0-23:0"
"pZl68OjM4Fz0Ms0raK69Bg","McDonald's","2.0","AB","Edmonton","10520 111 Avenue NW","T5G 0B6","Coffee & Tea, Restaurants, Fast Food, Burgers, Food","1","53.5593399","-113.5022487166",NULL,"True","5:0-23:0","5:0-23:0","5:0-23:0","5:0-23:0","5:0-23:0","5:0-23:0"
"YgZwJJDb81jcPHLjJ1mYIA","McDonald's","2.0","AB","Edmonton","11260 Groat Road","T5M 4E7","Burgers, Fast Food, Food, Coffee & Tea, Restaurants","1","53.5615311677","-113.5520360891",NULL,"True","5:0-0:0","5:0-0:0","5:0-0:0","5:0-0:0","5:0-0:0","5:0-0:0"
"Ai8MnqWUCTT03knlsrDSOQ","McDonald's","1.5","AB","Edmonton","10305 80th Ave.","T6E 1T8","Food, Coffee & Tea, Fast Food, Burgers, Restaurants","1","53.5155195","-113.4950977",NULL,"True","0:0-0:0","0:0-0:0","0:0-0:0","0:0-0:0","0:0-0:0","0:0-0:0"
"AoboRmPP2tFZctiav2VAdQ","McDonald's","2.0","AB","Edmonton","8132 112th Avenue NW","T5B 4W4","Restaurants, Coffee & Tea, Food, Fast Food, Burgers","1","53.5615698406","-113.4668087421",NULL,"True","5:0-23:0","5:0-23:0","5:0-23:0","5:0-23:0","5:0-23:0","5:0-23:0"
"mJVNXkfExLzzsXvbaY-ymw","McDonald's","2.5","AB","Edmonton","16725 Stony Plain Rd.","T5P 4A9","Fast Food, Burgers, Restaurants, Food, Coffee & Tea","1","53.5408272","-113.6104159752",NULL,"True","5:0-22:0","5:0-22:0","5:0-22:0","5:0-22:0","5:0-22:0","5:0-22:0"
"IThvWu5a659nF3bk-wzgcg","McDonald's","2.0","AB","Edmonton","11007 23rd Avenue","T6J 5P4","Burgers, Fast Food, Restaurants, Food, Coffee & Tea","1","53.4534754515","-113.5135226498",NULL,"True","5:0-23:0","5:0-23:0","5:0-23:0","5:0-23:0","5:0-23:0","5:0-23:0"
"mZhgrM010o3JkaCZO3dXRw","McDonald's","1.5","AB","Edmonton","13514 Victoria Trail N.W.","T5A 5B9","Burgers, Fast Food, Coffee & Tea, Restaurants, Food","1","53.5969915923","-113.3869621282",NULL,"True","5:0-23:0","5:0-23:0","5:0-23:0","5:0-23:0","5:0-23:0","5:0-23:0"
"mvJazJqQvm7CO7kykpDptg","McDonald's","2.5","AB","Edmonton","6215 199th Street","T5T 2P4","Fast Food, Coffee & Tea, Food, Burgers, Restaurants","1","53.4949355039","-113.6646821691",NULL,"True","5:0-23:0","5:0-23:0","5:0-23:0","5:0-23:0","5:0-23:0","5:0-23:0"
"GrfFulYVrfWIKmwa1dHktg","McDonald's","2.5","AB","Edmonton","15730 87th Avenue","T5R 5W9","Restaurants, Burgers, Coffee & Tea, Fast Food, Food","1","53.5197520544","-113.5947259946",NULL,"True","5:0-23:0","5:0-23:0","5:0-23:0","5:0-23:0","5:0-23:0","5:0-23:0"
"802zLI8fqGFUVbSojvZZsw","McDonald's","2.0","AB","Edmonton","12793 50th St NW","T5A 4L8","Burgers, Restaurants, Fast Food, Food, Coffee & Tea","1","53.58696","-113.417788",NULL,NULL,"5:0-0:0","5:0-0:0","5:0-0:0","5:0-0:0","5:0-0:0","5:0-0:0"
"8MzlreHr5tUxXM_Maqm1eg","McDonald's","2.0","AB","Edmonton","11053 Ellerslie Road","T6W 1S1","Food, Restaurants, Coffee & Tea, Burgers, Fast Food","1","53.4244562312","-113.5142858837",NULL,"True","4:0-23:0","4:0-23:0","4:0-23:0","4:0-23:0","4:0-23:0","4:0-23:0"
"hoNc_KStFGoPRvDq2oI8LQ","McDonald's","3.5","AB","Edmonton","6110 Currents Dr. NW","T6W 0L7","Burgers, Restaurants, Fast Food, Food, Coffee & Tea","1","53.4388966879","-113.6005990261",NULL,"True","0:0-0:0","7:0-23:0","7:0-23:0","7:0-23:0","7:0-23:0","7:0-23:0"
"FWA-LNGHisJXq_UP0WfSmA","McDonald's","3.0","AB","Edmonton","14003 127th Street","T6V 1A8","Fast Food, Burgers, Coffee & Tea, Restaurants, Food","1","53.6024992","-113.5403766",NULL,"True","0:0-0:0","0:0-0:0","0:0-0:0","0:0-0:0","0:0-0:0","0:0-0:0"
"3Annr4f7u9KX2bavh2Y47g","McDonald's","1.5","AB","Edmonton","3841 34th Street NW","T6T 1K9","Fast Food, Food, Coffee & Tea, Restaurants, Burgers","1","53.474261","-113.393216",NULL,"True","0:0-0:0","0:0-0:0","0:0-0:0","0:0-0:0","0:0-0:0","0:0-0:0"
"uVXm-khx_kNEnhKLgn8jUg","McDonald's","2.0","AB","Edmonton","10375 51st Avenue","T6H 5H4","Burgers, Restaurants, Food, Coffee & Tea, Fast Food","1","53.4875886","-113.4957373",NULL,"True","5:0-1:0","5:0-1:0","5:0-1:0","5:0-1:0","5:0-1:0","5:0-1:0"
"dD8HFOlOowiEcBv5F38pew","McDonald's","1.5","AB","Edmonton","5360-23rd Avenue","T6L 6X2","Restaurants, Burgers, Fast Food, Food, Coffee & Tea","1","53.454781","-113.42407",NULL,"True","4:0-23:0","4:0-23:0","4:0-23:0","4:0-23:0","4:0-23:0","4:0-23:0"
"ZznSNkRERGH8l-wSFJKsEA","McDonald's","1.5","AB","Edmonton","12350 118th Avenue","T5L 5G8","Fast Food, Burgers, Coffee & Tea, Food, Restaurants","1","53.570705","-113.5354858",NULL,"True","5:0-21:0","5:0-21:0","5:0-21:0","5:0-21:0","5:0-21:0","5:0-21:0"
"IZ8MvaGP3O6h7VnpPBhkJQ","McDonald's","2.5","AB","Edmonton","17720 100 Avenue NW","T5S 1S9","Restaurants, Fast Food, Burgers, Food, Coffee & Tea","1","53.5384869","-113.6264965212",NULL,"True","5:0-0:0","5:0-0:0","5:0-0:0","5:0-1:0","5:0-1:0","5:0-1:0"
"ayqh0cxxuLrnY55oZr0kkA","McDonald's","4.0","AB","Edmonton","8708 149 Street NW","T5R 1B6","Burgers, Restaurants, Coffee & Tea, Food, Fast Food","1","53.5198721276","-113.57906803",NULL,"True","5:0-0:0","5:0-0:0","5:0-0:0","5:0-0:0","5:0-0:0","5:0-0:0"
"4t1VMmixGuvj6jKhWGLVWg","McDonald's","2.5","AB","Edmonton","16940 127th Street NW","T6V 1B1","Restaurants, Fast Food, Burgers, Food, Coffee & Tea","1","53.6319193","-113.5422961",NULL,"True","0:0-0:0","7:0-23:0","7:0-23:0","7:0-23:0","7:0-23:0","7:0-23:0"
"VRwqMoWUebBzeg-dGOR9VA","McDonald's","2.5","AB","Edmonton","494 Riverbend Square","T6R 2E3","Restaurants, Burgers, Fast Food, Coffee & Tea, Food","1","53.4690762167","-113.5863546944",NULL,"True","5:0-23:0","5:0-23:0","5:0-23:0","5:0-23:0","5:0-23:0","5:0-23:0"
"djj8qE6hQjSeyEt9T2H_dg","McDonald's","1.5","AB","Edmonton","6104 109th Street NW","T6H 1M2","Burgers, Restaurants, Coffee & Tea, Food, Fast Food","1","53.4984478","-113.5125611",NULL,NULL,"0:0-0:0","0:0-0:0","0:0-0:0","0:0-0:0","0:0-0:0","0:0-0:0"
"lvL_24Vo9CLg5Cyimkpdaw","McDonald's","1.5","AB","Edmonton","1296 Webber Greens Drive NW","T5T 7C5","Coffee & Tea, Restaurants, Burgers, Fast Food, Food","1","53.5290462","-113.6883177",NULL,"True","0:0-0:0","0:0-0:0","0:0-0:0","0:0-0:0","0:0-0:0","0:0-0:0"
"zY4ObZaMfkguE37G2gmabw","McDonald's","2.0","AB","Edmonton","6314 Currents Drive NW","T6W 0L7","Fast Food, Food, Restaurants, Burgers, Coffee & Tea","1","53.4357724773","-113.608569364",NULL,"True","4:0-23:0","4:0-23:0","4:0-23:0","4:0-23:0","4:0-23:0","4:0-23:0"
"bnY1-1e0XdPz6zTrG5dacA","McDonald's","2.0","AB","Edmonton","14932 111th Avenue NW","T5M 2P7","Burgers, Restaurants, Coffee & Tea, Food, Fast Food","1","53.5592593101","-113.5786313286",NULL,"True","5:0-0:0","5:0-0:0","5:0-0:0","5:0-0:0","5:0-0:0","0:0-0:0"
"2GUTsH6BHqasxtBEcXwNzQ","McDonald's","1.5","AB","Edmonton","8415 109th Street","T6G 1E3","Restaurants, Burgers, Fast Food, Coffee & Tea, Food","1","53.5207806","-113.5115356",NULL,NULL,"0:0-0:0","0:0-0:0","0:0-0:0","0:0-0:0","0:0-0:0","0:0-0:0"
"1tm-CQ4-dFxY03fAScQ01A","McDonald's","2.0","AB","Edmonton","11660 104th Avenue","T5K 2T7","Restaurants, Burgers, Fast Food, Coffee & Tea, Food","0","53.546627523","-113.5228456062",NULL,NULL,"6:0-2:0","6:0-2:0","6:0-2:0","6:0-3:0","6:0-3:0","6:0-3:0"
"8iiOtnFCXPsq4mbXd-L-Qg","McDonald's","1.5","IL","Edwardsville","6091 Center Grove Rd","62025","Restaurants, Burgers, Food, Fast Food, Coffee & Tea","1","38.7877913203","-89.9804601073",NULL,"True","0:0-0:0","0:0-0:0","0:0-0:0","0:0-0:0","0:0-0:0","0:0-0:0"
"u7WBOKDV5JAqV4RACM1dxg","McDonald's","1.5","IL","Edwardsville","1704 Troy Rd","62025","Coffee & Tea, Fast Food, Food, Restaurants, Burgers","1","38.793076","-89.950692",NULL,"True","5:0-23:0","5:0-23:0","5:0-23:0","5:0-23:0","5:0-23:0","5:0-23:0"
"jSAOaEVCfZkcDpg-yVJ_Ow","McDonald's","3.5","PA","Exton","260 N Pottstown Pike","19341","Restaurants, Fast Food, Coffee & Tea, Food, Burgers","1","40.0336360896","-75.6328949332",NULL,"True","5:0-23:0","5:0-23:0","5:0-23:0","5:0-23:0","5:0-23:0","6:0-23:0"
"uxzICSaSJuAgvWH5TOMXOQ","McDonald's","1.5","PA","Exton","106 Eagleview Blvd","19341","Fast Food, Restaurants, Food, Burgers, Coffee & Tea","1","40.0495984434","-75.6622261508",NULL,"True","5:0-23:0","5:0-23:0","5:0-23:0","5:0-23:0","5:0-23:0","6:0-23:0"
"zSEqhlaHqY8sIDxznturEQ","McDonald's","1.5","PA","Fairless Hills","475 S Oxford Valley Rd","19030","Restaurants, Fast Food, Food, Burgers, Coffee & Tea","1","40.171540527","-74.8515835404",NULL,"True","5:30-23:0","5:30-23:0","5:30-23:0","5:30-23:0","5:30-0:0","5:30-0:0"
"2J36fuglZCzvzfFlneRFjA","McDonald's","1.5","IL","Fairview Heights","6300 N Illinois St","62208","Food, Restaurants, Coffee & Tea, Fast Food, Burgers","1","38.5911536089","-89.9842527509",NULL,"True","0:0-0:0","0:0-0:0","0:0-0:0","0:0-0:0","0:0-0:0","0:0-0:0"
"UVZOk4q8Sovcst4N9ZQcKQ","McDonald's","2.0","PA","Feasterville","334 E Street Rd","19053","Fast Food, Coffee & Tea, Restaurants, Food, Burgers","1","40.1460735358","-74.9934643507",NULL,"True","5:0-1:0","5:0-1:0","5:0-1:0","5:0-1:0","5:0-1:0","4:0-1:0"
"45RduxnVKS8kB1sU_p2mUQ","McDonald's","2.0","MO","Fenton","501 Old Smizer Mill Rd","63026","Burgers, Food, Restaurants, Coffee & Tea, Fast Food","1","38.5157117853","-90.4500807115",NULL,"True","0:0-0:0","0:0-0:0","0:0-0:0","0:0-0:0","0:0-0:0","0:0-0:0"
"X4Z8Iq0hICOjHdc-0NT_jg","McDonald's","1.5","MO","Fenton","1867 Bowles Ave","63026","Fast Food, Coffee & Tea, Food, Restaurants, Burgers","1","38.5405439213","-90.4706720915",NULL,"True","5:0-23:0","5:0-23:0","5:0-23:0","5:0-23:0","5:0-0:0","5:0-0:0"
"kQhmw4RexXf6rfjpiysjkA","McDonald's","2.0","MO","Fenton","100 Old Sugar Creek Rd","63026","Restaurants, Food, Fast Food, Coffee & Tea, Burgers","1","38.489721","-90.486513",NULL,"True","0:0-0:0","0:0-0:0","0:0-0:0","0:0-0:0","0:0-0:0","0:0-0:0"
"QwwljXNHdWjb6UkIFJZTlg","McDonald's","1.5","MO","Ferguson","10873 W Florissant Ave","63136","Coffee & Tea, Burgers, Food, Restaurants, Fast Food","1","38.7680042302","-90.2808393538",NULL,"True","0:0-0:0","0:0-0:0","0:0-0:0","0:0-0:0","0:0-0:0","0:0-0:0"
"2gTnSpYBmg_5JubGpCtSQQ","McDonald's","2.0","IN","Fishers","9611 N By Ne Blvd","46038","Coffee & Tea, Food, Burgers, Fast Food, Restaurants","1","39.9276258761","-86.0256541474",NULL,"True","5:0-1:0","5:0-1:0","5:0-1:0","5:0-1:0","5:0-1:0","5:0-1:0"
"wcpL6sD6jKsBO0tbdK2KEA","McDonald's","2.0","IN","Fishers","8907 E 116th St","46038","Restaurants, Coffee & Tea, Fast Food, Burgers, Food","1","39.9575816","-86.0106627",NULL,"True","5:0-0:0","5:0-0:0","5:0-0:0","5:0-0:0","5:0-0:0","5:0-0:0"
"wJ3zqDpuxUKFtUWIVeAukg","McDonald's","3.5","IN","Fishers","11909 Fishers Crossing Dr","46038","Coffee & Tea, Restaurants, Fast Food, Burgers, Food","1","39.9598146446","-86.0395490332",NULL,"True","5:0-23:0","5:0-23:0","5:0-23:0","5:0-23:0","5:0-23:0","5:0-23:0"
"QSA-x2bb3kum9QLFpy7vUg","McDonald's","1.5","IN","Fishers","9290 E 131st St","46038","Restaurants, Coffee & Tea, Fast Food, Food, Burgers","1","39.9795004552","-86.0048751533",NULL,"True","5:0-23:0","5:0-23:0","5:0-23:0","5:0-23:0","5:0-0:0","5:0-0:0"
"1lWASQ_QiT_RFPEeSvyF5w","McDonald's","1.5","MO","Florissant","6883 Parker Rd","63033","Coffee & Tea, Food, Restaurants, Fast Food, Burgers","1","38.7964128","-90.2319049",NULL,"True","0:0-0:0","0:0-0:0","0:0-0:0","0:0-0:0","0:0-0:0","0:0-0:0"
"wskZf-c4YAmtLA1i2WBKww","McDonald's","1.5","MO","Florissant","1090 Shackleford","63031","Restaurants, Food, Fast Food, Burgers, Coffee & Tea","1","38.8125495","-90.3489128",NULL,"True","5:0-23:0","5:0-23:0","5:0-23:0","5:0-23:0","0:0-0:0","0:0-0:0"
"aqubLw9IW03svL_uDXNJ8A","McDonald's","1.5","MO","Florissant","3165 N Hwy 67","63033","Food, Burgers, Fast Food, Restaurants, Coffee & Tea","1","38.8107873585","-90.2969466057",NULL,"True","0:0-0:0","0:0-0:0","0:0-0:0","0:0-0:0","0:0-0:0","0:0-0:0"
"Mt85lqOEbMxKiokcnvI30g","McDonald's","1.5","MO","Florissant","15 Florissant Oaks Shopping Ctr","63031","Restaurants, Fast Food, Food, Coffee & Tea, Burgers","1","38.8005507986","-90.3345023096",NULL,"True","0:0-0:0","0:0-0:0","0:0-0:0","0:0-0:0","0:0-0:0","0:0-0:0"
"kayZz9qkn24KGspavVYxfA","McDonald's","1.5","PA","Flourtown","1890 Bethleham Pike","19031","Burgers, Coffee & Tea, Fast Food, Restaurants, Food","1","40.1105890459","-75.2133093681",NULL,"True","6:0-23:0","6:0-23:0","6:0-23:0","6:0-23:0","6:0-23:0","6:0-23:0"
"jJrXxt3eQvKVoCNaCaaXcw","McDonald's","2.0","TN","Franklin","1299 Hwy 96 E","37064","Fast Food, Food, Burgers, Coffee & Tea, Restaurants","1","35.91591","-86.829198",NULL,"True","5:0-0:0","5:0-0:0","5:0-0:0","0:0-0:0","0:0-0:0","0:0-0:0"
"NBkrB_4GW4YYhopBhMtceA","McDonald's","1.5","TN","Franklin","106 Hwy 96 W","37064","Restaurants, Coffee & Tea, Fast Food, Burgers, Food","1","35.9253362654","-86.8741253717",NULL,"True","4:0-0:0","4:0-1:0","4:0-0:0","4:0-0:0","4:0-1:0","4:0-1:0"
"S0DD7L0Cu-fzIkzHEmjzTg","McDonald's","2.0","TN","Franklin","1704 Galleria Blvd","37064","Restaurants, Fast Food, Breakfast & Brunch, Burgers, Coffee & Tea, Food","1","35.9661356737","-86.8109804633",NULL,"True","0:0-0:0","4:0-0:0","4:0-0:0","0:0-0:0","0:0-0:0","0:0-0:0"
"N7wYxm84QtcqTJZfGWpxzw","McDonald's","2.5","TN","Franklin","653 Frazier Dr","37067","Food, Restaurants, Fast Food, Burgers, Coffee & Tea","1","35.9453792141","-86.8237428367",NULL,"True","4:0-23:0","4:0-23:0","4:0-23:0","4:0-23:0","4:0-0:0","4:0-0:0"
"MSnWYdS0w5m9JLcr1wHO4w","McDonald's","1.0","PA","Frazer","84 Lancaster Ave","19355","Fast Food, Food, Coffee & Tea, Restaurants, Burgers","0","40.042623","-75.529481",NULL,"True","5:30-23:0","5:30-23:0","5:30-23:0","5:30-23:0","5:30-23:0","6:0-23:0"
"8u30hH32rp4d3TnULZw9vQ","McDonald's","2.0","TN","Gallatin","402 W Main St","37066","Burgers, Coffee & Tea, Food, Restaurants, Fast Food","1","36.3856190759","-86.4551596984",NULL,"True","0:0-0:0","0:0-0:0","0:0-0:0","0:0-0:0","0:0-0:0","0:0-0:0"
"eZNBKIqJi5w7-bGh501ovw","McDonald's","2.0","TN","Gallatin","990 Greensboro Dr","37066","Fast Food, Restaurants, Breakfast & Brunch, Coffee & Tea, Food, Burgers","1","36.359489","-86.498136",NULL,"True","4:0-0:0","4:0-0:0","4:0-0:0","4:0-0:0","4:0-1:0","4:0-1:0"
"jSZQ89WehnfYJcYMGQO2og","McDonald's","1.5","PA","Gilbertsville","1015 E Philadelphia Ave","19525","Coffee & Tea, Burgers, Restaurants, Fast Food, Food","1","40.3265572172","-75.6198961437",NULL,"True","5:0-0:0","5:0-0:0","5:0-0:0","5:0-0:0","5:0-1:0","5:0-1:0"
"WhzPmavp93LcoFVZSELUSw","McDonald's","2.5","NJ","Glassboro","656 Delsea Dr","08028","Pizza, Fast Food, Coffee & Tea, Restaurants, Food, Burgers","1","39.7170462699","-75.1128065586",NULL,"True","0:0-0:0","0:0-0:0","0:0-0:0","0:0-0:0","0:0-0:0","0:0-0:0"
"vE_Y-3EWeu-IWlzpDKagvg","McDonald's","2.0","IL","Godfrey","5511 Godfrey Rd","62035","Coffee & Tea, Restaurants, Fast Food, Food, Burgers","1","38.9468801489","-90.190243721",NULL,"True","5:30-23:0","5:30-23:0","5:30-23:0","5:30-23:0","5:30-0:0","5:30-0:0"
"8qGe4GQYyZstFhYa0rvpIg","McDonald's","2.0","CA","Goleta","146 S Fairview Ave","93117","Food, Burgers, Restaurants, Fast Food, Coffee & Tea","1","34.4368597759","-119.830185537",NULL,"True","5:0-0:0","5:0-0:0","5:0-0:0","5:0-0:0","5:0-0:0","5:0-0:0"
"j6TDQvbRoMszGR0hyaVxvw","McDonald's","2.5","CA","Goleta","6900 Marketplace Dr","93117","Food, Fast Food, Restaurants, Burgers, American (Traditional), Coffee & Tea","1","34.4290262964","-119.8701265695",NULL,"True","5:30-0:0","5:30-0:0","5:30-0:0","5:30-0:0","5:30-0:0","5:30-0:0"
"HMyXpfUQud_7B0OsmBuNcg","McDonald's","1.5","TN","Goodlettsville","304 Long Holllow Pike","37072","Coffee & Tea, Burgers, Food, Fast Food, Restaurants","1","36.3256896965","-86.7017278075",NULL,"True","5:0-23:0","5:0-23:0","5:0-23:0","5:0-23:0","5:0-4:0","5:0-4:0"
"52DsTBhg8NjKDQ6sVaqB7w","McDonald's","2.0","TN","Goodlettsville","906 Two Mile Pkwy","37072","Fast Food, Burgers, Coffee & Tea, Food, Restaurants","1","36.3001474","-86.7000323",NULL,"True","5:0-0:0","5:0-0:0","5:0-0:0","5:0-0:0","5:0-1:0","5:0-1:0"
"d4qVVElEjQrsKBg3ytSWww","McDonald's","1.5","IL","Granite City","2045 Madison Ave","62040","Food, Fast Food, Restaurants, Burgers, Coffee & Tea","1","38.7008355403","-90.145560801",NULL,NULL,"5:0-0:0","5:0-0:0","5:0-0:0","5:0-0:0","5:0-0:0","4:0-0:0"
"CBXly4YEShOzxA6524BE3Q","McDonald's","1.5","IL","Granite City","1515 Johnson Rd","62040","Food, Fast Food, Coffee & Tea, Burgers, Restaurants","1","38.7236247","-90.1214665174",NULL,"True","5:0-0:0","5:0-0:0","5:0-0:0","5:0-0:0","5:0-0:0","5:0-0:0"
"nphMADgWEWqQ_CM_-tWFMw","McDonald's","1.5","IN","Greenfield","2290 N 600 W","46140","Fast Food, Burgers, Food, Restaurants, Coffee & Tea","1","39.8166227974","-85.9158164263",NULL,"True","5:0-23:0","5:0-23:0","5:0-23:0","5:0-23:0","5:0-0:0","5:0-0:0"
"RGMPK0znWtlP6Sr9yHntsA","McDonald's","2.0","IN","Greenwood","2252 US Hwy 31 S","46143","Burgers, Food, Fast Food, Coffee & Tea, Restaurants","1","39.5840045","-86.1005789",NULL,"True","0:0-0:0","0:0-0:0","0:0-0:0","0:0-0:0","0:0-0:0","0:0-0:0"
"7a3P2nje3j65pX6d5xYCvA","McDonald's","3.0","IN","Greenwood","121 Marlin Dr","46142","Restaurants, Coffee & Tea, Burgers, Fast Food, Food","1","39.6176822603","-86.1591591724",NULL,"True","0:0-0:0","0:0-0:0","0:0-0:0","0:0-0:0","0:0-0:0","0:0-0:0"
"e8bOuDRCsHOb5IqQrapT2Q","McDonald's","2.5","IN","Greenwood","2556 S Sr 135","46143","Coffee & Tea, Food, Burgers, Fast Food, Restaurants","1","39.5785806247","-86.1595568061",NULL,"True","5:0-23:0","5:0-23:0","5:0-23:0","5:0-23:0","5:0-0:0","5:0-0:0"
"9T0KlT0HW75LM-sTEPBPbg","McDonald's","1.5","IN","Greenwood","1197 S Park Dr","46143","Fast Food, Coffee & Tea, Restaurants, Burgers, Food","1","39.6148030969","-86.0793279188",NULL,"True","5:0-23:0","5:0-23:0","5:0-23:0","5:0-23:0","5:0-23:0","5:0-23:0"
"f44uARFaTuIPmbMn2VlSXg","McDonald's","2.0","LA","Gretna","140 Lapalco Blvd","70056","Sandwiches, Burgers, Coffee & Tea, Restaurants, Food, Fast Food","1","29.8819030867","-90.023102694",NULL,"True","0:0-0:0","0:0-0:0","0:0-0:0","0:0-0:0","0:0-0:0","0:0-0:0"
"Mu90i2c_9B5LOW4FpCWjEw","McDonald's","1.0","LA","Gretna","709 Terry Pkwy","70056","Restaurants, Fast Food, Burgers, Sandwiches, Food, Coffee & Tea","1","29.8998883024","-90.0298833754",NULL,"True","0:0-0:0","0:0-0:0","0:0-0:0","0:0-0:0","0:0-0:0","0:0-0:0"
"xZxAoUnClT5wm0-QuZPFwg","McDonald's","2.0","LA","Gretna","501 Westbank Expy","70053","Restaurants, Food, Imported Food, Ethnic Food, Specialty Food, Fast Food, Coffee & Tea, Burgers","1","29.9101355887","-90.0572342379",NULL,"True","0:0-0:0","0:0-0:0","0:0-0:0","0:0-0:0","0:0-0:0","0:0-0:0"
"zZKnptPeSPSkza6SKq00HQ","McDonald's","1.5","LA","Gretna","1212 Stumpf Blvd","70053","Food, Coffee & Tea, Fast Food, Sandwiches, Restaurants, Burgers","1","29.9146099335","-90.046379",NULL,"True","0:0-0:0","0:0-0:0","0:0-0:0","0:0-0:0","0:0-0:0","0:0-0:0"
"1v5n-Sb3HW_2Uhaq1X1PdQ","McDonald's","1.5","FL","Gulfport","5111 Gulfport Blvd","33707","Restaurants, Burgers, Fast Food, Coffee & Tea, Food","0","27.7485455886","-82.7024401724",NULL,"True","4:0-0:0","4:0-0:0","4:0-0:0","4:0-0:0","4:0-0:0","0:0-0:0"
"Skjt4qu-ix90v4r4blJ07A","McDonald's","2.0","PA","Harleysville","274 W Main St","19438","Food, Restaurants, Coffee & Tea, Burgers, Fast Food","1","40.2667762942","-75.3763604164",NULL,"False","5:30-23:0","5:30-23:0","5:30-23:0","5:30-23:0","5:30-0:0","5:30-0:0"
"k52dmNDRnhwpwEju7LI-fg","McDonald's","2.0","NJ","Harrison Township","111-123 Bridgeton Pike","08062","Restaurants, Burgers, Fast Food","0","39.7247476938","-75.2208177531",NULL,"True",NULL,NULL,NULL,NULL,NULL,NULL
"zaCX8VFkfunbp3yH60Zg_Q","McDonald's","1.5","LA","Harvey","1505 Manhattan Blvd","70058","Burgers, Food, Restaurants, Fast Food, Coffee & Tea, Sandwiches","1","29.8945946","-90.0597248",NULL,"True","5:0-0:0","5:0-0:0","5:0-0:0","5:0-0:0","5:0-4:0","0:0-0:0"
"k09pb0lnZfJ_TrcCH3VqrQ","McDonald's","1.0","LA","Harvey","3407 Lapalco Blvd","70058","Fast Food, Burgers, Restaurants, Food, Coffee & Tea","1","29.8694788846","-90.0768452883",NULL,"True","0:0-0:0","0:0-0:0","0:0-0:0","0:0-0:0","0:0-0:0","0:0-0:0"
"HgzSkvWHctw5pTQVfKNegQ","McDonald's","2.0","PA","Hatboro","121 N York Rd","19040","Food, Restaurants, Burgers, Coffee & Tea, Fast Food","1","40.1799606","-75.1059038146",NULL,"True","6:0-23:0","6:0-23:0","6:0-23:0","6:0-23:0","6:0-0:0","6:0-0:0"
"6RVwHKupjKs8lyu2qDQXtw","McDonald's","3.0","PA","Hatfield","1511 Bethlehem Pike","19440","Food, Restaurants, Coffee & Tea, Burgers, Fast Food","1","40.2881452","-75.2656267583",NULL,"True","5:30-23:0","5:30-23:0","5:30-23:0","5:30-23:0","5:30-23:0","5:30-23:0"
"wCml58X_fTAbWXVLTQY_4A","McDonald's","2.0","PA","Havertown","1232 Westchester Pike","19083","Fast Food, Restaurants, Burgers, Food, Coffee & Tea","1","39.9724686161","-75.3184247017",NULL,"True","5:0-0:0","5:0-0:0","5:0-0:0","5:0-0:0","5:0-4:0","0:0-0:0"
"XK-mrAzh0cxD4U5Kmhy0fw","McDonald's","2.0","MO","Hazelwood","6270 Howdershell Rd","63042","Coffee & Tea, Food, Burgers, Restaurants, Fast Food","1","38.7836610122","-90.3787265718",NULL,"True","5:0-23:0","5:0-23:0","5:0-23:0","5:0-23:0","5:0-23:0","5:0-23:0"
"3gqWbaq86WGLScQlcMXEyg","McDonald's","2.5","MO","Hazelwood","7300 N Lindbergh","63042","Fast Food, Coffee & Tea, Restaurants, Food, Burgers","1","38.7833590415","-90.354909051",NULL,"True","5:0-0:0","5:0-0:0","5:0-0:0","5:0-0:0","5:0-0:0","5:0-0:0"
"VZxyWuhu_wF1wqeZHo2uDg","McDonald's","1.5","MO","Hazelwood","8700 Pershall Rd","63042","Food, Coffee & Tea, Fast Food, Restaurants, Burgers","1","38.7738449516","-90.3357924521",NULL,"True","0:0-0:0","0:0-0:0","0:0-0:0","0:0-0:0","0:0-0:0","0:0-0:0"
"Tvn4DEIXkRm9QY_IQ_HJJA","McDonald's","2.0","TN","Hendersonville","305 New Shackle Island Rd","37075","Food, Restaurants, Burgers, Coffee & Tea, Fast Food","1","36.321433","-86.623037",NULL,"True","5:0-23:0","5:0-23:0","5:0-23:0","5:0-23:0","5:0-23:0","5:0-23:0"
"HiQwgtgkvkqJmZrCyF2jBQ","McDonald's","1.5","TN","Hendersonville","258 Indian Lake Blvd","37075","Burgers, Food, Fast Food, Coffee & Tea, Restaurants","1","36.326555","-86.5942623",NULL,"True","5:0-0:0","5:0-0:0","5:0-0:0","5:0-0:0","5:0-0:0","5:0-0:0"
"UrB8opztqsAB_0ZyN3MnFQ","McDonald's","1.5","TN","Hendersonville","393 W Main St","37075","Coffee & Tea, Burgers, Food, Restaurants, Fast Food","1","36.3026386131","-86.6277658939",NULL,"True","5:0-23:0","5:0-23:0","5:0-23:0","5:0-23:0","5:0-23:0","5:0-23:0"
"l-JQja1KoFdjaP8AJp_mvQ","McDonald's","1.5","TN","Hermitage","5800 Old Hickory Blvd","37076","Food, Burgers, Restaurants, Coffee & Tea, Fast Food","1","36.169214","-86.5998413",NULL,"True","0:0-0:0","0:0-0:0","0:0-0:0","0:0-0:0","0:0-0:0","0:0-0:0"
"11_eIDfQ146e1J3CMPjpqA","McDonald's","2.0","TN","Hermitage","3470 Lebanon Rd","37076","Burgers, Food, Hot Dogs, Restaurants, Fast Food, Coffee & Tea","1","36.1922695476","-86.6249915166",NULL,"True","4:0-2:0","4:0-2:0","4:0-2:0","4:0-2:0","4:0-2:0","4:0-2:0"
"KwWmZOV6q6GTva8j6h05Nw","McDonald's","1.5","TN","Hermitage","4734 Lebanon Pike","37076","Fast Food, Restaurants, Burgers, Coffee & Tea, Food","1","36.2154354503","-86.5933965845",NULL,"True","0:0-0:0","0:0-0:0","0:0-0:0","0:0-0:0","0:0-0:0","0:0-0:0"
"OazW8HaMRQjo2bDEwl-WiQ","McDonald's","2.0","FL","Holiday","2909 US Hwy 19 N","34691","Fast Food, Restaurants, Food, Coffee & Tea, Burgers","1","28.2010671","-82.7404559",NULL,"True","0:0-0:0","0:0-0:0","0:0-0:0","0:0-0:0","0:0-0:0","0:0-0:0"
"IRrUGBV4BjumBG3oiRRF9Q","McDonald's","2.5","PA","Holmes","2711 Mac Dade Blvd","19043","Coffee & Tea, Restaurants, Burgers, Food, Fast Food","1","39.9002746048","-75.3040266037",NULL,NULL,"6:0-0:0","6:0-0:0","6:0-0:0","6:0-0:0","6:0-0:0","6:0-0:0"
"pgEEHd7S83QsF6IFdWJkwA","McDonald's","1.5","PA","Horsham","Pa Rte 611 And Pine Ave","19044","Burgers, Fast Food, Restaurants, Food, Coffee & Tea","1","40.175032","-75.128636",NULL,"True","5:0-0:0","5:0-0:0","5:0-0:0","5:0-0:0","5:0-0:0","5:0-0:0"
"CxoRg-ZcXdpqXWmUJliYog","McDonald's","2.5","FL","Hudson","9441 St Rd 52","34669","Restaurants, Food, Fast Food, Coffee & Tea, Burgers","1","28.3316185901","-82.6584090292",NULL,"True","0:0-0:0","0:0-0:0","0:0-0:0","0:0-0:0","0:0-0:0","0:0-0:0"
"wIFiBEXMMtMuP9kgxYMQZA","McDonald's","1.5","FL","Hudson","10319 County Line Rd","34609","Food, Burgers, Fast Food, Restaurants, Coffee & Tea","1","28.434438","-82.5503601779",NULL,"True","4:0-2:0","4:0-2:0","4:0-2:0","0:0-0:0","0:0-0:0","0:0-0:0"
"edMDjyhuyaaRo5nOstjlpg","McDonald's","2.0","NJ","Hurffville","122 Delsea Dr","08080","Food, Fast Food, Restaurants, Coffee & Tea, Burgers","1","39.7818502116","-75.1014769077",NULL,"True","5:0-0:0","5:0-0:0","5:0-0:0","5:0-0:0","5:0-1:0","5:0-1:0"
"F-L_qhgCWukNYwjck9vwzw","McDonald's","2.5","IN","Indianapolis","5140 W Washington St","46241","Fast Food, Coffee & Tea, Burgers, Restaurants, Food","1","39.7541128429","-86.2471054571",NULL,"True","5:0-0:0","5:0-0:0","5:0-0:0","5:0-0:0","5:0-1:0","5:0-1:0"
"MTm2ttAKyfkn2c55PySsPA","McDonald's","2.0","IN","Indianapolis","7279 N Keystone Ave","46240","Fast Food, Coffee & Tea, Burgers, Restaurants, Food","1","39.8877206464","-86.1214834437",NULL,"True","5:30-23:0","5:30-23:0","5:30-23:0","5:30-0:0","5:30-0:0","6:0-0:0"
"uOf1XvY9yPEssWP8WBfgZA","McDonald's","1.5","IN","Indianapolis","5199 N Keystone Ave","46205","Coffee & Tea, Restaurants, Food, Burgers, Fast Food","1","39.8471235258","-86.1224759408",NULL,"True","5:0-0:0","5:0-0:0","5:0-0:0","5:0-2:0","5:0-2:0","5:0-2:0"
"dGlMJzK84qUU8zwdbjUjmw","McDonald's","1.5","IN","Indianapolis","5416 S East St","46227","Coffee & Tea, Fast Food, Food, Restaurants, Burgers","1","39.6889988507","-86.1493831873",NULL,"True","5:0-23:0","5:0-23:0","5:0-23:0","5:0-23:0","5:0-23:0","5:0-23:0"
"cFFUSPIJfjm5pbgLGu91XA","McDonald's","1.5","IN","Indianapolis","4705 E 10th St","46201","Fast Food, Restaurants, Food, Coffee & Tea, Burgers","1","39.781089","-86.0900759",NULL,"True","0:0-0:0","0:0-0:0","0:0-0:0","0:0-0:0","0:0-0:0","0:0-0:0"
"03an5ytHalUpCjfN8vcjRA","McDonald's","1.5","IN","Indianapolis","1020 Broad Ripple Ave","46220","Burgers, Fast Food, Coffee & Tea, Restaurants, Food","1","39.870249","-86.140767",NULL,"True","5:0-0:0","5:0-0:0","5:0-0:0","5:0-0:0","5:0-0:0","5:0-0:0"
"QkcPjBcJ_ndCG60HWfZ-fQ","McDonald's","2.5","IN","Indianapolis","2830 S Madison","46225","Coffee & Tea, Restaurants, Food, Burgers, Fast Food","1","39.7249991","-86.1522608",NULL,"True","5:30-0:0","5:30-0:0","5:30-0:0","5:30-0:0","5:30-0:0","5:30-0:0"
"su7Yky-5T1ZD7FTGg1qMag","McDonald's","1.5","IN","Indianapolis","6056 W 71st St","46268","Coffee & Tea, Restaurants, Burgers, Food, Fast Food","1","39.8821861603","-86.2660887837",NULL,"True","5:0-0:0","5:0-0:0","5:0-0:0","5:0-2:0","5:0-2:0","5:0-2:0"
"vIozkqGCcKZteMYouua5Cw","McDonald's","2.0","IN","Indianapolis","3201 E 96th St","46240","Restaurants, Food, Fast Food, Coffee & Tea, Burgers","0","39.926443","-86.111168",NULL,"True","4:0-0:0","4:0-0:0","4:0-0:0","4:0-0:0","4:0-2:0","4:0-2:0"
"kXf1ub58e2IRQ3U7eEQjng","McDonald's","2.0","IN","Indianapolis","6061 E 82nd St","46250","Coffee & Tea, Restaurants, Food, Fast Food, Burgers","1","39.9047118675","-86.064145267",NULL,"True","0:0-0:0","0:0-0:0","0:0-0:0","0:0-0:0","0:0-0:0","0:0-0:0"
"j76unyU-BZnZQjOMRb2ldw","McDonald's","2.0","IN","Indianapolis","9536 N Meridian","46260","Fast Food, Coffee & Tea, Restaurants, Food, Burgers","1","39.9265432461","-86.1586079",NULL,"True","5:0-0:0","5:0-0:0","5:0-0:0","5:0-0:0","5:0-0:0","5:0-0:0"
"MBpl7cTqlJblEj0E8qSS6g","McDonald's","1.5","IN","Indianapolis","3909 W 96th St","46268","Fast Food, Restaurants, Coffee & Tea, Food, Burgers","1","39.9257136739","-86.2286344171",NULL,"True","5:0-23:0","5:0-23:0","5:0-23:0","5:0-23:0","5:0-1:0","5:0-1:0"
"sMZe5nmFqffApI_-ReO4xQ","McDonald's","2.0","IN","Indianapolis","4941 Knights Way","46217","Coffee & Tea, Burgers, Food, Restaurants, Fast Food","1","39.6931258103","-86.1874618419",NULL,"True","5:0-23:0","5:0-23:0","5:0-23:0","5:0-23:0","5:0-0:0","5:0-0:0"
"_RHKuqA3mCHBaNyoljJTrQ","McDonald's","2.5","IN","Indianapolis","3021 Southeastern Ave","46203","Restaurants, Food, Coffee & Tea, Burgers, Fast Food","1","39.7588882824","-86.1131304502",NULL,"True","0:0-0:0","0:0-0:0","0:0-0:0","0:0-0:0","0:0-0:0","0:0-0:0"
"-cXxMH_oL82mOK6MBAjOHA","McDonald's","2.0","IN","Indianapolis","3649 S Keystone Ave","46227","Fast Food, Coffee & Tea, Restaurants, Burgers, Food","1","39.7126647","-86.1200319",NULL,"True","0:0-0:0","0:0-0:0","0:0-0:0","0:0-0:0","0:0-0:0","0:0-0:0"
"5iWGiyNiiiRGvPah8mJJaw","McDonald's","1.5","IN","Indianapolis","5030 Southport Crossing Pl","46227","Fast Food, Food, Coffee & Tea, Restaurants, Burgers","1","39.6653029397","-86.0832197964",NULL,"True","4:0-23:0","4:0-23:0","4:0-23:0","4:0-23:0","4:0-0:0","4:0-0:0"
"LZHiuorqSMLdTJoGCV-UIw","McDonald's","2.0","IN","Indianapolis","2230 S Sherman Dr","46203","Food, Fast Food, Burgers, Restaurants, Coffee & Tea","1","39.7368705354","-86.1023112",NULL,NULL,"4:0-23:0","4:0-23:0","4:0-23:0","4:0-23:0","4:0-23:0","4:0-23:0"
"gRZfY0lrS4JyFg4lgQfczA","McDonald's","2.0","IN","Indianapolis","9851 E Washington St","46229","Burgers, American (Traditional), Restaurants, Fast Food, Coffee & Tea, Food","1","39.7742396899","-85.9938392043",NULL,"True","5:0-0:0","5:0-0:0","5:0-0:0","5:0-0:0","5:0-1:0","5:0-1:0"
"mw-Vn0mmSTYR1ZkQaHdeBQ","McDonald's","1.0","IN","Indianapolis","7236 W 10th St","46224","Burgers, Fast Food, Food, Coffee & Tea, Restaurants","1","39.779622","-86.288322",NULL,"True","5:0-23:0","5:0-23:0","5:0-23:0","5:0-23:0","5:0-23:0","5:0-23:0"
"1riuPe3T4qcDkYlmEPku_Q","McDonald's","2.0","IN","Indianapolis","7229 E Washington","46219","Food, Burgers, Restaurants, Coffee & Tea, Fast Food","1","39.7720070831","-86.0388278961",NULL,"True","0:0-0:0","0:0-0:0","0:0-0:0","0:0-0:0","0:0-0:0","0:0-0:0"
"3UgJp_NqcBOrBE9ANvVxRQ","McDonald's","1.5","IN","Indianapolis","3828 W Morris St","46241","Restaurants, Fast Food, Food, Burgers, Coffee & Tea","1","39.7502781622","-86.2262780964",NULL,"True","5:0-4:0","5:0-4:0","5:0-4:0","5:0-4:0","5:0-4:0","5:0-4:0"
"uR--z40doqUJNP5WVsSKLQ","McDonald's","1.5","IN","Indianapolis","6830 W 38th St","46254","Fast Food, Restaurants, Food, Coffee & Tea, Burgers","1","39.824026","-86.280518",NULL,"True","0:0-0:0","0:0-0:0","0:0-0:0","0:0-0:0","0:0-0:0","0:0-0:0"
"NIlAb8xuqKyvvqV9mwK6Hg","McDonald's","2.5","IN","Indianapolis","5935 Madison Ave","46227","Coffee & Tea, Food, Fast Food, Burgers, Restaurants","1","39.6802746146","-86.1315974593",NULL,"True","5:30-23:0","5:30-23:0","5:30-23:0","5:30-23:0","5:30-23:0","5:30-23:0"
"j7JUGY0WtfGaV8DnkmNNGQ","McDonald's","1.5","IN","Indianapolis","2425 E 38th St","46218","Restaurants, Burgers, Fast Food, Food, Coffee & Tea","1","39.8249199531","-86.1206050962",NULL,"True","5:0-0:0","5:0-2:0","5:0-2:0","5:0-0:0","5:0-0:0","5:0-0:0"
"2Ax2c1Ok3bCa2CO-HKIzHQ","McDonald's","1.5","IN","Indianapolis","2551 Emerson Ave","46218","Fast Food, Coffee & Tea, Burgers, Restaurants, Food","1","39.8049663412","-86.0825408712",NULL,"True","0:0-0:0","0:0-0:0","0:0-0:0","0:0-0:0","0:0-0:0","0:0-0:0"
"02exrrOiVaTnrRXQGaYCDA","McDonald's","1.5","IN","Indianapolis","5540 Michigan Rd","46228","Burgers, Restaurants","0","39.852922","-86.195693",NULL,"True",NULL,NULL,NULL,NULL,NULL,NULL
"3hmjz4VDytVaPy7drmvnDw","McDonald's","2.5","IN","Indianapolis","4044 E Southport Rd","46227","Coffee & Tea, Burgers, Fast Food, Food, Restaurants","1","39.6658866","-86.0979896",NULL,"True","5:0-23:0","5:0-23:0","5:0-23:0","5:0-23:0","0:0-0:0","0:0-0:0"
"wdFMJH5synpdp0jMNdCHNw","McDonald's","1.5","IN","Indianapolis","6155 Crawfordsville Rd","46224","Coffee & Tea, Fast Food, Restaurants, Food, Burgers","1","39.7998889324","-86.2682582679",NULL,"True","5:0-23:0","5:0-23:0","5:0-23:0","5:0-23:0","5:0-23:0","5:0-23:0"
"EEOgBTYNuaAHDSOBXauQxQ","McDonald's","3.0","IN","Indianapolis","7190 Pendleton Pike","46226","Restaurants, Coffee & Tea, Fast Food, Food, Burgers","1","39.8294352153","-86.0423851758",NULL,NULL,"6:0-0:0","6:0-0:0","6:0-0:0","6:0-0:0","6:0-1:0","6:0-1:0"
"dv_AMvV9J-6qrke4BUQuEA","McDonald's","2.5","IN","Indianapolis","7911 US 31 S","46227","Restaurants, Fast Food, Burgers, Coffee & Tea, Food","1","39.651490673","-86.1374375465",NULL,"True","0:0-0:0","0:0-0:0","0:0-0:0","0:0-0:0","0:0-0:0","0:0-0:0"
"HqjKx2lWhVa8jjhPNkkLEw","McDonald's","1.5","IN","Indianapolis","3515 S Post Rd","46239","Food, Coffee & Tea, Restaurants, Fast Food, Burgers","1","39.7172298928","-86.0076418519",NULL,"True","5:0-23:0","5:0-23:0","5:0-23:0","5:0-23:0","5:0-0:0","5:0-0:0"
"RL6BaK196Scg2DEY3Uc1AQ","McDonald's","1.5","IN","Indianapolis","1611 N Meridian St","46202","Food, Restaurants, Fast Food, Coffee & Tea, Burgers","1","39.7890361088","-86.1569398883",NULL,"True","0:0-0:0","0:0-0:0","0:0-0:0","0:0-0:0","0:0-0:0","0:0-0:0"
"0ERS4_k61Ea7VVunLcxlgA","McDonald's","1.5","IN","Indianapolis","7822 Brookville Rd","46239","Coffee & Tea, Restaurants, Food, Fast Food, Burgers","1","39.7510400009","-86.0291290283",NULL,"None","4:0-0:0","4:0-0:0","4:0-0:0","4:0-0:0","4:0-1:0","4:0-1:0"
"G4IigHfYODjMJ0NpF3zEhQ","McDonald's","1.5","IN","Indianapolis","9833 Fall Creek Rd","46256","Restaurants, Coffee & Tea, Food, Burgers, Fast Food","1","39.899030105","-85.9946509361",NULL,"True","5:0-23:0","5:0-23:0","5:0-23:0","5:0-23:0","5:0-0:0","5:0-0:0"
"qZF_3GegBnpVC4PjAHDrXg","McDonald's","1.5","IN","Indianapolis","4541 S Emerson","46203","Food, Fast Food, Burgers, Restaurants, Coffee & Tea","1","39.7007968091","-86.0815729201",NULL,"True","0:0-0:0","0:0-0:0","0:0-0:0","0:0-0:0","0:0-0:0","0:0-0:0"
"m7QwOZSP21kmiZ-HQV5PfQ","McDonald's","2.5","IN","Indianapolis","3435 W 16th St","46222","Fast Food, Food, Burgers, Coffee & Tea, Restaurants","1","39.7874586191","-86.2175287306",NULL,"True","5:30-23:0","5:30-23:0","5:30-23:0","5:30-23:0","5:30-23:0","6:0-23:0"
"8F75isJz4UF_5LFsyf80HA","McDonald's","2.0","IN","Indianapolis","5617 N Michigan Rd","46228","Fast Food, Burgers, Food, Coffee & Tea, Restaurants","1","39.854480878","-86.1944201589",NULL,NULL,"5:0-0:0","5:0-0:0","5:0-0:0","5:0-0:0","5:0-0:0","5:0-0:0"
"q65rexCPby1q3kHpKNkMwA","McDonald's","1.5","IN","Indianapolis","4545 W 38th St","46254","Fast Food, Restaurants, Burgers, Food, Coffee & Tea","1","39.8234417171","-86.2368687987",NULL,"True","5:0-1:0","5:0-1:0","5:0-1:0","5:0-4:0","0:0-0:0","0:0-0:0"
"EbUHcdCkaIDRUh-rgDerbw","McDonald's","1.5","IN","Indianapolis","4906 Kentucky Ave","46221","Coffee & Tea, Food, Burgers, Fast Food, Restaurants","1","39.6946777341","-86.2702024437",NULL,"True","5:0-0:0","5:0-0:0","5:0-0:0","5:0-0:0","5:0-0:0","5:0-0:0"
"dctMpMdLUMad1Umh4knaNg","McDonald's","1.0","IN","Indianapolis","3745 N Post Rd","46226","Restaurants, Burgers, Food, Coffee & Tea, Fast Food","1","39.8254749015","-86.0094898939",NULL,"True","0:0-0:0","0:0-0:0","0:0-0:0","0:0-0:0","0:0-0:0","0:0-0:0"
"KwJY9y6ss29PCkL52kRxzg","McDonald's","2.0","IN","Indianapolis","7000 N Graham Rd","46220","Coffee & Tea, Food, Restaurants, Burgers, Fast Food","1","39.8816551344","-86.070355922",NULL,"True","0:0-0:0","0:0-0:0","0:0-0:0","0:0-0:0","0:0-0:0","0:0-0:0"
"sLw1rA-NK3vm4Pbvzczb8A","McDonald's","1.5","IN","Indianapolis","4802 W 57th St","46254","Fast Food, Restaurants, Burgers, Food, Coffee & Tea","1","39.856466","-86.241032",NULL,"True","5:0-0:0","5:0-0:0","5:0-0:0","5:0-2:0","5:0-2:0","5:0-2:0"
"bBPrDU0lA1vgiQOlDhzuWw","McDonald's","3.5","IN","Indianapolis","6840 W Washington St","46241","Fast Food, Coffee & Tea, Burgers, Restaurants, Food","1","39.7443925076","-86.279619",NULL,"True","4:0-0:0","4:0-0:0","4:0-0:0","4:0-0:0","4:0-0:0","4:0-0:0"
"6g2-9mUquEDYw8y9KHJTzg","McDonald's","3.0","IN","Indianapolis","7800 Col H Weir Cook Memorial Dr","46241","Fast Food, Food, Coffee & Tea, Restaurants, Burgers","1","39.714656","-86.2982287",NULL,"True","4:30-22:0","4:30-22:0","4:30-22:0","4:30-22:0","4:30-22:0","4:30-22:0"
"wfBEbpPmIm6PX4oclmOt7Q","McDonald's","2.5","IN","Indianapolis","1934 N Shadeland Ave","46219","Fast Food, Food, Restaurants, Burgers, Coffee & Tea","1","39.7946514631","-86.0464489701",NULL,"True","6:0-0:0","6:0-0:0","6:0-0:0","6:0-0:0","6:0-1:0","6:0-1:0"
"oMwgGoawoMEqvgcy2FKVug","McDonald's","1.5","IN","Indianapolis","2524 S County Line Rd E","46227","Fast Food, Coffee & Tea, Restaurants, Food, Burgers","1","39.6359383417","-86.1179919541",NULL,"True","0:0-0:0","0:0-0:0","0:0-0:0","0:0-0:0","0:0-0:0","0:0-0:0"
"1xOyqnO5FtxSLwRfT6mzPw","McDonald's","1.5","IN","Indianapolis","3501 W 86th St","46268","Fast Food, Restaurants, Coffee & Tea, Burgers, Food","1","39.9112052819","-86.2199422958",NULL,"True","0:0-0:0","0:0-0:0","0:0-0:0","0:0-0:0","0:0-0:0","0:0-0:0"
"1MpCSA9931OUqvZ3vTqzvg","McDonald's","1.5","IN","Indianapolis","37 W 38th St","46208","Coffee & Tea, Food, Burgers, Restaurants, Fast Food","1","39.8244387471","-86.1584731936",NULL,"True","0:0-0:0","0:0-0:0","0:0-0:0","0:0-0:0","0:0-0:0","0:0-0:0"
"DsKm53QrsVk5GZ9QgYQmyQ","McDonald's","3.0","PA","Jamison","2395 York Rd","18929","Restaurants, Fast Food, Burgers, Food, Coffee & Tea","1","40.260077","-75.085976",NULL,"True","5:0-23:0","5:0-23:0","5:0-23:0","5:0-23:0","5:0-0:0","5:0-0:0"
"JpH5dhrs9nB-DEoX2dbZwQ","McDonald's","1.5","LA","Jefferson","1151 S Clearview Pkwy","70121","Restaurants, Burgers, Fast Food, Coffee & Tea, Food","1","29.9617757","-90.1836335",NULL,"True","4:0-23:0","4:0-23:0","4:0-23:0","4:0-23:0","4:0-0:0","4:0-0:0"
"VPIHVHsO_vTk2lnAcYxARQ","McDonald's","2.0","LA","Jefferson","2916 Jefferson Hwy","70121","Food, Coffee & Tea, Restaurants, Fast Food, Burgers","1","29.9625334","-90.156338",NULL,"True","5:0-0:0","5:0-0:0","5:0-0:0","5:0-0:0","5:0-4:0","0:0-0:0"
"UYIr1d1zJr3jVYhXOoxyLg","McDonald's","1.0","MO","Jennings","8983 Jennings Station Rd","63136","Coffee & Tea, Restaurants, Food, Fast Food, Burgers","1","38.727753","-90.244079",NULL,NULL,"5:0-1:0","5:0-1:0","5:0-1:0","5:0-4:0","0:0-0:0","0:0-0:0"
"2xvxGJu9rWdhZ7AheiOheQ","McDonald's","1.5","TN","Joelton","6451 Eatons Creek Rd","37080","Restaurants, Burgers, Coffee & Tea, Food, Fast Food","1","36.3217371","-86.8682655",NULL,"True","5:0-23:0","5:0-23:0","5:0-23:0","5:0-23:0","5:0-0:0","5:0-0:0"
"sSbbUmWhNmMKRZOHG1BnYA","McDonald's","1.5","LA","Kenner","3013 Loyola Dr","70065","Food, Burgers, Restaurants, Fast Food, Coffee & Tea","1","30.0092854392","-90.2670051941",NULL,"True","0:0-0:0","0:0-0:0","0:0-0:0","0:0-0:0","0:0-0:0","0:0-0:0"
"TS-NZ7L-hQtmcGDG79P2cw","McDonald's","2.0","LA","Kenner","1309 W Esplanade Ave","70065","Restaurants, Coffee & Tea, Burgers, Fast Food, Food","1","30.0200804851","-90.2506002952",NULL,"True","4:0-0:0","5:0-0:0","5:0-0:0","5:0-0:0","5:0-4:0","0:0-0:0"
"qFbBDbIjAKdqxJnHu7SoOQ","McDonald's","3.0","LA","Kenner","2145 Veterans Memorial Blvd","70062","Coffee & Tea, Restaurants, Burgers, Food, Fast Food","1","30.006003","-90.238745",NULL,"True","0:0-0:0","0:0-0:0","0:0-0:0","0:0-0:0","0:0-0:0","0:0-0:0"
"nJaofGlu3gAClv_1Kw5sUg","McDonald's","2.0","LA","Kenner","2126 Airline Hwy","70062","Fast Food, Food, Burgers, Coffee & Tea, Restaurants","1","29.980177","-90.243775",NULL,"True","0:0-0:0","0:0-0:0","0:0-0:0","0:0-0:0","0:0-0:0","0:0-0:0"
"HvFHRwDDu36nBGSyEv81WQ","McDonald's","1.5","PA","Kennett Square","399 Scarlet Rd New Garden Shopping Ctr","19348","Fast Food, Burgers, Coffee & Tea, Food, Restaurants","1","39.8423291687","-75.7296930161",NULL,"True","5:0-0:0","5:0-0:0","5:0-0:0","5:0-0:0","5:0-0:0","5:0-0:0"
"mf7M1IxaoCRoM4-jJsyblQ","McDonald's","1.5","PA","King Of Prussia","151 N Henderson Rd","19406","Fast Food, Food, Burgers, Restaurants, Coffee & Tea","1","40.0956527","-75.3651035",NULL,"True","0:0-0:0","0:0-0:0","0:0-0:0","0:0-0:0","0:0-0:0","0:0-0:0"
"dZ0ys95zBvv_LD6nrwhtyA","McDonald's","1.5","MO","Kirkwood","350 S Kirkwood Rd","63122","Restaurants, Food, Coffee & Tea, Burgers, Fast Food","1","38.577109","-90.406024",NULL,"True","4:30-0:0","4:30-0:0","4:30-0:0","4:30-0:0","4:30-1:0","4:30-1:0"
"ub8HSWJPsD_CqImzCehrZg","McDonald's","2.5","ID","Kuna","1311 N Meridian Rd","83634","Burgers, Food, Fast Food, Restaurants, Coffee & Tea, American (Traditional)","1","43.500160976","-116.3944977522",NULL,NULL,"5:0-0:0","5:0-0:0","5:0-0:0","5:0-0:0","5:0-0:0","5:0-0:0"
"YJn_vbvLVLySH3ZdMYlSsQ","McDonald's","1.5","FL","Land O' Lakes","2420 Land Olakes Blvd","34639","Fast Food, Burgers, Restaurants, Coffee & Tea, Food","1","28.1928051629","-82.4650240186",NULL,"True","0:0-0:0","0:0-0:0","0:0-0:0","0:0-0:0","0:0-0:0","0:0-0:0"
"rShPcpEDUniXVAcC62FrVA","McDonald's","1.5","FL","Land O'Lakes","8000 Land O'lake Blvd","34638","Restaurants, Food, Burgers, Fast Food, Coffee & Tea","1","28.273305","-82.480625",NULL,"True","0:0-0:0","0:0-0:0","0:0-0:0","0:0-0:0","0:0-0:0","0:0-0:0"
"EB5pnHGHthrpHw4875lzBg","McDonald's","2.0","PA","Lansdale","1551 S Valley Forge Rd","19446","Coffee & Tea, Food, Restaurants, Fast Food, Burgers","1","40.2297444655","-75.313315",NULL,"True","5:30-23:0","5:30-23:0","5:30-23:0","5:30-23:0","5:30-0:0","5:30-0:0"
"aNXw3PkXVt8ANwLyCfcmpg","McDonald's","1.5","PA","Lansdale","2333 Welsh Rd","19446","Restaurants, Fast Food, Burgers, Food, Coffee & Tea","1","40.2637063378","-75.3179157563",NULL,NULL,"6:0-23:0","6:0-23:0","6:0-23:0","6:0-23:0","6:0-0:0","6:0-0:0"
"TlusNUxZToaR7yjn69H5JA","McDonald's","1.5","PA","Lansdowne","201 E Baltimore Ave","19050","Restaurants, Fast Food, Food, Burgers, Coffee & Tea","1","39.9400107303","-75.2645588886",NULL,"True","0:0-0:0","0:0-0:0","0:0-0:0","0:0-0:0","0:0-0:0","0:0-0:0"
"8cGyreYTlXU87DfS8g4P7Q","McDonald's","2.0","FL","Largo","1590 Missouri Ave","33770","Fast Food, Burgers, Coffee & Tea, Restaurants, Food","1","27.9310917087","-82.7871988955",NULL,"True","5:0-1:0","5:0-1:0","5:0-1:0","5:0-2:0","5:0-2:0","5:0-2:0"
"P0XD2z0VYEW6VnC7wIPPMw","McDonald's","2.5","FL","Largo","1250 W Bay Dr","33770","Restaurants, Burgers, Coffee & Tea, Food, Fast Food","1","27.9171671835","-82.8002402186",NULL,"True","0:0-0:0","0:0-0:0","0:0-0:0","0:0-0:0","0:0-0:0","0:0-0:0"
"2HkgsHiqWwEW9e44Vhw8DQ","McDonald's","1.5","FL","Largo","7901 Ulmerton Rd","33771","Food, Fast Food, Restaurants, Burgers, Coffee & Tea","1","27.894732","-82.747234",NULL,"True","0:0-0:0","0:0-0:0","0:0-0:0","0:0-0:0","0:0-0:0","0:0-0:0"
"AgRp84lRUlo_DoT_kOawCA","McDonald's","2.0","FL","Largo","12976 Seminole Blvd","33778","Restaurants, Fast Food, Coffee & Tea, Food, Burgers","1","27.890754","-82.787624",NULL,"True","5:0-4:0","5:0-4:0","5:0-4:0","5:0-4:0","5:0-4:0","5:0-4:0"
"fdKqGhyMll3WpOqJOQaQPw","McDonald's","1.5","FL","Largo","13875 Walsingham Rd","33774","Restaurants, Burgers, Coffee & Tea, Food, Fast Food","1","27.8809062652","-82.8306798201",NULL,"True","0:0-0:0","0:0-0:0","0:0-0:0","0:0-0:0","0:0-0:0","0:0-0:0"
"i32_0bfMEpQxV_q556R6kA","McDonald's","1.0","FL","Largo","2300 E Bay Dr","33771","Fast Food, Coffee & Tea, Burgers, Restaurants, Food","1","27.917058","-82.763318",NULL,"True","0:0-0:0","0:0-0:0","0:0-0:0","0:0-0:0","0:0-0:0","0:0-0:0"
"f9EcjCMakeDJMRR7nKH6zw","McDonald's","1.5","FL","Largo","2675 Roosevelt Blvd","33760","Fast Food, Burgers, Coffee & Tea, Restaurants, Food","1","27.9157420057","-82.7264347914",NULL,"True","0:0-0:0","0:0-0:0","0:0-0:0","0:0-0:0","0:0-0:0","0:0-0:0"
"QZcLPdsNijgiqz-cds3efw","McDonald's","1.5","TN","La Vergne","505 Waldron Rd","37086","Restaurants, Food, Burgers, Fast Food, Coffee & Tea","1","36.0000581","-86.595759",NULL,"True","0:0-0:0","0:0-0:0","0:0-0:0","0:0-0:0","0:0-0:0","0:0-0:0"
"C0W9r59JJld8ZfJ3hEQQWA","McDonald's","1.5","TN","La Vergne","5147 Murfreesboro Rd","37086","Restaurants, Fast Food, Coffee & Tea, Burgers, Food","1","36.0207263804","-86.5768843889",NULL,NULL,"0:0-0:0","0:0-0:0","0:0-0:0","0:0-0:0","0:0-0:0","0:0-0:0"
"3eJlEkRmcJODPMOp-cJkcA","McDonald's","2.0","IN","Lawrence","10955 Pendleton Pike","46236","Restaurants, Fast Food, Burgers, Food, Coffee & Tea","1","39.8616254564","-85.973136574",NULL,"True","5:0-0:0","5:0-0:0","5:0-0:0","5:0-0:0","5:0-1:0","5:0-1:0"
"M99ZH5s10gditCQZCJfCMQ","McDonald's","2.5","NJ","Lawrence Township","301 Brunswick Cir","08648","Food, Coffee & Tea, Burgers, Fast Food, Restaurants","1","40.2461708448","-74.7443964332",NULL,"True","6:0-23:0","6:0-23:0","6:0-23:0","6:0-23:0","6:0-0:0","6:0-0:0"
"p3qatJIq6b8Gd_k7hwpHOg","McDonald's","1.5","TN","Lebanon","320 Hwy 109 N","37090","Restaurants, Burgers, Coffee & Tea, Fast Food, Food","1","36.1885354901","-86.4102575183",NULL,"True","5:0-1:0","5:0-1:0","5:0-1:0","5:0-1:0","5:0-2:0","5:0-2:0"
"jtvJ6JQ4D2z-SKdPkoU07A","McDonald's","2.5","IL","Lebanon","713 S Madison","62254","Food, Fast Food, Coffee & Tea, Burgers, Restaurants","1","38.5968923883","-89.8083490833",NULL,"True","5:0-23:0","5:0-23:0","5:0-23:0","5:0-23:0","5:0-0:0","5:0-0:0"
"iLLCTZJgTucIFTMm0-IfTQ","McDonald's","1.5","PA","Levittown","6606 New Falls Rd","19056","Coffee & Tea, Burgers, Restaurants, Fast Food, Food","1","40.1510945083","-74.8593431711",NULL,NULL,"5:45-0:0","5:45-0:0","5:45-0:0","5:45-0:0","5:45-0:0","5:45-0:0"
"MsjeqVij6usbF8lSARj4pw","McDonald's","2.0","PA","Lima","1123 W Baltimore Pike","19063","Burgers, Coffee & Tea, Fast Food, Restaurants, Food","1","39.9142551753","-75.4338374734",NULL,"True","5:30-23:0","5:30-23:0","5:30-23:0","5:30-23:0","5:30-23:0","5:30-23:0"
"96xOmjfSB6RoKUFAF8yzIw","McDonald's","1.5","PA","Limerick","32 Ridge Pike","19468","Coffee & Tea, Restaurants, Fast Food, Burgers, Food","1","40.2172335348","-75.5019763112",NULL,"True","6:0-23:0","6:0-23:0","6:0-23:0","6:0-23:0","6:0-0:0","6:0-0:0"
"b2ZSuQ_7aiH5IycxtY3xZQ","McDonald's","2.0","NJ","Lindenwold","517 White Horse Pike","08021","Food, Burgers, Coffee & Tea, Fast Food, Restaurants","1","39.8144677957","-74.9883064628",NULL,"True","5:30-0:0","5:30-0:0","5:30-0:0","5:30-0:0","5:30-4:0","0:0-0:0"
"1YBqzpRWXW_Vb5grCPGRvA","McDonald's","2.5","PA","Linwood","2326 Market St","19061","Coffee & Tea, Fast Food, Restaurants, Food, Burgers","1","39.8343114475","-75.4249231517",NULL,"True","0:0-0:0","0:0-0:0","0:0-0:0","0:0-0:0","0:0-0:0","0:0-0:0"
"hUcUvCpETeN0hvN32zrOlA","McDonald's","2.0","FL","Lithia","16701 Fishhawk Blvd","33547","Restaurants, Burgers, Fast Food, Food, Coffee & Tea","1","27.8601093486","-82.2026708722","False","True","5:30-23:0","5:30-23:0","5:30-23:0","5:30-23:0","5:30-0:0","5:30-0:0"
"7KJBDV_gd-ycyz7EiBzprQ","McDonald's","1.5","FL","Lutz","106 Crystal Grove Blvd","33549","Burgers, Coffee & Tea, American (Traditional), Fast Food, Restaurants, Food","1","28.1418830515","-82.4633547664",NULL,"True","0:0-0:0","0:0-0:0","0:0-0:0","0:0-0:0","0:0-0:0","0:0-0:0"
"3kFs_QlJ64oZ2qPu0WqaWw","McDonald's","3.0","FL","Lutz","2609 Creek Grass Way","33559","Food, Fast Food, Restaurants, Coffee & Tea, Burgers","1","28.1930516114","-82.391925363",NULL,"True","0:0-0:0","0:0-0:0","0:0-0:0","0:0-0:0","0:0-0:0","0:0-0:0"
"NZ8rkOpkBisCWpfJb2rfzQ","McDonald's","2.0","FL","Lutz","17757 N Dale Mabry","33548","Food, Burgers, Restaurants, Fast Food, Coffee & Tea","1","28.126827","-82.501712",NULL,"True","5:0-1:0","5:0-1:0","5:0-1:0","5:0-1:0","5:0-1:0","5:0-1:0"
"x15WdO1CEan8yqexBNNOhA","McDonald's","1.5","FL","Madeira Beach","650 150th Ave","33708","Burgers, Coffee & Tea, Food, Fast Food, Restaurants","1","27.8089361072","-82.7932316065",NULL,"True","5:0-0:0","5:0-0:0","5:0-0:0","5:0-0:0","5:0-1:0","5:0-1:0"
"gB1PKRyyBj0ZnKrb8byMCA","McDonald's","2.0","TN","Madison","1202 Coreland Dr","37115","Fast Food, Restaurants, Burgers","0","36.247395","-86.719499",NULL,"True",NULL,NULL,NULL,NULL,NULL,NULL
"UIxL3xxpmJ6LiOMdqbqFTw","McDonald's","1.5","TN","Madison","1006 Gallatin Rd S","37115","Food, Fast Food, Coffee & Tea, Restaurants, Burgers","1","36.2512795928","-86.7189107128",NULL,NULL,"0:0-0:0","0:0-0:0","0:0-0:0","0:0-0:0","0:0-0:0","0:0-0:0"
"5LMTmQJBxP9aONuu8KhLbw","McDonald's","2.5","NJ","Magnolia","700 White Hourse Pike N","08049","Restaurants, Coffee & Tea, Food, Burgers, Fast Food","1","39.862328","-75.033963",NULL,"True","0:0-0:0","0:0-0:0","0:0-0:0","0:0-0:0","0:0-0:0","0:0-0:0"
"PN63nkTW7UBPeVTMZZ8blg","McDonald's","3.5","NJ","Malaga","403 Delsea Dr","08328","Fast Food, Restaurants, Coffee & Tea, Food, Burgers","1","39.571011","-75.0540433033",NULL,"True","5:30-0:0","5:30-0:0","5:30-0:0","5:30-0:0","5:30-0:0","5:30-0:0"
"9eYm5gwEOhBQdkg9ihV7EA","McDonald's","2.5","MO","Manchester","14026 Manchester Rd","63011","Restaurants, Fast Food, Food, Coffee & Tea, Burgers","1","38.5946168766","-90.4922792315",NULL,"True","5:0-23:0","5:0-23:0","5:0-23:0","5:0-23:0","5:0-23:0","5:0-23:0"
"jSP0rpPCYJ-FvW6yydY8Mg","McDonald's","2.5","AZ","Marana","3830 W Ina Rd","85741","Fast Food, Food, Restaurants, Coffee & Tea, Burgers","1","32.337956","-111.048389",NULL,"True","0:0-0:0","0:0-0:0","0:0-0:0","0:0-0:0","0:0-0:0","0:0-0:0"
"L3u4I6wHtwMQJ-ZtvfrkkQ","McDonald's","1.5","AZ","Marana","3640 W Tangerine Rd","85742","Burgers, Restaurants, Coffee & Tea, Food, Fast Food","1","32.424583","-111.043025",NULL,NULL,"5:0-23:0","5:0-23:0","5:0-23:0","5:0-23:0","5:0-23:0","5:0-23:0"
"P0u1f6ea6LsyB8m1CXXyNw","McDonald's","2.0","AZ","Marana","8280 N Cortaro Rd","85743","Restaurants, Fast Food, Burgers, Coffee & Tea, Food","1","32.3562922407","-111.0893377812",NULL,"True","6:30-21:30","6:30-21:30","6:30-21:30","6:30-21:30","5:30-22:30","5:30-22:30"
"BcyHAag7lr2bVZGNW4u1dA","McDonald's","4.0","NJ","Marlton","State Highway 70 & Cropwell Rd","08053","Fast Food, Restaurants, Burgers","1","39.895586","-74.9395205",NULL,"True",NULL,NULL,NULL,NULL,NULL,NULL
"k41dv3Pjnx0fHgkoyEz4Jw","McDonald's","3.5","NJ","Marlton","760 W Route 70","08053","Fast Food, Coffee & Tea, Burgers, Food, Restaurants","1","39.8950715406","-74.9401822686",NULL,"True","4:0-2:0","4:0-2:0","4:0-2:0","4:0-2:0","4:0-2:0","4:0-2:0"
"vJpRfwM1MT3gWjKBZf_9sw","McDonald's","1.5","LA","Marrero","2551 Lafitte Larose Hwy","70072","Sandwiches, Coffee & Tea, Restaurants, Food, Burgers, Fast Food","1","29.8539465","-90.1040675",NULL,"True","5:0-0:0","5:0-0:0","5:0-0:0","5:0-0:0","5:0-2:0","5:0-2:0"
"rNlG6yEM3tI8TBoPyzyPhg","McDonald's","1.0","LA","Marrero","6140 Westbank Expwy","70072","Coffee & Tea, Food, Burgers, Fast Food, Restaurants, Sandwiches","1","29.8945423016","-90.1134783",NULL,"True","5:0-0:0","5:0-0:0","5:0-0:0","5:0-0:0","5:0-4:0","0:0-0:0"
"499j2YBfJuZLgNOk7SzFCA","McDonald's","1.5","LA","Marrero","1681 Barataria Blvd","70072","Burgers, Food, Restaurants, Coffee & Tea, Fast Food","1","29.87962","-90.0981224",NULL,"True","5:0-0:0","5:0-0:0","5:0-0:0","5:0-0:0","0:0-0:0","0:0-0:0"
"V2aRYSwy862tExL-pBUFtg","McDonald's","2.0","MO","Maryland Heights","12680 Dorsett Rd","63043","Food, Restaurants, Burgers, Fast Food, Coffee & Tea","1","38.7142152287","-90.4566896012",NULL,"True","0:0-0:0","0:0-0:0","0:0-0:0","0:0-0:0","0:0-0:0","0:0-0:0"
"I4ZaFW8tHrrtPbyaHIVguw","McDonald's","1.5","IN","Mc Cordsville","9811 Olio Rd","46055","Fast Food, Burgers, Restaurants","0","39.9298630807","-85.9182633639",NULL,"True",NULL,NULL,NULL,NULL,NULL,NULL
"CJk82J81BWKvNTOGRyBD-Q","McDonald's","1.5","IN","McCordsville","9707 Olio Rd","46040","Fast Food, Food, Restaurants, Coffee & Tea, Burgers","1","39.9298473","-85.918276",NULL,"True","4:0-23:0","4:0-23:0","4:0-23:0","4:0-0:0","4:0-0:0","4:0-0:0"
"JUamG9JZEHwFDJGXLrgIFg","McDonald's","3.0","NJ","Medford","601 Stokes Rd","08055","Burgers, Coffee & Tea, Restaurants, Food, Fast Food","1","39.8735489149","-74.8120394334",NULL,"True","5:30-23:0","5:30-23:0","5:30-23:0","5:30-23:0","5:30-0:0","5:30-0:0"
"CMiTXglTH36Z1Crwpf8nNQ","McDonald's","2.0","ID","Meridian","1710 E Fairview Ave","83642","Coffee & Tea, Food, Burgers, Restaurants, Fast Food","1","43.6198172922","-116.3729855253",NULL,"True","5:30-23:0","5:30-23:0","5:30-23:0","5:30-23:0","5:30-0:0","5:30-0:0"
"P-1Z19YDcmwpwEazmhJOvw","McDonald's","1.5","ID","Meridian","3100 E Magic View Dr","83642","Burgers, Fast Food, Food, Restaurants, Coffee & Tea","1","43.6000449","-116.3555609",NULL,"True","0:0-0:0","0:0-0:0","0:0-0:0","0:0-0:0","0:0-0:0","0:0-0:0"
"TzgPHuqYMaU2hafYkJDRgQ","McDonald's","3.0","ID","Meridian","3251 E Ustick Rd","83646","Food, Burgers, Coffee & Tea, Fast Food, Restaurants","1","43.6335264296","-116.3535112896",NULL,"True","0:0-0:0","0:0-0:0","0:0-0:0","0:0-0:0","0:0-0:0","0:0-0:0"
"dB0h6ULGQiFuhE2G3zh-uQ","McDonald's","2.0","ID","Meridian","3415 W Cherry Ln","83642","Restaurants, Coffee & Tea, Food, Burgers, Fast Food","1","43.6189221432","-116.4358717444",NULL,"True","5:0-0:0","5:0-0:0","5:0-0:0","5:0-0:0","5:0-0:0","5:0-0:0"
"wY9y0cOAzNALZ7BELMwozQ","McDonald's","3.5","ID","Meridian","195 E Central Dr","83642","Food, Fast Food, Burgers, Restaurants, Coffee & Tea","1","43.597084","-116.392632",NULL,"True","5:0-1:0","5:0-1:0","5:0-1:0","5:0-1:0","5:0-1:0","5:0-1:0"
"XU8MGYX9oKQ0bl4r8IMqfQ","McDonald's","1.5","LA","Metairie","2700 Airline Dr","70002","Burgers, Food, Restaurants, Fast Food, Coffee & Tea","1","29.973762","-90.15139",NULL,"True","5:0-23:0","5:0-23:0","5:0-23:0","5:0-23:0","5:0-23:0","5:0-23:0"
"rXROtgLbpHRnkqWfEL6YhQ","McDonald's","1.0","LA","Metairie","701 Clearview Pkwy","70001","Coffee & Tea, Restaurants, Burgers, Food, Fast Food","1","29.9809415117","-90.179017256",NULL,"True","5:0-23:0","5:0-23:0","5:0-23:0","5:0-23:0","5:0-0:0","5:0-0:0"
"sIgFetlP6tX1vYWYjkyq1w","McDonald's","1.5","LA","Metairie","301 Veterans Hwy","70005","Coffee & Tea, Restaurants, Food, Fast Food, Burgers","1","30.0012184272","-90.1260017558",NULL,"True","0:0-0:0","0:0-0:0","0:0-0:0","0:0-0:0","0:0-0:0","0:0-0:0"
"GU6AnPaDqYA7PYIS52CKEA","McDonald's","1.5","LA","Metairie","3532 Severn Ave","70002","Restaurants, Burgers, Fast Food, Food, Coffee & Tea","1","30.0135089348","-90.1595548494",NULL,"True","5:0-23:0","5:0-23:0","5:0-23:0","5:0-23:0","5:0-0:0","5:0-0:0"
"LJeJ29ZQVwai3IGsHkso8Q","McDonald's","1.5","LA","Metairie","6401 Airline Hwy","70003","Fast Food, Burgers, Food, Restaurants, Coffee & Tea","1","29.977770167","-90.203048744",NULL,"True","5:0-0:0","5:0-0:0","5:0-0:0","5:0-0:0","5:0-0:0","5:0-0:0"
"wjUlOsBLLnxpprgI-sSiDA","McDonald's","1.5","LA","Metairie","5315 Veterans Memorial Blvd","70003","Food, Burgers, Fast Food, Coffee & Tea, Restaurants","1","30.0068142619","-90.2007519454",NULL,"True","0:0-0:0","0:0-0:0","0:0-0:0","0:0-0:0","0:0-0:0","0:0-0:0"
"r4Fb5mUHIhjjpGABPGitqA","McDonald's","1.0","LA","Metairie","3313 Cleary Ave","70002","Food, Restaurants, Coffee & Tea, Burgers, Fast Food","1","30.0052067071","-90.1720798016",NULL,"True","0:0-0:0","0:0-0:0","0:0-0:0","0:0-0:0","0:0-0:0","0:0-0:0"
"PCIR3Z78l_nLXu_OnhTweA","McDonald's","1.5","NJ","Moorestown","1 W Camden Ave","08057","Fast Food, Coffee & Tea, Burgers, Restaurants, Food","1","39.9579818351","-74.9796053767",NULL,"True","4:0-0:0","4:0-0:0","4:0-0:0","4:0-0:0","4:0-0:0","4:0-0:0"
"3hHw_c5CI-f2TdZOYDkHcA","McDonald's","2.0","IN","Mooresville","5 W South St","46158","Food, Coffee & Tea, Restaurants, Burgers, Fast Food","1","39.6081906741","-86.3756234944",NULL,"True","5:0-23:0","5:0-23:0","5:0-23:0","5:0-23:0","5:0-23:0","5:0-23:0"
"y0pfoNQOyrb98aEIdH6cnA","McDonald's","2.0","PA","Morrisville","321 W Trenton Ave","19067","Restaurants, Burgers, Fast Food, Coffee & Tea, Food","1","40.2104139103","-74.7951225",NULL,"True","6:0-0:0","6:0-0:0","6:0-0:0","6:0-0:0","6:0-1:0","6:0-1:0"
"5tZ42WGLm9fr_F4eg7ME7w","McDonald's","2.0","NJ","Mount Ephraim","259 S Black Horse Pike","08059","Fast Food, Burgers, Coffee & Tea, Restaurants, Food","1","39.8757291822","-75.0841578841",NULL,"True","0:0-0:0","0:0-0:0","0:0-0:0","0:0-0:0","0:0-0:0","0:0-0:0"
"2jbu_xi_FEghI37kPG5LzA","McDonald's","2.0","NJ","Mount Holly","1660 State Hwy 38","08060","Burgers, Food, Coffee & Tea, Restaurants, Fast Food","1","39.9818627982","-74.7801234611",NULL,"True","0:0-0:0","0:0-0:0","0:0-0:0","0:0-0:0","0:0-0:0","0:0-0:0"
"9-ko2uX5p7h17KbpobOGaw","McDonald's","2.0","NJ","Mount Holly","1864 Burlington-mount Holly Rd","08060","Restaurants, Burgers, Fast Food, Coffee & Tea, Food","1","40.011235","-74.800375",NULL,"True","6:0-23:0","6:0-23:0","6:0-23:0","6:0-23:0","6:0-23:0","6:0-23:0"
"k91vKZa8oDHGFEumLyI-KQ","McDonald's","2.0","TN","Mount Juliet","625 S Mount Juliet Rd","37122","Coffee & Tea, Burgers, Food, Restaurants, American (New), Fast Food","1","36.1613327567","-86.5145350201",NULL,"True","5:0-23:0","5:0-23:0","5:0-23:0","5:0-23:0","5:0-23:0","5:0-23:0"
"tgOSbgbTZ1zipBZakE-aqw","McDonald's","3.0","NJ","Mount Laurel","1108 Route 73","08054","Fast Food, Burgers, Coffee & Tea, Food, Restaurants","1","39.9265739736","-74.9555445416",NULL,"True","6:0-22:0","6:0-4:0","0:0-0:0","0:0-0:0","0:0-0:0","0:0-0:0"
"y9WUY6Gh3GcVqtXkDre3fA","McDonald's","3.0","NJ","Mount Laurel","3049 Route 38","08054","Restaurants, Burgers, Fast Food, Coffee & Tea, Food","1","39.9714757929","-74.870903492",NULL,"True","5:30-0:0","5:30-0:0","5:30-0:0","5:30-0:0","5:30-0:0","5:30-0:0"
"69vVnH6T6-uwcJK4bxfV7Q","McDonald's","1.5","TN","Mt Juliet","126 N Mount Juliet Rd","37122","Restaurants, Food, Burgers, Fast Food, Coffee & Tea","1","36.1733504397","-86.5138994157",NULL,"True","5:0-23:0","5:0-23:0","5:0-23:0","5:0-23:0","5:0-23:0","5:0-23:0"
"tDbF0IWQq-mHPi7OBla6eg","McDonald's","2.5","TN","Mt Juliet","11279 Lebanon Rd","37122","Restaurants, Food, Coffee & Tea, Burgers, Fast Food","1","36.2312974","-86.5143691",NULL,"True","5:0-23:0","5:0-23:0","5:0-23:0","5:0-23:0","5:0-0:0","5:0-0:0"
"xM2zutXv11alems5TnlC5Q","McDonald's","1.5","NJ","Mullica Hill","133 Bridgeton Pike","08062","Fast Food, Coffee & Tea, Burgers, Restaurants, Food","1","39.7247117438","-75.220904832",NULL,"True","6:0-23:0","6:0-23:0","6:0-23:0","6:0-23:0","6:0-23:0","6:0-23:0"
"Q3_Z2oFu9D67QVB1uJTXyA","McDonald's","2.0","TN","Nashville","524 Murfreesboro Rd","37210","Restaurants, Fast Food, Food, Coffee & Tea, Burgers","1","36.1429053","-86.743662",NULL,"True","0:0-0:0","0:0-0:0","0:0-0:0","0:0-0:0","0:0-0:0","0:0-0:0"
"LA99Dl-b9r1nKIZ3gKC_og","McDonald's","2.0","TN","Nashville","2212 Nolensville Rd","37211","Restaurants, Food, Burgers, Fast Food, Coffee & Tea","1","36.124766","-86.751387",NULL,"True","0:0-0:0","0:0-0:0","0:0-0:0","0:0-0:0","0:0-0:0","0:0-0:0"
"9dTnpsb_tO25h44IAoeRjQ","McDonald's","1.5","TN","Nashville","3300 Dickerson Rd","37207","Food, Fast Food, Restaurants, Burgers, Coffee & Tea, Hot Dogs","1","36.2354749086","-86.7588863522",NULL,"True","5:0-0:0","5:0-0:0","5:0-0:0","5:0-0:0","5:0-0:0","5:0-0:0"
"fKP9ALt3WZ6WipB98eGIJg","McDonald's","1.5","TN","Nashville","2499 Murfreesboro Pike","37217","Restaurants, Food, Burgers, Fast Food, Coffee & Tea","1","36.0794134921","-86.6453446689",NULL,"True","0:0-0:0","0:0-0:0","0:0-0:0","0:0-0:0","0:0-0:0","0:0-0:0"
"CcaYQDslcBH_PA0wbwZtKQ","McDonald's","1.5","TN","Nashville","5744 Nolensville Rd","37211","Restaurants, Coffee & Tea, Burgers, Food, Fast Food","1","36.0465476389","-86.7128331",NULL,"True","0:0-0:0","0:0-0:0","0:0-0:0","0:0-0:0","0:0-0:0","0:0-0:0"
"_czjtkS_XllCJi_1vBc_sw","McDonald's","1.5","TN","Nashville","1173 Murfreesboro Rd","37217","Restaurants, Fast Food, Burgers, Coffee & Tea, Food","1","36.1216615238","-86.7054079555",NULL,"True","4:30-0:0","4:30-0:0","4:30-0:0","4:30-0:0","4:30-0:0","4:30-0:0"
"WXxlJiG1QIae0Dasbf-fzA","McDonald's","2.0","TN","Nashville","545 Donelson Pike","37214","Food, Restaurants, Burgers, Fast Food, Coffee & Tea","1","36.1455597462","-86.6661675182",NULL,"True","0:0-0:0","0:0-0:0","0:0-0:0","0:0-0:0","0:0-0:0","0:0-0:0"
"25tI2s_AmToGGE2fNQYY7w","McDonald's","2.0","TN","Nashville","4114 Hillsboro Rd","37215","Fast Food, Restaurants, Burgers, Coffee & Tea, Food","1","36.1013060382","-86.8176408187","False","True","5:0-0:0","5:0-0:0","5:0-0:0","5:0-1:0","5:0-1:0","5:0-1:0"
"wCWtAobVuZ0N7XJTb1ugGA","McDonald's","1.0","TN","Nashville","331 Harding Pl","37211","Restaurants, Fast Food, Coffee & Tea, Food, Burgers","1","36.0862588835","-86.6949382878",NULL,"True","0:0-0:0","0:0-0:0","0:0-0:0","0:0-0:0","0:0-0:0","0:0-0:0"
"hoqITwtnCoz8x_2CcMylJg","McDonald's","2.0","TN","Nashville","154 Mcgavock Pike","37214","Fast Food, Coffee & Tea, Burgers, Restaurants, Food","1","36.1706710725","-86.680119265",NULL,"True","5:0-23:0","5:0-23:0","5:0-23:0","5:0-0:0","5:0-0:0","5:0-0:0"
"b4GPlPrcZLZY-TDvr8u3Ug","McDonald's","1.5","TN","Nashville","4041 Nolensville Rd","37211","Coffee & Tea, Restaurants, Burgers, Fast Food, Food","1","36.0819291","-86.727434",NULL,"True","0:0-0:0","0:0-0:0","0:0-0:0","0:0-0:0","0:0-0:0","0:0-0:0"
"yOc3BbR4pua-7El5ce8lHg","McDonald's","1.5","TN","Nashville","2806 Gallatin Pike","37216","Food, Restaurants, Coffee & Tea, Burgers, Fast Food","1","36.2006441304","-86.7394191725",NULL,"True","4:0-2:0","4:0-2:0","4:0-2:0","4:0-2:0","4:0-2:0","4:0-2:0"
"f0qy_jMfakYtRQLADjmC3w","McDonald's","1.5","TN","Nashville","2612 8th Ave S","37204","Restaurants, Fast Food, Burgers, Coffee & Tea, Food","1","36.1208362953","-86.774822697",NULL,"True","0:0-0:0","0:0-0:0","0:0-0:0","0:0-0:0","0:0-0:0","0:0-0:0"
"-YljbQMbbTC9jwn8kOLitA","McDonald's","1.0","TN","Nashville","4700 Charlotte Ave","37209","Food, Restaurants, Fast Food, Burgers, Hot Dogs, Coffee & Tea","1","36.1524294","-86.8440337",NULL,"True","5:0-0:0","5:0-0:0","5:0-0:0","5:0-1:0","5:0-1:0","5:0-1:0"
"_aITm6sZmcPzlAsaMZUQew","McDonald's","1.5","TN","Nashville","6600 Charlotte Pike","37209","Coffee & Tea, Burgers, Restaurants, Food, Fast Food","1","36.138573","-86.8822418",NULL,"True","4:0-0:0","4:0-0:0","4:0-0:0","4:0-0:0","4:0-1:0","4:0-1:0"
"qpgkWql42qgW095udiCLYg","McDonald's","2.0","TN","Nashville","7010 Hwy 70 S","37221","Coffee & Tea, Fast Food, Restaurants, Food, Burgers","1","36.074814","-86.9215071",NULL,"True","0:0-0:0","0:0-0:0","0:0-0:0","0:0-0:0","0:0-0:0","0:0-0:0"
"I8KMfyZoEqzLQtChv2X5fA","McDonald's","1.5","TN","Nashville","2700 W End Ave","37203","Restaurants, Fast Food, Food, Burgers, Coffee & Tea","1","36.1459529686","-86.812146306",NULL,"True","0:0-0:0","0:0-0:0","0:0-0:0","0:0-0:0","0:0-0:0","0:0-0:0"
"GiSQ8fXpAs3M9Y27BgEd4Q","McDonald's","1.5","TN","Nashville","201 Rudy Cir","37214","Food, American (Traditional), Restaurants, Fast Food, Coffee & Tea, Burgers","1","36.2198535903","-86.6945156589",NULL,"True","4:0-22:0","4:0-23:0","4:0-23:0","4:0-23:0","0:0-0:0","0:0-0:0"
"9ik4zu2353HJu9QMrVzOiQ","McDonald's","1.5","TN","Nashville","1201 Broadway","37203","Food, Fast Food, Burgers, Restaurants, Coffee & Tea","1","36.1561289285","-86.7875652015",NULL,"True","0:0-0:0","0:0-0:0","0:0-0:0","0:0-0:0","0:0-0:0","0:0-0:0"
"zHXYNXlSO3vMrWlISzmwlQ","McDonald's","1.0","TN","Nashville","801 Vantage Way Ct","37228","Restaurants, Burgers, Fast Food, Food, Coffee & Tea","1","36.1905941433","-86.7993441224",NULL,"True","0:0-0:0","0:0-0:0","0:0-0:0","0:0-0:0","0:0-0:0","0:0-0:0"
"MYVWCT18urcDDPl7nJ5cFg","McDonald's","1.5","TN","Nashville","2311 Brick Church Pike","37207","Burgers, Fast Food, Food, Restaurants, Coffee & Tea","1","36.2084118426","-86.7773262365",NULL,"True","0:0-0:0","0:0-0:0","0:0-0:0","0:0-0:0","0:0-0:0","0:0-0:0"
"r4grxU_cFpq_QE3OCXGAVQ","McDonald's","3.0","TN","Nashville","8050 Highway 100","37221","Restaurants, Coffee & Tea, Burgers, Food, Fast Food","1","36.0455133127","-86.9536603242",NULL,"True","4:0-0:0","4:0-0:0","4:0-0:0","4:0-1:0","4:0-1:0","4:0-1:0"
"FoIzWtiwffKyfKJHsm7VKQ","McDonald's","2.0","DE","Newark","4160 Ogletown Stanton Rd","19713","Fast Food, Coffee & Tea, Burgers, Restaurants, Food","1","39.6858761252","-75.6826103479",NULL,NULL,"4:0-0:0","4:0-0:0","4:0-0:0","4:0-0:0","0:0-0:0","0:0-0:0"
"JaHuWM3Tp1aG7NW66mhutw","McDonald's","2.0","DE","New Castle","3014 New Castle Ave","19720","Restaurants, Fast Food, Burgers","0","39.7009961","-75.5514869",NULL,"True","8:30-17:0","8:30-17:0","8:30-17:0","8:30-17:0","8:30-17:0",NULL
"z00F0RSAGimvSU9IrTevOw","McDonald's","1.0","DE","New Castle","3010 New Castle Ave","19720","Burgers, Coffee & Tea, Fast Food, Restaurants, Food","1","39.700377","-75.551567",NULL,NULL,"5:0-0:0","5:0-0:0","5:0-0:0","5:0-0:0","5:0-1:0","5:0-1:0"
"V71KzO8mXPK7E8no2FN8sw","McDonald's","1.5","DE","New Castle","700 N Dupont Hwy","19720","Coffee & Tea, Fast Food, Burgers, Food, Restaurants","1","39.6855654216","-75.584911",NULL,"True","5:30-0:0","5:30-0:0","5:30-0:0","5:30-0:0","5:30-4:0","0:0-0:0"
"oa4bCkow1hrF6pqQCT6EGQ","McDonald's","2.0","DE","New Castle","101 S Dupont Hwy","19720","Burgers, Coffee & Tea, Restaurants, Food, Fast Food","1","39.6650468629","-75.6055777",NULL,"True","0:0-0:0","0:0-0:0","0:0-0:0","0:0-0:0","0:0-0:0","0:0-0:0"
"2-6E1sAD1MKUixksDw-hkw","McDonald's","1.5","PA","New Hope","324 W Bridge St","18938","Restaurants, Food, Fast Food, Burgers, Coffee & Tea","1","40.3635327157","-74.9662229901",NULL,"True","5:0-23:0","5:0-23:0","5:0-23:0","5:0-23:0","5:0-23:0","5:0-23:0"
"3UHXD8T80OUFMCzLb3x-sQ","McDonald's","1.0","LA","New Orleans","711 Canal St","70130","Food, Restaurants, Fast Food, Burgers, Coffee & Tea","1","29.953576","-90.069183",NULL,"True","6:0-23:0","6:0-23:0","6:0-23:0","6:0-23:0","6:0-0:0","6:0-0:0"
"GTmwc3AWVB756gDiuHwtuw","McDonald's","2.0","LA","New Orleans","3025 Elysian Fields Ave","70122","Restaurants, Coffee & Tea, Burgers, Fast Food, Food","1","29.9895362709","-90.0578592718",NULL,"True","0:0-0:0","0:0-0:0","0:0-0:0","0:0-0:0","0:0-0:0","0:0-0:0"
"-9yzQQ0d_rcOD2CzdTNO_Q","McDonald's","2.0","LA","New Orleans","4240 Louisa St","70126","Fast Food, Restaurants, Coffee & Tea, Food, Burgers","1","30.0042438706","-90.0364068849",NULL,"True","0:0-0:0","0:0-0:0","0:0-0:0","0:0-0:0","0:0-0:0","0:0-0:0"
"_ljP8KWwMTSMOv_zGW6nBA","McDonald's","1.5","LA","New Orleans","1901 Tchoupitoulas St","70130","Food, Coffee & Tea, Fast Food, Burgers, Restaurants","1","29.925115","-90.070156",NULL,"True","5:45-22:0","6:0-22:0","6:0-22:0","6:0-22:0","6:0-22:0","6:0-22:0"
"5-aqt6yXDtV5p6vliEBxVQ","McDonald's","1.5","LA","New Orleans","3321 Saint Charles Ave","70115","Fast Food, Restaurants, Burgers, Food, Coffee & Tea","1","29.9287870661","-90.0910690427",NULL,"True","0:0-0:0","0:0-0:0","0:0-0:0","0:0-0:0","0:0-0:0","0:0-0:0"
"xbgzX-_EpV6yH-6nf2LCNw","McDonald's","2.0","LA","New Orleans","3250 General Degaulle Dr","70114","Food, Restaurants, Sandwiches, Coffee & Tea, Burgers, Fast Food","1","29.9261628131","-90.0225796965",NULL,"True","0:0-0:0","0:0-0:0","0:0-0:0","0:0-0:0","0:0-0:0","0:0-0:0"
"FEFi0AmjHzgSceeLYW3Glw","McDonald's","1.5","LA","New Orleans","6005 Bullard Rd","70128","Food, Burgers, Coffee & Tea, Fast Food, Restaurants","1","30.0437153","-89.958349",NULL,"True","0:0-0:0","0:0-0:0","0:0-0:0","0:0-0:0","0:0-0:0","0:0-0:0"
"UxPNpzKEC4FpdidHz8MCcA","McDonald's","2.5","LA","New Orleans","3443 S Carrollton","70118","Coffee & Tea, Food, Restaurants, Burgers, Fast Food","1","29.963288674","-90.1118321",NULL,"True","0:0-0:0","0:0-0:0","0:0-0:0","0:0-0:0","0:0-0:0","0:0-0:0"
"MoSyhSKj62gqBJyR_e5kIA","McDonald's","1.5","LA","New Orleans","2609 Saint Claude Ave","70117","Fast Food, Coffee & Tea, Food, Restaurants, Burgers","1","29.969473","-90.049637",NULL,"True","0:0-0:0","0:0-0:0","0:0-0:0","0:0-0:0","0:0-0:0","0:0-0:0"
"zdJCe6BLDB03FBC4U_9bYw","McDonald's","2.5","LA","New Orleans","10001 I 10 Service Rd","70127","Fast Food, Burgers, Coffee & Tea, Restaurants, Food","1","30.038396","-89.9756710231",NULL,"True","0:0-0:0","0:0-0:0","0:0-0:0","0:0-0:0","0:0-0:0","0:0-0:0"
"iuFgUOCFgE7fBLpBhFQXdw","McDonald's","1.5","LA","New Orleans","2757 Canal St","70119","Coffee & Tea, Food, Burgers, Restaurants, Fast Food","1","29.9668159618","-90.0882054074",NULL,"True","0:0-0:0","0:0-0:0","0:0-0:0","0:0-0:0","0:0-0:0","0:0-0:0"
"I1LP0Vg55lwufnoNREE1KA","McDonald's","2.0","LA","New Orleans","2856 S Claiborne","70125","Restaurants, Coffee & Tea, Fast Food, Food, Burgers","1","29.941588","-90.095297",NULL,"True","0:0-0:0","0:0-0:0","0:0-0:0","0:0-0:0","0:0-0:0","0:0-0:0"
"LVhlQGAochcp0amO6-OX-g","McDonald's","1.5","LA","New Orleans","1918 N Broad St","70119","Food, Coffee & Tea, Burgers, Restaurants, Fast Food","1","29.9836547","-90.0708445",NULL,"True","0:0-0:0","0:0-0:0","0:0-0:0","0:0-0:0","0:0-0:0","0:0-0:0"
"1JXJbmiVaLK2Wc2-reqQ5w","McDonald's","1.5","LA","New Orleans","4589 General Meyer Ave","70131","Coffee & Tea, Burgers, Food, Sandwiches, Restaurants, Fast Food","1","29.9335813","-90.0077431145",NULL,"True","6:0-23:0","6:0-23:0","6:0-23:0","6:0-23:0","6:0-0:0","6:0-0:0"
"Ynokyesqb9pXBT9EUlnAbA","McDonald's","2.0","IN","New Palestine","5122 W Hwy 52","46163","Fast Food, Food, Restaurants, Burgers, Coffee & Tea","1","39.7231706258","-85.8982955702",NULL,"True","0:0-0:0","0:0-0:0","0:0-0:0","0:0-0:0","0:0-0:0","0:0-0:0"
"yTY4Mtn9eNUj35mj452DMQ","McDonald's","2.0","FL","New Port Richey","8937 Rancho Del Rio Dr","34655","Restaurants, Burgers, Food, Coffee & Tea, Fast Food","1","28.2352649364","-82.6664885134",NULL,"True","0:0-0:0","0:0-0:0","0:0-0:0","0:0-0:0","0:0-0:0","0:0-0:0"
"WI8Oucjfr7t2AertQqbYLw","McDonald's","1.5","FL","New Port Richey","7226 State Road 54","34653","Burgers, Fast Food, Coffee & Tea, Restaurants, Food","1","28.2166303124","-82.694541224",NULL,"True","0:0-0:0","0:0-0:0","0:0-0:0","0:0-0:0","0:0-0:0","0:0-0:0"
"BKvjZNKB5CKcVltuc-2T3Q","McDonald's","2.0","FL","New Port Richey","9121 Little Rd","34654","Burgers, Restaurants, Fast Food, Food, Coffee & Tea","1","28.290201366","-82.6763656",NULL,"True","0:0-0:0","0:0-0:0","0:0-0:0","0:0-0:0","0:0-0:0","0:0-0:0"
"wf2BEEcyK2HxxQiHSUI2Vg","McDonald's","1.5","FL","New Port Richey","5309 US Hwy 19S","34652","Restaurants, Fast Food, Coffee & Tea, Burgers, Food","1","28.2361355283","-82.7285524",NULL,"True","0:0-0:0","0:0-0:0","0:0-0:0","0:0-0:0","0:0-0:0","0:0-0:0"
"Ov8-eg1-2S9a1PpuYRVLTQ","McDonald's","3.5","FL","New Port Richey","11367 Ridge Rd","34654","Burgers, Restaurants, Coffee & Tea, Food, Fast Food","1","28.2740945129","-82.6252059638",NULL,NULL,"0:0-0:0","0:0-0:0","0:0-0:0","0:0-0:0","0:0-0:0","0:0-0:0"
"noRCd744AD5cAT0nuq5Aaw","McDonald's","1.0","PA","Norristown","223 W Main St","19401","Restaurants, Coffee & Tea, Burgers, Fast Food, Food","1","40.1164281663","-75.3480429376",NULL,NULL,"6:0-0:0","6:0-0:0","6:0-0:0","6:0-0:0","0:0-0:0","0:0-0:0"
"xiDQmACz5UcVvCH1zdkwOQ","McDonald's","2.0","PA","North Wales","1199 Bethlehem Pike","19477","Burgers, Fast Food, Restaurants","0","40.1867828369","-75.2267913818",NULL,NULL,NULL,NULL,NULL,NULL,NULL,NULL
"ZgqZAKHXZi5HoCRYcTh9Gw","McDonald's","3.0","PA","North Wales","1470 Bethlehem Pike","19454","Restaurants, Food, Coffee & Tea, Fast Food, Burgers","1","40.2095915701","-75.2242948356",NULL,"True","5:30-23:0","5:30-23:0","5:30-23:0","5:30-23:0","5:30-0:0","5:30-0:0"
"KN0IJPxZ6bwVYmqLcAfRdg","McDonald's","1.5","PA","North Wales","1200 Welsh Rd","19454","Restaurants, Burgers, Fast Food, Coffee & Tea, Food","1","40.2273628769","-75.2591022849",NULL,"True","6:0-23:0","6:0-23:0","6:0-23:0","6:0-23:0","6:0-0:0","6:0-0:0"
"kUfUsNfgf0PFRH9d2bLSOA","McDonald's","2.0","FL","Odessa","16250 Sr 54","33556","Fast Food, Coffee & Tea, Burgers, Restaurants, Food","1","28.187814","-82.54633",NULL,"True","0:0-0:0","0:0-0:0","0:0-0:0","0:0-0:0","0:0-0:0","0:0-0:0"
"4WWxTisW97Ks7r06Exxx2A","McDonald's","2.5","FL","Odessa","8506 Gunn Hwy","33556","Burgers, Fast Food, Restaurants, Coffee & Tea, Food","1","28.0854411429","-82.5796240809",NULL,"True","5:0-1:0","5:0-1:0","5:0-1:0","5:0-1:0","5:0-2:0","5:0-2:0"
"doN8QSdGtlIAW7BP8afZEg","McDonald's","1.5","IL","O'Fallon","109 E Hwy 50","62269","Restaurants, Burgers, Food, Coffee & Tea, Fast Food","1","38.5845491","-89.9091629",NULL,"True","0:0-0:0","0:0-0:0","0:0-0:0","0:0-0:0","0:0-0:0","0:0-0:0"
"zkUGrri25CXfZc4OS2BtPg","McDonald's","1.5","IL","O'Fallon","1610 W Hwy 50","62269","Restaurants, Coffee & Tea, Food, Burgers, Fast Food","1","38.5930184629","-89.9552241209",NULL,"True","5:30-0:0","5:30-0:0","5:30-0:0","5:30-0:0","5:30-0:0","5:30-0:0"
"zraJ8MD-n5ob6s7dSNzKFg","McDonald's","2.0","TN","Old Hickory","1252 Robinson Rd","37138","Coffee & Tea, Burgers, Restaurants, Food, Fast Food","1","36.2578290719","-86.6575176269",NULL,"True","4:0-23:0","4:0-23:0","4:0-23:0","4:0-23:0","4:0-0:0","4:0-0:0"
"GE7eT64EHR6udOZUaP3yCw","McDonald's","2.0","FL","Oldsmar","4085 Tampa Rd","34677","Food, Fast Food, Coffee & Tea, Restaurants, Burgers","1","28.0355466386","-82.6523251086",NULL,"True","5:0-0:0","5:0-0:0","5:0-0:0","5:0-0:0","5:0-0:0","5:0-0:0"
"XlbFKW_Keun8qh1S5m3QgQ","McDonald's","3.0","MO","Olivette","9406 Olive Street Rd","63132","Fast Food, Coffee & Tea, Burgers, Food, Restaurants","1","38.6736460732","-90.3764500469",NULL,"True","5:0-23:0","5:0-23:0","5:0-23:0","5:0-23:0","5:0-23:0","5:0-23:0"
"o30cpvfgxHr6NQ5pvSb0Qw","McDonald's","2.5","AZ","Oro Valley","10795 N Oracle Rd","85737","Burgers, Restaurants, Coffee & Tea, Food, Fast Food","1","32.4014077442","-110.954822459",NULL,"True","5:0-23:0","5:0-23:0","5:0-23:0","5:0-23:0","5:0-23:0","5:0-23:0"
"PCdSjDrU4K8rUzVoxqFyew","McDonald's","2.5","MO","Overland","8960 Page Ave","63114","Food, Burgers, Restaurants, Fast Food, Coffee & Tea","1","38.6862573622","-90.3578292451",NULL,"True","5:0-23:0","5:0-23:0","5:0-23:0","5:0-23:0","0:0-0:0","0:0-0:0"
"6rZkogALtWhE57DpWhK6ow","McDonald's","3.0","FL","Palm Harbor","3480 E Lake Rd","34685","Food, Restaurants, Fast Food, Burgers, Coffee & Tea","1","28.0624351131","-82.7060571313",NULL,"True","0:0-0:0","0:0-0:0","0:0-0:0","0:0-0:0","0:0-0:0","0:0-0:0"
"Bx99-hT49G87I9S1V_6ikQ","McDonald's","1.5","FL","Palm Harbor","33817 US Hwy 19 N","34684","Restaurants, Coffee & Tea, Fast Food, Burgers, Food","1","28.079972608","-82.7385235074",NULL,"True","0:0-0:0","0:0-0:0","0:0-0:0","0:0-0:0","0:0-0:0","0:0-0:0"
"8CfXhST1sJt6IH99PPEZYQ","McDonald's","1.5","NJ","Paulsboro","43 Borrelli Blvd","08066","Burgers, Fast Food, Food, Coffee & Tea, Restaurants","1","39.8203603","-75.2369848",NULL,"True","5:0-0:0","5:0-0:0","5:0-0:0","5:0-0:0","5:0-0:0","5:0-0:0"
"TfYFyl8WFLPKGTcRz8AMpw","McDonald's","1.0","MO","Peerless Park","2109 Smizer Station Rd","63088","Burgers, Coffee & Tea, Food, Restaurants, Fast Food","0","38.537533","-90.4943253",NULL,"True","5:0-23:0","5:0-23:0","5:0-23:0","5:0-23:0","5:0-23:0","5:0-23:0"
"8bdrXvgQ3pkvR0bCTg_LDA","McDonald's","1.5","PA","Penndel","749 E Lincoln Hwy","19047","Fast Food, Coffee & Tea, Food, Burgers, Restaurants","1","40.1642372","-74.9023798",NULL,"True","5:0-0:30","5:0-0:30","5:0-0:30","5:0-0:30","5:0-0:30","4:0-0:30"
"VhVc_kxNStk6var7DTCf9g","McDonald's","2.5","NJ","Pennsauken","1021 Route 73","08110","Burgers, Fast Food, Coffee & Tea, Restaurants, Food","1","39.9910157","-75.0271849",NULL,"True","5:30-23:0","5:30-23:0","5:30-23:0","5:30-23:0","5:30-23:0","5:30-23:0"
"biLRNTonGv6bLUQ1rx0Hgg","McDonald's","1.5","NJ","Pennsauken","6931 S Crescent Blvd","08110","Restaurants, Burgers, Fast Food","0","39.9366285","-75.0778819",NULL,"True",NULL,NULL,NULL,NULL,NULL,NULL
"OMIG0o6Jy8mppFO8ry5u0Q","McDonald's","2.0","NJ","Pennsauken","6935 S Crescent Blvd","08110","Burgers, Restaurants, Fast Food, Food, Coffee & Tea","1","39.9366285","-75.077904",NULL,"True","0:0-0:0","0:0-0:0","0:0-0:0","0:0-0:0","0:0-0:0","0:0-0:0"
"t-ZpeItaWnYymUK1Hrzr1A","McDonald's","1.5","PA","Pennsburg","502 Pottstown Ave","18073","Fast Food, Restaurants, Food, Coffee & Tea, Burgers","1","40.3930526118","-75.5019414425",NULL,"True","5:30-23:0","5:30-23:0","5:30-23:0","5:30-23:0","5:30-0:0","5:30-0:0"
"gb7JjRJtzWDsIWpJihZhBQ","McDonald's","2.0","NJ","Pennsville","417 N Broadway","08070","Food, Burgers, Restaurants, Coffee & Tea, Fast Food","1","39.6773020944","-75.4953995347",NULL,"True","0:0-0:0","0:0-0:0","0:0-0:0","0:0-0:0","0:0-0:0","0:0-0:0"
"CbMJxmEsm_NFue6NQ0kNpA","McDonald's","3.0","PA","Perkasie","503 Constitution Ave","18944","Restaurants, Food, Fast Food, Coffee & Tea, Burgers","1","40.3642893","-75.2977598",NULL,"True","5:30-23:0","5:30-23:0","5:30-23:0","5:30-23:0","5:30-0:0","5:30-0:0"
"47TOmOqMxeyUSpYoLKqTsA","McDonald's","2.0","PA","Philadelphia","2400 W Oregon Ave","19145","Restaurants, Fast Food, Burgers, Coffee & Tea, Food","1","39.9194113","-75.1873063",NULL,"True","0:0-0:0","0:0-0:0","0:0-0:0","0:0-0:0","0:0-0:0","0:0-0:0"
"CSAJxLa_LeuIDe-lHrC03w","McDonald's","1.5","PA","Philadelphia","6470 Torresdale Ave","19135","Fast Food, Restaurants, Coffee & Tea, Food, Burgers","1","40.0223296507","-75.0507590175",NULL,"True","5:0-0:0","5:0-0:0","5:0-0:0","5:0-0:0","5:0-0:0","5:0-1:0"
"sg4zySgp0Al1WNk-JhTbHQ","McDonald's","1.5","PA","Philadelphia","2211 Stenton Ave","19141","Food, Burgers, Coffee & Tea, Restaurants, Fast Food","1","40.0558378767","-75.1578596234",NULL,"True","0:0-0:0","0:0-0:0","0:0-0:0","0:0-0:0","0:0-0:0","0:0-0:0"
"D8NEBGvh1DVHbyEs2cWVAQ","McDonald's","1.5","PA","Philadelphia","5020 City Line Ave","19131","Fast Food, Coffee & Tea, Burgers, Restaurants, Food","1","39.999385686","-75.229440406",NULL,"True","0:0-0:0","0:0-0:0","0:0-0:0","0:0-0:0","0:0-0:0","0:0-0:0"
"U06K56fiCWYTtktwQkZ9TA","McDonald's","1.5","PA","Philadelphia","942 Market St","19107","Fast Food, Burgers, Restaurants","0","39.951242","-75.15668",NULL,"True",NULL,NULL,NULL,NULL,NULL,NULL
"YQD_Gm999Cthin64uLdOdA","McDonald's","1.5","PA","Philadelphia","3100 W Allegheny Ave","19132","Coffee & Tea, Food, Restaurants, Fast Food, Burgers","1","40.004757308","-75.1798403263",NULL,"True","6:0-0:0","6:0-0:0","6:0-0:0","6:0-0:0","6:0-0:0","6:0-0:0"
"eX1E0J6uh8a3oVazer1_yw","McDonald's","1.5","PA","Philadelphia","7911-17 Ogontz Ave","19150","Fast Food, Restaurants, Burgers, Coffee & Tea, Food","1","40.0729200641","-75.1576564461",NULL,"True","0:0-0:0","0:0-0:0","0:0-0:0","0:0-0:0","0:0-0:0","0:0-0:0"
"e4hdGUQH8IX0Tcx1Aa3Ltw","McDonald's","2.0","PA","Philadelphia","1575 N 52nd St","19131","Coffee & Tea, Food, Fast Food, Burgers, Restaurants","1","39.9799311011","-75.2242517721",NULL,NULL,"4:0-0:0","4:0-0:0","0:0-0:0","0:0-0:0","0:0-0:0","0:0-0:0"
"kSglWloGVOI5evbnx8ub5w","McDonald's","1.5","PA","Philadelphia","101 S 52nd St","19139","Fast Food, Food, Burgers, Coffee & Tea, Restaurants","1","39.958068337","-75.2250515272",NULL,"True","0:0-0:0","0:0-0:0","0:0-0:0","0:0-0:0","0:0-0:0","0:0-0:0"
"UBj0aJ6FfMR4tdvRbQ3KSA","McDonald's","1.5","PA","Philadelphia","3935 Walnut St","19104","Restaurants, Coffee & Tea, Fast Food, Burgers, Food","1","39.954342","-75.202337",NULL,"True","0:0-0:0","0:0-0:0","0:0-0:0","0:0-0:0","0:0-0:0","0:0-0:0"
"kvRjzneD1FWh4Szb-trL4A","McDonald's","2.0","PA","Philadelphia","22 W Girard Ave","19123","Coffee & Tea, Food, Fast Food, Restaurants, Burgers","1","39.9683247686","-75.1356663555",NULL,"True","0:0-0:0","0:0-0:0","0:0-0:0","0:0-0:0","0:0-0:0","0:0-0:0"
"nampgzRa90YQd9P2pdi6Qw","McDonald's","2.0","PA","Philadelphia","1801 S Columbus Blvd","19148","Fast Food, Restaurants, Burgers","0","39.9239989","-75.1425599",NULL,"True",NULL,NULL,NULL,NULL,NULL,NULL
"TC0SkzAqSdbmX0bYyvoJ8g","McDonald's","1.5","PA","Philadelphia","7613 Castor Ave","19152","Fast Food, Restaurants, Food, Coffee & Tea, Burgers","1","40.056364","-75.0605151",NULL,"True","5:30-0:0","5:30-0:0","5:30-0:0","5:30-0:0","0:0-0:0","0:0-0:0"
"fzftd8EhMnYCXE7D76zCrA","McDonald's","2.0","PA","Philadelphia","120 W Oregon","19148","Fast Food, Coffee & Tea, Burgers, Food, Restaurants","1","39.9137981886","-75.1511147859",NULL,"True","0:0-0:0","0:0-0:0","0:0-0:0","0:0-0:0","0:0-0:0","0:0-0:0"
"OEeQTVPtrKq4kPqdIJLrKw","McDonald's","1.5","PA","Philadelphia","29 Grays Ferry Ave","19146","Fast Food, Burgers, Food, Restaurants, Coffee & Tea","1","39.9394621","-75.1912313",NULL,"True","5:0-0:0","5:0-0:0","5:0-0:0","5:0-0:0","0:0-0:0","0:0-0:0"
"Qbb6nFPzPgvyCDvCd7OHqA","McDonald's","1.0","PA","Philadelphia","2109 N Broad St","19122","Fast Food, Coffee & Tea, Burgers, Restaurants, Food","1","39.985224","-75.156029",NULL,"True","0:0-0:0","0:0-0:0","0:0-0:0","0:0-0:0","0:0-0:0","0:0-0:0"
"qaEqiGzQ67ief_yoKP97Hw","McDonald's","1.0","PA","Philadelphia","29 E Chelten Ave","19144","Restaurants, Coffee & Tea, Food, Burgers, Fast Food","1","40.0366775201","-75.1742986",NULL,"True","0:0-0:0","0:0-0:0","0:0-0:0","0:0-0:0","0:0-0:0","0:0-0:0"
"3Rn91lErljcpt0sY31bXQw","McDonald's","1.5","PA","Philadelphia","1401 Arch St","19102","Burgers, Fast Food, Food, Restaurants, Coffee & Tea","0","39.954608","-75.163381",NULL,"True","5:0-23:0","5:0-23:0","5:0-23:0","5:0-23:0","5:0-23:0","5:0-23:0"
"fFA6bjWbq724vB1tW4V9pQ","McDonald's","1.5","PA","Philadelphia","8901 Franford Ave","19136","Coffee & Tea, Food, Fast Food, Restaurants, Burgers","1","40.0503776775","-75.0094825029",NULL,"True","0:0-0:0","0:0-0:0","0:0-0:0","0:0-0:0","0:0-0:0","0:0-0:0"
"RgVcY0hWnkZkP76cqb5ZhQ","McDonald's","1.5","PA","Philadelphia","2nd Lehigh Ave","19133","Burgers, Fast Food, Restaurants, Coffee & Tea, Food","1","39.991042","-75.1353316356",NULL,"True","0:0-0:0","0:0-0:0","0:0-0:0","0:0-0:0","0:0-0:0","0:0-0:0"
"7Bq927oiZRlEVMqQSNR0Lg","McDonald's","2.0","PA","Philadelphia","3137 N Broad St","19132","Food, Burgers, Fast Food, Coffee & Tea, Restaurants","1","40.001155","-75.152588",NULL,"True","6:0-0:0","6:0-0:0","6:0-0:0","6:0-0:0","5:0-4:0","5:0-4:0"
"VbEm2EN2rpCqSQDVnIZZuw","McDonald's","1.0","PA","Philadelphia","4200 N Broad St","19140","Restaurants, Fast Food, Coffee & Tea, Burgers, Food","1","40.0173649056","-75.149853",NULL,"True","6:0-23:0","6:0-23:0","6:0-23:0","6:0-4:0","0:0-0:0","0:0-0:0"
"gnE7VBl6EDTiy02a4WP4ng","McDonald's","2.0","PA","Philadelphia","34-98 N Broad St","19102","Restaurants, Burgers, Food, Fast Food, Coffee & Tea","0","39.9545676777","-75.1634571328",NULL,"True",NULL,NULL,NULL,NULL,NULL,NULL
"Vd0BRbtnhEfNkVNKTH86Bg","McDonald's","2.0","PA","Philadelphia","9910 Roosevelt Blvd","19115","Restaurants, Burgers, Fast Food","0","40.0922546","-75.017788",NULL,NULL,NULL,NULL,NULL,NULL,NULL,NULL
"CR_hm3-T9HEGGWTElXErRw","McDonald's","1.5","PA","Philadelphia","1601 S Columbus Blvd","19148","Restaurants, Fast Food, Food, Burgers, Coffee & Tea","1","39.924036","-75.142563",NULL,"True","0:0-0:0","0:0-0:0","0:0-0:0","0:0-0:0","0:0-0:0","0:0-0:0"
"nJxCI5M1-stOtXyFrYhuxw","McDonald's","1.0","PA","Philadelphia","Suburban Station Concourse","19102","Restaurants, Fast Food, Burgers","0","39.9545643","-75.1674983",NULL,NULL,NULL,NULL,NULL,NULL,NULL,NULL
"h696v2N0hcOOdsg1ebt5Ig","McDonald's","1.0","PA","Philadelphia","7800 Germantown Ave","19118","Coffee & Tea, Food, Fast Food, Restaurants, Burgers","0","40.068736","-75.199149",NULL,"True","6:0-21:0","6:0-21:0","6:0-21:0","6:0-21:0","6:0-21:0","6:0-21:0"
"kK6rYQcyxW_FnuVh8oTT0g","McDonald's","1.0","PA","Philadelphia","3725 Aramingo Ave","19137","Fast Food, Restaurants, Burgers, Coffee & Tea, Food","1","39.9946018986","-75.0936814351",NULL,"True","0:0-0:0","0:0-0:0","0:0-0:0","0:0-0:0","0:0-0:0","0:0-0:0"
"kufdqqeufwSP6rgeIKLKAg","McDonald's","3.0","PA","Philadelphia","Broad St & Snydr Ave","19145","Fast Food, Restaurants, Burgers","0","39.9243837","-75.1697454",NULL,"True",NULL,NULL,NULL,NULL,NULL,NULL
"PjknD8uD_0tisZQbomiYoQ","McDonald's","2.0","PA","Philadelphia","1706 Walnut St","19103","Restaurants, Burgers, Food, Coffee & Tea, Fast Food","0","39.9498587626","-75.1695573452",NULL,"True","0:0-0:0","0:0-0:0","0:0-0:0","0:0-0:0","0:0-0:0","0:0-0:0"
"xg2BYY0tswiEDz2HvTRq2w","McDonald's","1.0","PA","Philadelphia","7500 City Ave","19151","Food, Burgers, Coffee & Tea, Restaurants, Fast Food","1","39.9800469722","-75.2686112683",NULL,"True","0:0-0:0","0:0-0:0","0:0-0:0","0:0-0:0","0:0-0:0","0:0-0:0"
"W2gSKulDUBGTfcSDk8kNvg","McDonald's","2.0","PA","Philadelphia","4163 Whitaker Ave","19124","Food, Burgers, Restaurants, Fast Food, Coffee & Tea","1","40.012418","-75.119005",NULL,"True","0:0-0:0","0:0-0:0","0:0-0:0","0:0-0:0","0:0-0:0","0:0-0:0"
"jcXkAf-4BSsDNVhTHn-fmg","McDonald's","2.0","PA","Philadelphia","5601 Vine St","19139","Restaurants, Food, Burgers, Coffee & Tea, Fast Food","1","39.9659790329","-75.2322795242",NULL,"True","0:0-0:0","0:0-0:0","0:0-0:0","0:0-0:0","0:0-0:0","0:0-0:0"
"hVRebPv7EKMUGVV2m5IKaQ","McDonald's","1.5","PA","Philadelphia","9970 Bustleton Ave","19115","Coffee & Tea, Food, Fast Food, Burgers, Restaurants","0","40.1021934378","-75.0294394791",NULL,"True","5:30-1:0","5:30-1:0","5:30-1:0","5:30-1:0","0:0-0:0","0:0-0:0"
"cy1qlowyE-zHmzfVyBFOJg","McDonald's","1.5","PA","Philadelphia","7700 Island Ave","19153","Fast Food, Burgers, Restaurants, Food, Coffee & Tea","1","39.9031583953","-75.2392083406",NULL,"True","0:0-0:0","0:0-0:0","0:0-0:0","0:0-0:0","0:0-0:0","0:0-0:0"
"UJQGJ0tlKO93Lia2JGidZA","McDonald's","1.0","PA","Philadelphia","5219 Frankford Ave","19124","Restaurants, Fast Food, Food, Burgers, Coffee & Tea","0","40.022512","-75.077527",NULL,"True","4:0-23:0","4:0-23:0","4:0-23:0","4:0-23:0","4:0-23:0","4:0-23:0"
"M5HQyQXVOuwT9lSMChKVdg","McDonald's","2.0","PA","Philadelphia","7901 Oxford Ave","19111","Coffee & Tea, Food, Burgers, Fast Food, American (Traditional), Restaurants","1","40.0740661358","-75.0843798264",NULL,"True","5:30-0:0","5:30-0:0","5:30-0:0","5:30-4:0","0:0-0:0","4:0-1:0"
"J5CxTCM9nL_s-qYByTiNgw","McDonald's","1.5","PA","Philadelphia","1601 Christopher Columbus Blvd","19148","Coffee & Tea, Fast Food, Burgers, Food, Restaurants","1","39.9239862957","-75.1425339189",NULL,NULL,"6:0-0:0","6:0-0:0","6:0-0:0","6:0-0:0","6:0-1:0","6:0-1:0"
"kLSEk3qXY1KdtFjxHJ9pww","McDonald's","1.5","PA","Philadelphia","501 Franklin Mill Cir","19154","Restaurants, Fast Food, Food, Coffee & Tea, Burgers","1","40.0884161","-74.9650112",NULL,"True","5:30-0:0","5:30-0:0","5:30-0:0","5:30-0:0","5:30-1:0","5:30-1:0"
"kgMEBZG6rjkGeFzPaIM4MQ","McDonald's","2.0","PA","Philadelphia","914 S Broad St","19146","Fast Food, Food, Restaurants, Coffee & Tea, Burgers","0","39.9394402","-75.1668049",NULL,"True","6:0-0:0","6:0-0:0","6:0-0:0","6:0-0:0","6:0-1:0","6:0-1:0"
"gq4zw-ru_rkZ2UBIanaZFQ","McDonald's","1.0","PA","Philadelphia","1201 N Broad St","19122","Fast Food, Food, Burgers, Coffee & Tea, Restaurants","0","39.9720955382","-75.1588091254",NULL,"True","6:0-23:0","6:0-23:0","6:0-23:0","6:0-4:0","0:0-0:0","0:0-0:0"
"iJOwwuhHP_0BCHmpmJ8l4Q","McDonald's","2.0","PA","Philadelphia","5945 Woodland Ave","19143","Fast Food, Food, Restaurants, Coffee & Tea, Burgers","1","39.9307946183","-75.2276433154",NULL,"True","0:0-0:0","0:0-0:0","0:0-0:0","0:0-0:0","0:0-0:0","0:0-0:0"
"oDKGXVSQfegQt1QU9KLiJA","McDonald's","1.5","PA","Philadelphia","2801 Cottman Ave","19149","Restaurants, Burgers, Coffee & Tea, Fast Food, Food","1","40.0444786018","-75.0533566577",NULL,"True","0:0-0:0","0:0-0:0","0:0-0:0","0:0-0:0","0:0-0:0","0:0-0:0"
"2YoJUob1RL-LCYGiXdq8dg","McDonald's","2.0","PA","Philadelphia","8500 Henry Ave","19128","Restaurants, Fast Food, Coffee & Tea, Burgers, Food","1","40.063816","-75.238823",NULL,"True","5:0-0:0","5:0-0:0","5:0-0:0","5:0-0:0","5:0-0:0","5:0-0:0"
"6jNFUIKiCCKnLCpGJpkyrg","McDonald's","1.0","PA","Philadelphia","710 Adams Ave","19124","Fast Food, Restaurants, Food, Coffee & Tea, Burgers","1","40.0323183","-75.106562376",NULL,"True","0:0-0:0","0:0-0:0","0:0-0:0","0:0-0:0","0:0-0:0","0:0-0:0"
"9shXDmiEvRLgD93R6KlPNA","McDonald's","2.0","PA","Phoenixville","651 Nut Rd","19460","Food, Coffee & Tea, Fast Food, Burgers, Restaurants","1","40.1322756894","-75.5343370838",NULL,"True","5:30-0:0","5:30-0:0","5:30-0:0","5:30-0:0","5:30-1:0","5:30-1:0"
"VySIi29-o4hl4Ry4dBIH7w","McDonald's","2.0","FL","Pinellas Park","7001 US Hwy 19 N","33781","Food, Restaurants, Burgers, Coffee & Tea, Fast Food","1","27.8359630923","-82.6809570193",NULL,"True","0:0-0:0","0:0-0:0","0:0-0:0","0:0-0:0","0:0-0:0","0:0-0:0"
"Mej-T3IEAZHw5hdpWUut0g","McDonald's","1.5","FL","Pinellas Park","8001 US Hwy 19 N","33781","Restaurants, Burgers, Coffee & Tea, Fast Food, Food","1","27.8451998511","-82.6849132776",NULL,"True","0:0-0:0","0:0-0:0","0:0-0:0","0:0-0:0","0:0-0:0","0:0-0:0"
"LeXTkBfmJbGlG5VNLNLRyw","McDonald's","2.0","FL","Pinellas Park","5170 Park Blvd N","33781","Burgers, Restaurants, Fast Food, Food, Coffee & Tea","1","27.8387891093","-82.703407",NULL,"True","0:0-0:0","0:0-0:0","0:0-0:0","0:0-0:0","0:0-0:0","0:0-0:0"
"Vf2VpSmAHwaQzkIwYdFyRw","McDonald's","2.5","FL","Pinellas Park","10191 66th St N","33782","Fast Food, Restaurants, Burgers, Coffee & Tea, Food","1","27.8638348613","-82.7282866091",NULL,"True","0:0-0:0","0:0-0:0","0:0-0:0","0:0-0:0","0:0-0:0","0:0-0:0"
"yIAhT0JRN05LRIJA16Lx5w","McDonald's","1.0","PA","Pipersville","5857 Easton Rd","18947","Fast Food, Food, Restaurants, Burgers, Coffee & Tea","1","40.386253778","-75.1459157467",NULL,NULL,"5:0-22:0","5:0-22:0","5:0-22:0","5:0-22:0","5:0-23:0","5:0-23:0"
"9tIP3Ey8swBpTlsHOQbvJw","McDonald's","2.0","IN","Plainfield","609 W Main St","46168","Fast Food, Restaurants, Coffee & Tea, Food, Burgers","1","39.6997072607","-86.4103936442",NULL,"True","6:0-23:0","6:0-23:0","6:0-23:0","6:0-23:0","6:0-23:0","6:0-23:0"
"T8KnchPug4GhrwvueZUspw","McDonald's","2.0","IN","Plainfield","6101 Cambridge Way","46168","Restaurants, Fast Food, Food, Burgers, Coffee & Tea","1","39.6746647123","-86.3691572752",NULL,"True","5:0-23:0","5:0-23:0","5:0-23:0","5:0-23:0","5:0-0:0","5:0-0:0"
"uaTq-_gVT8XWHdBfVPzsRg","McDonald's","1.5","IN","Plainfield","2655 E Main St","46168","Restaurants, Food, Burgers, Fast Food, Coffee & Tea","1","39.716391207","-86.3591882586",NULL,"True","0:0-0:0","0:0-0:0","0:0-0:0","0:0-0:0","0:0-0:0","0:0-0:0"
"2gW2AflncKzHvmSvel2LBw","McDonald's","1.5","FL","Plant City","2601 Thonotosassa Rd","33563","Restaurants, Coffee & Tea, Food, Burgers, Fast Food","1","28.0251412702","-82.1506518871",NULL,"True","0:0-0:0","0:0-0:0","0:0-0:0","0:0-0:0","0:0-0:0","0:0-0:0"
"_hfy-Rj0XtJAxaKRQmKeYQ","McDonald's","1.5","FL","Plant City","2001 Redman Pkwy","33566","Food, Burgers, Restaurants, Coffee & Tea, Fast Food","1","27.992957878","-82.1220885962",NULL,"True","5:0-0:0","5:0-0:0","5:0-0:0","5:0-0:0","5:0-4:0","5:0-4:0"
"w2ReK1oQ9EUTgrN6Y0GSRw","McDonald's","1.5","IL","Pontoon Beach","2 Engineer Rd","62040","Food, Burgers, Coffee & Tea, Fast Food, Restaurants","1","38.749832828","-90.0716418028",NULL,"True","5:0-0:0","5:0-0:0","5:0-0:0","5:0-0:0","5:0-0:0","5:0-0:0"
"f1NVemrQsrsp5k2eGiO8mg","McDonald's","2.0","FL","Port Richey","11542 US Hwy 19","34668","Restaurants, Fast Food, Burgers","0","28.3255853","-82.6985707",NULL,"True",NULL,NULL,NULL,NULL,NULL,NULL
"MVLKOf25mj0MnqivWmdUwA","McDonald's","2.5","FL","Port Richey","8527 US 19 N","34668","Food, Coffee & Tea, Burgers, Restaurants, Fast Food","1","28.281598","-82.7173998",NULL,"True","0:0-0:0","0:0-0:0","0:0-0:0","0:0-0:0","0:0-0:0","0:0-0:0"
"7rsdqP_j5s-x2OnFv_TrIg","McDonald's","2.0","FL","Port Richey","11929 US Hwy 19","34668","Fast Food, Food, Restaurants, Coffee & Tea, Burgers","1","28.3310761","-82.6998957",NULL,NULL,"0:0-0:0","0:0-0:0","0:0-0:0","0:0-0:0","0:0-0:0","0:0-0:0"
"M8Zxy5yP2XPXdeiGW3lUrA","McDonald's","2.0","PA","Pottstown","1428 E High St","19464","Burgers, Food, Restaurants, Coffee & Tea, Fast Food","1","40.242987521","-75.619734443",NULL,"True","5:0-0:0","5:0-0:0","5:0-0:0","5:0-0:0","5:0-1:0","5:0-1:0"
"b5vN05m7zf7cQeIgdw9L2g","McDonald's","1.5","PA","Pottstown","189 Shoemaker Rd","19464","Restaurants, Coffee & Tea, Burgers, Food, Fast Food","1","40.2526714174","-75.6597599387",NULL,"True","5:0-0:0","5:0-0:0","5:0-0:0","5:0-0:0","5:0-0:0","4:0-0:0"
"f8p3fbPnCXeYFpygOgbiqg","McDonald's","2.0","NV","Reno","735 S Meadows Pkwy","89521","Restaurants, Food, Burgers, Coffee & Tea, Fast Food","1","39.439552","-119.757009",NULL,"True","5:0-23:0","5:0-23:0","5:0-23:0","5:0-23:0","5:0-23:0","5:0-23:0"
"jgOgj1gvfPy3DEIpSjQiOQ","McDonald's","2.0","NV","Reno","18200 Wedge Pkwy","89511","Restaurants, Burgers, Fast Food, Coffee & Tea, Food","1","39.3938416506","-119.7654397041",NULL,"True","5:30-23:0","5:30-23:0","5:30-23:0","5:30-23:0","5:30-4:0","5:30-4:0"
"a5TaDLChZDSgZ-en1sxNpw","McDonald's","1.5","NV","Reno","440 Keystone Ave","89503","Fast Food, Coffee & Tea, Burgers, Restaurants, Food","1","39.5278786788","-119.8269916279",NULL,"True","0:0-0:0","0:0-0:0","0:0-0:0","0:0-0:0","0:0-0:0","0:0-0:0"
"fFpmBqoq5lpCxfQ-UjuJeg","McDonald's","1.5","NV","Reno","Meadowood Mall, 5653 Meadowood Mall Cir","89502","Fast Food, Burgers, Restaurants","0","39.4742329678","-119.781037",NULL,"True",NULL,NULL,NULL,NULL,NULL,NULL
"3tHYTqsJcsZ578bmcneY0A","McDonald's","1.5","NV","Reno","120 Lemmon Dr","89506","Fast Food, Restaurants, Burgers, Food, Coffee & Tea","1","39.6123192844","-119.8494458199",NULL,"True","5:0-23:0","5:0-23:0","5:0-23:0","5:0-23:0","5:0-0:0","5:0-0:0"
"70vQqNfFTdA3FmqjFDnVfw","McDonald's","2.0","NV","Reno","1071 Steamboat Pkwy","89521","Hot Dogs, Burgers, Food, Coffee & Tea, Fast Food, Restaurants","1","39.4235605347","-119.7419402003",NULL,"True","6:0-23:0","6:0-23:0","6:0-23:0","6:0-23:0","6:0-23:0","6:0-23:0"
"9oJinxECxlSutUM0kBOixw","McDonald's","1.5","NV","Reno","1810 Silverada Blvd","89512","Coffee & Tea, Food, Burgers, Restaurants, Fast Food","1","39.5457533163","-119.7811111808",NULL,"True","5:0-23:0","5:0-23:0","5:0-23:0","5:0-23:0","5:0-0:0","5:0-0:0"
"_oEolwACvc0oFQdd8yM6gA","McDonald's","1.5","NV","Reno","5000 S Virginia St","89502","Fast Food, Burgers, Restaurants, Food, Coffee & Tea","1","39.481431","-119.790837",NULL,"True","5:0-23:0","5:0-23:0","5:0-23:0","5:0-23:0","5:0-0:0","5:0-0:0"
"mVZhzTJ5xoneXa9XMWRyCg","McDonald's","2.0","NV","Reno","2524 E 2nd St","89512","Food, Restaurants, Fast Food, Coffee & Tea, Burgers","0","39.5289369266","-119.781666398",NULL,NULL,"7:0-23:0","7:0-23:0","7:0-23:0","7:0-23:0","7:0-23:0","7:0-23:0"
"7YiLEuHuUONZrMPT0OxXUQ","McDonald's","1.5","NV","Reno","432 N Virginia Ave","89501","Fast Food, Restaurants, Burgers, Coffee & Tea, Food, American (Traditional)","0","39.530632","-119.814276",NULL,"True","6:0-23:0","6:0-23:0","6:0-23:0","6:0-23:0","6:0-0:0","6:0-1:0"
"R722fDi0r2oamiWjbnRP2Q","McDonald's","1.5","NV","Reno","1150 Kietzke Ln","89502","Burgers, Restaurants, Fast Food, Food, Coffee & Tea","1","39.514472","-119.788713",NULL,"True","0:0-0:0","0:0-0:0","0:0-0:0","0:0-0:0","0:0-0:0","0:0-0:0"
"SXqPjCaN6DL8lRzzZQ0O0A","McDonald's","1.5","NV","Reno","1547 S Virginia St","89502","Fast Food, Burgers, Restaurants","0","39.5090786","-119.8048642",NULL,"True",NULL,NULL,NULL,NULL,NULL,NULL
"Tgq7FzfhLx97K5NBXGO5fA","McDonald's","1.5","NV","Reno","10595 Stead Blvd","89506","Burgers, Fast Food, Food, Restaurants, American (Traditional), Coffee & Tea","1","39.6251188908","-119.8825397",NULL,"True","0:0-0:0","0:0-0:0","0:0-0:0","0:0-0:0","0:0-0:0","0:0-0:0"
"_mGAcxIOqKcL3muEg3LHLA","McDonald's","1.5","NV","Reno","5148 Mae Anne Blvd","89523","Fast Food, Restaurants, Food, Coffee & Tea, Burgers","1","39.5316302","-119.865289",NULL,"True","0:0-0:0","0:0-0:0","0:0-0:0","0:0-0:0","0:0-0:0","0:0-0:0"
"lA5BOb5Om5cn_dfwiOgbNg","McDonald's","1.5","NV","Reno","305 E Plumb Ln","89502","Coffee & Tea, Food, Restaurants, Burgers, Fast Food","1","39.5060998655","-119.8002701998",NULL,"True","0:0-0:0","0:0-0:0","0:0-0:0","0:0-0:0","0:0-0:0","0:0-0:0"
"vf81tOiPd08VGI28EkB6OA","McDonald's","1.5","NV","Reno","3308 S Mccarran Blvd","89502","Fast Food, Restaurants, Food, Coffee & Tea, Burgers","1","39.4846619542","-119.7476318479",NULL,"True","5:0-1:0","5:0-1:0","5:0-1:0","5:0-1:0","5:0-4:0","0:0-0:0"
"Cxh7HIPRhIr_DIetWp3jAg","McDonald's","2.5","NV","Reno","2001 E Plumb Ln","89502","Coffee & Tea, Restaurants, Burgers, Food, Fast Food","1","39.5058621911","-119.7749723411",NULL,"True","4:0-21:0","4:0-21:0","4:0-21:0","4:0-21:0","4:0-21:0","4:0-21:0"
"LuPs7eFsixV6OIGwsNUZug","McDonald's","2.0","PA","Richboro","950 2nd Str Pike","18954","Restaurants, Fast Food, Burgers, Coffee & Tea, Food","1","40.2135366173","-75.0112201515",NULL,"True","5:30-23:0","5:30-23:0","5:30-23:0","5:30-23:0","5:30-0:0","5:30-0:0"
"0uAdNV5KUFOgbg42MhDwWQ","McDonald's","1.5","LA","River Ridge","9601 Jefferson Hwy","70123","Fast Food, Burgers, Coffee & Tea, Restaurants, Food","1","29.9563045","-90.2170289",NULL,"True","5:0-23:0","5:0-23:0","5:0-23:0","5:0-23:0","5:0-0:0","5:0-0:0"
"AtXi5Q5fNfvr-oZj3Vc_QA","McDonald's","2.0","FL","Riverview","13118 S US Hwy 301","33569","Food, Fast Food, Restaurants, Burgers, Coffee & Tea","1","27.7951395163","-82.3342414",NULL,"True","5:0-0:0","5:0-0:0","5:0-0:0","5:0-0:0","5:0-1:0","5:30-1:0"
"__2LkeVwTuKar5AE95Idzw","McDonald's","1.5","FL","Riverview","11007 Bloomingdale Ave","33569","Fast Food, Burgers, Restaurants, Food, Coffee & Tea","1","27.8931987958","-82.3198442906",NULL,"True","5:0-0:0","5:0-0:0","5:0-0:0","5:0-0:0","5:0-2:0","5:0-2:0"
"yVBTwIJdbtScInZ7G8eDwg","McDonald's","2.0","FL","Riverview","3921 S US Hwy 301","33578","Fast Food, Restaurants, Burgers, Food, Coffee & Tea, American (Traditional)","1","27.912393646","-82.3488505092",NULL,"True","4:0-2:0","4:0-2:0","4:0-2:0","4:0-2:0","0:0-0:0","0:0-0:0"
"YpGSRLzkk8UOCVzd0Dpo3Q","McDonald's","2.5","FL","Riverview","9870 US Hwy 301","33569","Fast Food, Food, Burgers, Coffee & Tea, Restaurants","1","27.8556681754","-82.3261072487",NULL,"True","0:0-0:0","0:0-0:0","0:0-0:0","0:0-0:0","0:0-0:0","0:0-0:0"
"eIDC_UAORw0frg030Nw4tA","McDonald's","1.5","MO","Rock Hill","9815 Manche Ster Rd","63119","Food, Coffee & Tea, Burgers, Restaurants, Fast Food","0","38.6068634","-90.3745845705",NULL,"True","6:0-23:0","6:0-23:0","6:0-23:0","6:0-23:0","6:0-23:0","6:0-23:0"
"62eQzOWKmzsIJnJN33vofQ","McDonald's","2.0","PA","Royersford","308 N Lewis Rd","19468","Coffee & Tea, Restaurants, Food, Fast Food, Burgers","1","40.1945834692","-75.533655",NULL,"True","5:0-0:0","5:0-0:0","5:0-0:0","5:0-0:0","5:0-1:0","5:0-1:0"
"coBMIDJvLpiOCQhu3uM4MA","McDonald's","2.0","FL","Ruskin","5001 S Tamiami Trl","33570","Restaurants, Burgers, Fast Food, Food, Coffee & Tea","1","27.7354803","-82.42947",NULL,"True","5:0-0:0","5:0-0:0","5:0-0:0","5:0-0:0","5:0-2:0","4:0-2:0"
"5ewePyN_mEE_79OmYyYBEA","McDonald's","1.5","AZ","Sahuarita","775 W Via Rancho Sahuarita Rd","85629","Burgers, Fast Food, Food, Coffee & Tea, Restaurants","1","31.9573971","-110.9817025",NULL,"True","0:0-0:0","0:0-0:0","0:0-0:0","0:0-0:0","0:0-0:0","0:0-0:0"
"e1VzUnaKA3uSHhAxxI99aw","McDonald's","1.0","MO","Saint Charles","740 S Duchesne Dr","63301","Restaurants, Fast Food, Burgers","0","38.7881581","-90.5136318",NULL,"True",NULL,NULL,NULL,NULL,NULL,NULL
"CGK0IuZi9rvdRyB3oxHMnQ","McDonald's","1.5","MO","Saint Louis","4420 S Broadway","63111","Restaurants, Burgers, Fast Food","0","38.5754045","-90.2332915",NULL,"True",NULL,NULL,NULL,NULL,NULL,NULL
"XS1wPZeULZtbiP1OsuHFwQ","McDonald's","1.5","MO","Saint Louis","8860 St Charles Rock Rd","63114","Restaurants, Fast Food, Food, Coffee & Tea, Burgers","1","38.7101659953","-90.3501449601",NULL,"True","0:0-0:0","0:0-0:0","0:0-0:0","0:0-0:0","0:0-0:0","0:0-0:0"
"7dfl5-n6r_8EJVh811q9hQ","McDonald's","1.5","MO","Saint Louis","9131 W Florissant Ave","63136","Food, Coffee & Tea, Burgers, Fast Food, Restaurants","1","38.7355475","-90.2784752",NULL,"True","5:0-0:0","5:0-0:0","5:0-0:0","5:0-0:0","4:0-0:0","4:0-0:0"
"7UOJofNZSY6pQkIk6QUOGA","McDonald's","1.5","FL","Saint Petersburg","300 38th Ave N","33704","Restaurants, Burgers, Coffee & Tea, Food, Fast Food","1","27.8064390897","-82.6380738616","False","True","0:0-0:0","0:0-0:0","0:0-0:0","0:0-0:0","0:0-0:0","0:0-0:0"
"YGUr57Zf4RYb7mswg32qxg","McDonald's","1.5","FL","Saint Petersburg","4145 49th St N","33709","Burgers, Restaurants, Fast Food, Coffee & Tea, Food","1","27.8097948886","-82.6994982816",NULL,"True","0:0-0:0","0:0-0:0","0:0-0:0","0:0-0:0","0:0-0:0","0:0-0:0"
"Bc_Bw3dLw5S5hXM8UCFoqw","McDonald's","3.0","NJ","Salem","437 E Broadway","08079","Coffee & Tea, Food, Restaurants, Fast Food, Burgers","1","39.5627865943","-75.4580658674",NULL,"True","5:30-23:0","5:30-23:0","5:30-23:0","5:30-23:0","5:30-0:0","5:30-0:0"
"apdwYbDYSOgD89eEa8yDcw","McDonald's","2.5","CA","Santa Barbara","29 N Milpas St","93103","Restaurants, Burgers, Food, Fast Food, Coffee & Tea","1","34.4222682567","-119.6802254103",NULL,"True","5:0-0:0","5:0-0:0","5:0-0:0","5:0-0:0","5:0-1:0","5:0-1:0"
"uQSCNdPI0dC_sPsOh1U8NQ","McDonald's","2.0","CA","Santa Barbara","1906 Cliff Dr","93109","Restaurants, Food, Fast Food, Burgers, Coffee & Tea","1","34.4018817782","-119.7223486789",NULL,"True","0:0-0:0","0:0-0:0","0:0-0:0","0:0-0:0","0:0-0:0","0:0-0:0"
"wUHUyTrOpUcTVTQpyZFo8w","McDonald's","2.0","CA","Santa Barbara","1213 State St","93101","Fast Food, Restaurants, Coffee & Tea, Food, Burgers","1","34.423608","-119.705139",NULL,"True","6:0-22:0","6:0-22:0","6:0-22:0","6:0-23:0","6:0-23:0","6:0-23:0"
"jshnKTsnoXLSez5XD1qo7Q","McDonald's","2.5","CA","Santa Barbara","3940 State St","93105","Coffee & Tea, Fast Food, Food, Restaurants, Burgers","1","34.440871","-119.753054",NULL,"True","5:0-23:30","5:0-23:30","5:0-23:30","5:0-23:30","5:0-1:0","4:0-1:0"
"ZYjbZBJFGk-Tn6cpD-K5eQ","McDonald's","2.5","MO","Sappington","13250 Tesson Ferry Rd","63128","Restaurants, Burgers, Fast Food","0","38.486072","-90.382969",NULL,"True",NULL,NULL,NULL,NULL,NULL,NULL
"5OpUORgAc84h2Z4ctxKCiA","McDonald's","2.0","FL","Seffner","610 E Dr Martin Luther King Jr","33584","Coffee & Tea, Burgers, Restaurants, Food, Fast Food","1","27.981209","-82.285408",NULL,"True","0:0-0:0","0:0-0:0","0:0-0:0","0:0-0:0","0:0-0:0","0:0-0:0"
"HFYgRMHh_2LN9nVhagcMuA","McDonald's","2.5","FL","Seminole","8901 Park Blvd","33777","Burgers, Restaurants, Fast Food, Food, Coffee & Tea","1","27.8398706002","-82.7628074668",NULL,"True","0:0-0:0","0:0-0:0","0:0-0:0","0:0-0:0","0:0-0:0","0:0-0:0"
"GWajXz5cKulo-5A1wCKv8Q","McDonald's","1.5","FL","Seminole","7003 Seminole Blvd","33772","Fast Food, Restaurants, Coffee & Tea, Food, Burgers","1","27.8363034516","-82.7865341306",NULL,"True","0:0-0:0","0:0-0:0","0:0-0:0","0:0-0:0","0:0-0:0","0:0-0:0"
"RA90yF4DWcRIcDj8S5qkZg","McDonald's","2.0","AB","Sherwood Park","7000 Emerald Drive","T8H 0L1","Restaurants, Coffee & Tea, Food, Burgers, Fast Food","1","53.5674431785","-113.2816556539",NULL,"True","0:0-0:0","7:0-22:30","7:0-22:30","7:0-22:30","7:0-22:30","7:0-22:30"
"Z4yrtVsQrBB5dTvAmrIBAQ","McDonald's","2.5","AB","Sherwood Park","200-590 Baseline Road","T8H 1Y4","Burgers, Coffee & Tea, Fast Food, Food, Restaurants","1","53.541622","-113.264838",NULL,"True","6:0-23:0","6:0-23:0","6:0-23:0","6:0-23:0","6:0-23:0","6:0-23:0"
"rfZXwpaBoXBYWz47NzzyKQ","McDonald's","2.5","AB","Sherwood Park","1 Kaska Road","T8A 4E7","Fast Food, Coffee & Tea, Restaurants, Food, Burgers","1","53.5390187227","-113.3207000233",NULL,"True","5:0-23:0","5:0-23:0","5:0-23:0","5:0-23:0","5:0-23:0","5:0-23:0"
"pokplllvDH7X9-n_3IEj_Q","McDonald's","1.0","MO","Shrewsbury","7259 Watson Rd","63119","Coffee & Tea, Restaurants, Burgers, Food, Fast Food","1","38.5830901216","-90.3191155",NULL,"True","6:0-23:0","6:0-23:0","6:0-23:0","6:0-23:0","6:0-23:0","6:0-23:0"
"7CwAjHjTPilN_zBuOSdMxg","McDonald's","2.0","NJ","Sicklerville","582 Berlin Cross-keys Rd","08081","Food, Coffee & Tea, Restaurants, Fast Food, Burgers","1","39.7377915247","-75.0014144182",NULL,"True","6:0-0:0","6:0-0:0","6:0-0:0","6:0-0:0","6:0-1:0","6:0-1:0"
"DtE_filcjbtVPa3vHu96Hg","McDonald's","1.5","TN","Smyrna","775 Nissan Dr","37167","Restaurants, Food, Fast Food, Coffee & Tea, Burgers","1","35.9748153965","-86.4919522405",NULL,"True","0:0-0:0","0:0-0:0","0:0-0:0","0:0-0:0","0:0-0:0","0:0-0:0"
"_QQHhERJ1WVH05Vc8AJ1kQ","McDonald's","1.5","TN","Smyrna","345 N Lowry St","37167","Fast Food, Coffee & Tea, Food, Restaurants, Burgers","1","35.9928992225","-86.5272572471",NULL,"True","4:0-0:0","4:0-0:0","4:0-0:0","0:0-0:0","0:0-0:0","0:0-0:0"
"hfnQgCDLlbUfPHkkMlpb2w","McDonald's","2.5","TN","Smyrna","1855 Almaville Rd","37167","Fast Food, Food, Burgers, Restaurants, Coffee & Tea","1","35.933334","-86.532616",NULL,"True","0:0-0:0","0:0-0:0","0:0-0:0","0:0-0:0","0:0-0:0","0:0-0:0"
"o61HRHnzNDcU6eMKZaB5wQ","McDonald's","2.5","PA","Souderton","727 Rt 113","18964","Coffee & Tea, Food, Burgers, Restaurants, Fast Food","1","40.3162888962","-75.3089070402",NULL,"True","5:30-23:0","5:30-23:0","5:30-23:0","5:30-23:0","5:30-23:0","5:30-23:0"
"eIClHkqYqCeaYOZSzu1eLQ","McDonald's","2.0","PA","Southampton","338 2nd St Pike","18966","Coffee & Tea, Restaurants, Food, Fast Food, Burgers","1","40.1665239","-75.0467405",NULL,"True","5:0-0:0","5:0-0:0","5:0-0:0","5:0-0:0","5:0-0:0","5:0-0:0"
"rfsFB_Z4B-CNTBktcUEbmA","McDonald's","1.5","AZ","South Tucson","1901 S 6th Ave","85713","Fast Food, Food, Burgers, Restaurants, Coffee & Tea","1","32.1993503049","-110.9679317715",NULL,"True","6:0-23:0","6:0-23:0","6:0-23:0","6:0-23:0","6:0-23:0","6:0-23:0"
"F-Z2J3GDTNge3K6bsbnKSw","McDonald's","1.5","NV","Spanish Springs","9725 Pyramid Way","89441","Coffee & Tea, Restaurants, Burgers, Food, Fast Food","1","39.639616","-119.711696",NULL,"True","5:0-0:0","5:0-0:0","5:0-0:0","5:0-0:0","5:0-2:0","5:0-2:0"
"8dsMAUIA8Xk-2B0qrDHSnw","McDonald's","2.0","NV","Sparks","5065 Pyramid Lake Hwy","89436","Fast Food, Restaurants, Coffee & Tea, Burgers, Food","1","39.5842965193","-119.7462934256",NULL,"True","7:0-23:0","7:0-23:0","7:0-23:0","7:0-23:0","7:0-23:0","7:0-23:0"
"XTcqhIF7Rfm43aHzJPXT_Q","McDonald's","2.5","NV","Sparks","610 E Prater Way","89431","Burgers, Fast Food, Food, Restaurants, Coffee & Tea","1","39.5422917921","-119.7358649969",NULL,"True","5:30-0:0","5:30-0:0","5:30-0:0","5:30-0:0","5:30-0:0","5:30-0:0"
"efVCzhiCt7bnlWzQyQlYYw","McDonald's","2.0","NV","Sparks","2905 N Mccarran","89431","Restaurants, Fast Food, Coffee & Tea, Burgers, Food","1","39.5560762991","-119.7547222674",NULL,"True","7:0-21:0","7:0-21:0","7:0-21:0","7:0-21:0","7:0-21:0","7:0-21:0"
"AzQIIA5d5YFrU03pyhV1fg","McDonald's","2.0","NV","Sparks","2095 Brierley Way","89434","Food, Burgers, Coffee & Tea, Restaurants, Fast Food","1","39.5276609675","-119.7011263669",NULL,"True","0:0-0:0","0:0-0:0","0:0-0:0","0:0-0:0","0:0-0:0","0:0-0:0"
"NUzUOzkNS1mTJavkVVcdVg","McDonald's","1.5","TN","Springfield","2113 Memorial Blvd","37172","Burgers, Restaurants, Coffee & Tea, Food, Fast Food","1","36.493221874","-86.877351841",NULL,"True","0:0-0:0","0:0-0:0","0:0-0:0","0:0-0:0","0:0-0:0","0:0-0:0"
"mI3d2h5I2rbzRmBjAcD-8A","McDonald's","1.5","FL","Spring Hill","11055 Springhill Dr","34608","Fast Food, Coffee & Tea, Food, Burgers, Restaurants","1","28.4615235214","-82.542003",NULL,"True","0:0-0:0","0:0-0:0","0:0-0:0","0:0-0:0","0:0-0:0","0:0-0:0"
"TfP0dN1L88RcWyQzp2O7Eg","McDonald's","2.0","FL","Spring Hill","1485 Commercial Way","34606","Food, Restaurants, Fast Food, Coffee & Tea, Burgers","1","28.4577627","-82.6309256",NULL,NULL,"7:0-23:0","7:0-23:0","7:0-23:0","7:0-23:0","7:0-23:0","7:0-23:0"
"mlwJfMFNERB9cGgrB4Uppg","McDonald's","2.5","FL","Spring Hill","2350 Commercial Way","34606","Fast Food, Restaurants, Food, Coffee & Tea, Burgers","1","28.466920522","-82.620588541",NULL,"True","0:0-0:0","0:0-0:0","0:0-0:0","5:0-1:0","5:0-1:0","5:0-1:0"
"j43CKlz11Id4TQDJ3wA4HQ","McDonald's","2.5","FL","Spring Hill","4166 Mariner Blvd","34609","Fast Food, Coffee & Tea, Food, Restaurants, Burgers","1","28.4921165867","-82.5405366719",NULL,"True","5:0-1:0","5:0-1:0","5:0-1:0","0:0-0:0","0:0-0:0","0:0-0:0"
"ULc4qSFQ4ISBs0SqlxmHdw","McDonald's","2.5","AB","St Albert","369 St. Albert Trail","T8N 0R1","Fast Food, Restaurants, Burgers, Coffee & Tea, Food","1","53.6388018","-113.6238836",NULL,"True","5:0-23:0","5:0-23:0","5:0-23:0","5:0-23:0","5:0-23:0","5:0-23:0"
"k6ti2dkJD_6xGzxjQQ_FnA","McDonald's","2.0","AB","St Albert","10 Galarneau Place","T8N 2Y3","Burgers, Restaurants, Fast Food, Food, Coffee & Tea","1","53.6193887","-113.6072216914",NULL,"True","5:0-0:0","5:0-0:0","5:0-0:0","5:0-0:0","5:0-0:0","5:0-0:0"
"4CdXVM7-7ek6sNs11gaVuQ","McDonald's","2.0","MO","St. Ann","10805 Saint Charles Rock Rd","63074","Fast Food, Coffee & Tea, Restaurants, Food, Burgers","1","38.733502","-90.390936",NULL,"True","0:0-0:0","0:0-0:0","0:0-0:0","0:0-0:0","0:0-0:0","0:0-0:0"
"vJLbVnnZFb_kiUMjGIWsSg","McDonald's","1.5","DE","Stanton","1790 W Newport","19804","Food, Restaurants, Burgers, Coffee & Tea, Fast Food","1","39.715355679","-75.6302992254",NULL,"True","6:0-23:0","6:0-23:0","6:0-23:0","6:0-23:0","6:0-0:0","6:0-0:0"
"G7AEvOxbIUV2Em7FMmwXGQ","McDonald's","1.5","MO","St. Charles","1160 S 5th St","63301","Restaurants, Fast Food, Coffee & Tea, Burgers, Food","1","38.7725830301","-90.4914218428",NULL,"True","6:0-0:0","5:0-0:0","5:0-0:0","5:0-0:0","5:0-0:0","5:0-0:0"
"2KjXarF28RIn7_APW1b7qA","McDonald's","1.5","MO","St. Charles","1890 Zumbehl Rd","63303","Fast Food, Coffee & Tea, Food, Restaurants, Burgers","1","38.779078","-90.530077",NULL,"True","6:0-0:0","5:0-0:0","5:0-0:0","5:0-0:0","5:0-0:0","5:0-0:0"
"bqT9LFxOiV9hr0361Ph8rA","McDonald's","1.0","MO","St Louis","1790 S Florissant Rd","63121","Fast Food, Burgers, Food, Restaurants, Coffee & Tea","1","38.7232826198","-90.3044231143",NULL,"True","0:0-0:0","0:0-0:0","0:0-0:0","0:0-0:0","0:0-0:0","0:0-0:0"
"rH0FgPdxWWhH4YFz4mempg","McDonald's","1.5","MO","St. Louis","4620 S Kingshighway","63109","Burgers, Fast Food, Food, Restaurants, Coffee & Tea","1","38.586257","-90.276034",NULL,"True","6:0-23:0","6:0-23:0","6:0-23:0","6:0-23:0","6:0-23:0","6:0-23:0"
"yM8LlTInbQH4FwWC97lz6w","McDonald's","1.5","MO","St. Louis","1919 S Jefferson","63104","Fast Food, Restaurants, Food, Burgers, Coffee & Tea","1","38.6124951839","-90.2219420671",NULL,"True","0:0-0:0","0:0-0:0","0:0-0:0","0:0-0:0","0:0-0:0","0:0-0:0"
"9qxMhGWjGsuPUoQB3Y74Wg","McDonald's","1.5","MO","St. Louis","1119 N Tucker","63101","Food, Restaurants, Coffee & Tea, Burgers, Fast Food","1","38.6369079537","-90.1954829934",NULL,"True","0:0-0:0","0:0-0:0","0:0-0:0","0:0-0:0","0:0-0:0","0:0-0:0"
"yj0bwjpMvBuNgJ0IQIC8mQ","McDonald's","1.5","MO","St. Louis","4407 Lemay Ferry Rd","63129","Food, Restaurants, Fast Food, Burgers, Coffee & Tea","1","38.5009513635","-90.3334244",NULL,"True","5:0-0:0","5:0-0:0","5:0-0:0","5:0-0:0","5:0-2:0","6:0-2:0"
"OLrLFtCoacBjTjFGG65ckw","McDonald's","1.0","MO","St. Louis","6100 N Broadway St","63147","Burgers, Fast Food, Food, Coffee & Tea, Restaurants","1","38.6852354846","-90.2178731561",NULL,"True","0:0-0:0","0:0-0:0","0:0-0:0","0:0-0:0","0:0-0:0","0:0-0:0"
"2gi23-n_4fTU11olohHxrg","McDonald's","1.5","MO","St. Louis","4200 Hampton Ave","63139","Fast Food, Burgers, Food, Restaurants, Coffee & Tea","1","38.593007","-90.293782",NULL,"True","0:0-0:0","0:0-0:0","0:0-0:0","0:0-0:0","0:0-0:0","0:0-0:0"
"HC0g0xOuGDqn1jCCMctu8w","McDonald's","1.5","MO","St. Louis","4006 Lindell Blvd","63108","Food, Fast Food, Restaurants, Burgers, Coffee & Tea","1","38.639122","-90.24366",NULL,"True","0:0-0:0","0:0-0:0","0:0-0:0","0:0-0:0","0:0-0:0","0:0-0:0"
"41LdicYBvhBYLmDdXhB21Q","McDonald's","2.0","MO","St. Louis","7171 Natural Bridge Rd","63121","Coffee & Tea, Fast Food, Restaurants, Food, Burgers","1","38.7006580786","-90.2906854358",NULL,NULL,"0:0-0:0","0:0-0:0","0:0-0:0","0:0-0:0","0:0-0:0","0:0-0:0"
"WXvQTyjP4lL94K9aauWVmw","McDonald's","2.0","MO","St. Louis","25 Westport Plaza Dr","63146","Coffee & Tea, Restaurants, Burgers, Food, Fast Food","1","38.700309652","-90.4438103735",NULL,"True","5:30-23:0","5:30-23:0","5:30-23:0","5:30-23:0","5:30-0:0","6:0-0:0"
"3RRvxFR5V_p4NicI7DGVEA","McDonald's","1.0","MO","St. Louis","5537 Telegraph Rd","63129","Restaurants, Food, Burgers, Coffee & Tea, Fast Food","1","38.4715782555","-90.3054399043",NULL,"True","5:0-1:0","5:0-1:0","5:0-1:0","5:0-1:0","5:0-1:0","5:0-1:0"
"6FNfW_9YaP5Fm7tE1caLyA","McDonald's","1.5","MO","St. Louis","4979 Natural Bridge Rd","63115","Burgers, Fast Food, Food, Restaurants, Coffee & Tea","1","38.6762163397","-90.2506893166",NULL,NULL,"0:0-0:0","0:0-0:0","0:0-0:0","0:0-0:0","0:0-0:0","0:0-0:0"
"4LrN3iUtjMXUxilzE_xMVw","McDonald's","1.0","MO","St. Louis","7241 Gravois Ave","63116","Coffee & Tea, Restaurants, Burgers, Food, Fast Food","1","38.5656645233","-90.292557925",NULL,"True","6:0-23:0","6:0-23:0","6:0-23:0","6:0-23:0","6:0-23:0","6:0-23:0"
"jo37YLQJyWhuKBdjlKpoAw","McDonald's","1.5","MO","St. Louis","13050 Tesson Ferry Rd","63128","Burgers, Fast Food, Restaurants, Food, Coffee & Tea","1","38.4939904417","-90.3809273243",NULL,NULL,"0:0-0:0","0:0-0:0","0:0-0:0","0:0-0:0","0:0-0:0","0:0-0:0"
"GD0_sWqURBSZARKgNgbwRg","McDonald's","1.5","MO","St. Louis","3282 Telegraph Rd","63125","Food, Coffee & Tea, Burgers, Restaurants, Fast Food","1","38.4962471472","-90.2995531261",NULL,"True","0:0-0:0","0:0-0:0","0:0-0:0","0:0-0:0","0:0-0:0","0:0-0:0"
"KBtJ98QUDu3LCESV33YxcA","McDonald's","1.5","MO","St. Louis","10431 Page Ave","63132","Coffee & Tea, Burgers, Food, Restaurants, Fast Food","1","38.6919014944","-90.3898552",NULL,"True","5:30-23:0","5:30-23:0","5:30-23:0","5:30-23:0","5:30-23:0","5:30-23:0"
"ekBDNOCEzskY6VH5SBbGkg","McDonald's","2.0","MO","St. Louis","11111 Bellefontaine Rd","63138","Coffee & Tea, Food, Burgers, Restaurants, Fast Food","1","38.7727970493","-90.220782",NULL,"True","4:0-0:0","4:0-0:0","4:0-0:0","4:0-0:0","0:0-0:0","0:0-0:0"
"uWLFplSCk3lI9rf84ZDwUw","McDonald's","1.0","MO","St. Louis","1420 Hampton Ave","63139","Coffee & Tea, Fast Food, Burgers, Food, Restaurants","1","38.624459","-90.287467",NULL,"True","6:0-23:0","6:0-23:0","6:0-23:0","6:0-23:0","6:0-3:30","4:0-3:30"
"fSfrk_Y9xmcCvMJVdYkJTA","McDonald's","1.5","MO","St. Louis","5904 S Lindbergh Blvd","63123","Coffee & Tea, Food, Fast Food, Restaurants, Burgers","1","38.5220025915","-90.3463885188",NULL,"True","4:0-0:0","4:0-0:0","4:0-0:0","4:0-0:0","4:0-0:0","5:0-0:0"
"XN6IctwNyZOvmlXCkmettw","McDonald's","1.5","MO","St. Louis","4011 Bayless Ave","63125","Restaurants, Burgers, Food, Coffee & Tea, Fast Food","1","38.5459784899","-90.2876804851",NULL,"True","0:0-0:0","0:0-0:0","0:0-0:0","0:0-0:0","0:0-0:0","0:0-0:0"
"4tJmaaIAG-rZrPF-2CpNEg","McDonald's","2.0","FL","St. Petersburg","9600 4th St N","33702","Food, Fast Food, Burgers, Restaurants, Coffee & Tea","1","27.8593542985","-82.6393559575",NULL,"True","0:0-0:0","0:0-0:0","0:0-0:0","0:0-0:0","0:0-0:0","0:0-0:0"
"AbR-qyMws6GgQYgZcaBKJw","McDonald's","1.5","FL","St. Petersburg","1661 4th St S","33705","Food, Coffee & Tea, Fast Food, Burgers, Restaurants","1","27.753886403","-82.6388114691",NULL,"True","0:0-0:0","0:0-0:0","0:0-0:0","0:0-0:0","0:0-0:0","0:0-0:0"
"mLF5l4rFV0JaD1xsB2IPng","McDonald's","1.5","FL","St. Petersburg","4595 34th St S","33711","Restaurants, Food, Coffee & Tea, Fast Food, Burgers","1","27.726816","-82.679869",NULL,"True","0:0-0:0","0:0-0:0","0:0-0:0","0:0-0:0","0:0-0:0","0:0-0:0"
"zszv_H7xTUo6SjCebQbbGg","McDonald's","2.0","FL","St. Petersburg","6855 Gulf Blvd","33706","Food, Fast Food, Restaurants, Burgers, Coffee & Tea","1","27.7386299111","-82.7487353189",NULL,"True","5:0-0:0","5:0-0:0","5:0-0:0","5:0-0:0","5:0-4:0","5:0-4:0"
"UALJipwvpD-M-PzI9uALZA","McDonald's","1.5","FL","St. Petersburg","925 62nd Ave N","33702","Coffee & Tea, Burgers, Food, Fast Food, Restaurants","1","27.8289613","-82.64788",NULL,"True","5:0-1:0","5:0-1:0","5:0-1:0","5:0-1:0","5:0-2:0","5:0-2:0"
"jHZi9YI4zUWoBZ0BTj_92w","McDonald's","2.0","FL","St. Petersburg","2315 Tyrone Blvd","33710","Restaurants, Food, Fast Food, Coffee & Tea, Burgers","1","27.7938902054","-82.7296242816",NULL,"True","5:0-0:0","5:0-0:0","5:0-0:0","5:0-0:0","5:0-1:0","5:0-1:0"
"uShHLfwPhalzCPxh5VwgUQ","McDonald's","1.5","FL","St. Petersburg","3501 34th St S","33711","Burgers, Coffee & Tea, Restaurants, Fast Food, Food","1","27.7356985","-82.6816683",NULL,"True","7:0-23:0","7:0-23:0","7:0-23:0","7:0-23:0","7:0-0:0","7:0-0:0"
"g_0U8kzf5iTMJ-I9E3MWlA","McDonald's","2.0","FL","St. Petersburg","5464 66th St N","33709","Coffee & Tea, Burgers, Restaurants, Fast Food, Food","1","27.8214215199","-82.7289658785",NULL,"True","0:0-0:0","0:0-0:0","0:0-0:0","0:0-0:0","0:0-0:0","0:0-0:0"
"oVMf5FvsD7_HmBc3B62Zxw","McDonald's","1.5","FL","St. Petersburg","1020 34th St N","33713","Coffee & Tea, Food, Fast Food, Burgers, Restaurants","1","27.7823563","-82.6797542",NULL,"True","0:0-0:0","0:0-0:0","0:0-0:0","0:0-0:0","0:0-0:0","0:0-0:0"
"Up_4I0tqoVtyknJJXULdfQ","McDonald's","2.5","FL","Sun City Center","4896 Sun City Center Blvd","33573","Food, Burgers, Fast Food, Restaurants, Coffee & Tea","1","27.712883544","-82.3367389245",NULL,"True","5:0-0:0","5:0-0:0","5:0-0:0","5:0-0:0","5:0-1:0","5:0-1:0"
"cwvpVlg5BE2XXRWTHe3p9w","McDonald's","2.0","FL","Sun City Center","3110 Sr 674","33570","Food, Burgers, Coffee & Tea, Fast Food, Restaurants","1","27.7137051861","-82.3929427564",NULL,"True","0:0-0:0","0:0-0:0","0:0-0:0","0:0-0:0","0:0-0:0","0:0-0:0"
"1Jo4UC0YNPoPm9Gfur8tQA","McDonald's","1.0","NV","Sun Valley","140 W 1st Ave","89433","Restaurants, Coffee & Tea, Burgers, Food, Fast Food","1","39.577656528","-119.7810548544",NULL,"True","0:0-0:0","0:0-0:0","0:0-0:0","0:0-0:0","0:0-0:0","0:0-0:0"
"KuCqZJuqs7EEWzxeZ3w94Q","McDonald's","1.5","IL","Swansea","2605 N Illinois","62226","Restaurants, Coffee & Tea, Burgers, Fast Food, Food","1","38.5420796964","-89.984343946",NULL,NULL,"5:0-0:0","5:0-0:0","5:0-0:0","5:0-0:0","5:0-1:0","5:0-1:0"
"NCjb4Lo7VELIV3YcPzKV7A","McDonald's","2.0","NJ","Swedesboro","1701 Center Square Rd","08085","Restaurants, Food, Fast Food, Burgers, Coffee & Tea","1","39.760054293","-75.3582595289",NULL,"True","5:0-0:0","5:0-0:0","5:0-1:0","5:0-1:0","5:0-0:0","5:0-0:0"
"Rq3Wjcg5ULV2yn-AwcmirA","McDonald's","2.0","FL","Tampa","4009 N Armenia","33607","Restaurants, Coffee & Tea, Food, Burgers, Fast Food","1","27.9747894412","-82.4844383402",NULL,"True","5:0-0:0","5:0-0:0","5:0-0:0","5:0-0:0","5:0-0:0","5:0-0:0"
"MgoBAUgSv6UM6RNhwyV-MA","McDonald's","2.0","FL","Tampa","8002 Citrus Park Dr","33625","Food, Burgers, Restaurants, Coffee & Tea, Fast Food","1","28.0653907","-82.5708237",NULL,"True","5:30-1:0","5:30-1:0","5:30-1:0","5:30-1:0","5:30-2:0","5:30-2:0"
"pMLv5hzklGgcNMKr4xnhbw","McDonald's","1.5","FL","Tampa","7350 W Waters Ave","33634","Fast Food, Restaurants, Burgers, Food, Coffee & Tea","1","28.025432","-82.561943",NULL,"True","0:0-0:0","0:0-0:0","0:0-0:0","0:0-0:0","0:0-0:0","0:0-0:0"
"nROgQ9JIN0sjv-i5R1rHcA","McDonald's","2.0","FL","Tampa","4818 S Manhattan","33611","Food, Restaurants, Fast Food, Burgers, Coffee & Tea","1","27.8945234966","-82.517929594",NULL,"True","0:0-0:0","0:0-0:0","0:0-0:0","0:0-0:0","0:0-0:0","0:0-0:0"
"_3VCzu9a79nrU0YA-WvUCg","McDonald's","2.5","FL","Tampa","4443 W Kennedy","33607","Coffee & Tea, Food, Fast Food, Restaurants, Burgers","1","27.9451718338","-82.519890368",NULL,"True","4:0-0:0","4:0-0:0","4:0-0:0","4:0-0:0","0:0-0:0","0:0-0:0"
"VG_6ZamOZ3-s6ODu9BCmqQ","McDonald's","1.5","FL","Tampa","501 E Dr M L K Jr Dr","33603","Restaurants, Burgers, Fast Food, Food, Coffee & Tea","1","27.981131872","-82.4549263551",NULL,"True","4:0-0:0","4:0-0:0","4:0-0:0","4:0-1:0","0:0-0:0","0:0-0:0"
"lgoYB3YiKPBkMq51nv0wPA","McDonald's","1.5","FL","Tampa","3411 Busch Blvd","33612","Coffee & Tea, Fast Food, Food, Burgers, Restaurants","1","28.0322389978","-82.422372",NULL,"True","0:0-0:0","0:0-0:0","0:0-0:0","0:0-0:0","0:0-0:0","0:0-0:0"
"8PKxsbyRIPfhe0KMiBYuyg","McDonald's","2.0","FL","Tampa","5101 Pointe Of Tampa Way","33647","Coffee & Tea, Restaurants, Food, Burgers, Fast Food","1","28.1179878423","-82.379311691",NULL,"True","0:0-0:0","0:0-0:0","0:0-0:0","0:0-0:0","0:0-0:0","0:0-0:0"
"Qi3hCb03SwNwPj_geMRQXA","McDonald's","2.5","FL","Tampa","10410 N Dale Mabry","33618","Fast Food, Burgers, Coffee & Tea, Food, Restaurants","1","28.0450512522","-82.5053305831",NULL,"True","0:0-0:0","0:0-0:0","0:0-0:0","0:0-0:0","0:0-0:0","0:0-0:0"
"kAhT_pFlNuL3yfhKrpYRWQ","McDonald's","2.0","FL","Tampa","1908 E Hillsborough Ave","33610","Party & Event Planning, Coffee & Tea, Fast Food, Event Planning & Services, Food, Burgers, Restaurants","1","27.9966951559","-82.4385912716",NULL,"True","0:0-0:0","0:0-0:0","0:0-0:0","0:0-0:0","0:0-0:0","0:0-0:0"
"c14bGBk8b76o7No3fdbywQ","McDonald's","2.5","FL","Tampa","4333 W Hillsborough Ave","33614","Food, Restaurants, Fast Food, Coffee & Tea, Burgers","1","27.9966524891","-82.5172073103",NULL,"True","4:0-0:0","4:0-0:0","4:0-0:0","4:0-0:0","4:0-1:0","4:0-1:0"
"0UYn-R_LF-V0KSlYFRi3PA","McDonald's","1.0","FL","Tampa","8214 N Florida Ave","33604","Coffee & Tea, Food, Restaurants, Burgers, Fast Food","1","28.0230845836","-82.4598678946",NULL,"True","5:0-0:0","5:0-0:0","5:0-0:0","5:0-0:0","5:0-1:0","5:0-1:0"
"OAT5j2W8F5ypj0eDGH22Xg","McDonald's","1.5","FL","Tampa","1002 S 78th St","33619","Fast Food, Burgers, Coffee & Tea, Restaurants, Food","1","27.9403758","-82.368267",NULL,"True","5:0-1:0","5:0-1:0","5:0-1:0","5:0-1:0","5:0-1:0","5:0-1:0"
"AlMozN7JtyrIDsyrgqRZzw","McDonald's","2.0","FL","Tampa","15698 N Dale Mabry","33624","Restaurants, American (New), Food, Burgers, Coffee & Tea, Fast Food","1","28.0957957894","-82.5028851628",NULL,"True","4:0-0:0","4:0-0:0","4:0-0:0","4:0-0:0","4:0-0:0","4:0-0:0"
"E7mAwFPNhjNYXoeZh_jvVg","McDonald's","2.0","FL","Tampa","11707 N 56th St","33617","Food, Coffee & Tea, Burgers, Restaurants, Fast Food","1","28.0553744889","-82.3930299282",NULL,"True","0:0-0:0","0:0-0:0","0:0-0:0","0:0-0:0","0:0-0:0","0:0-0:0"
"tdalPINw11qFnrb2YL0ayQ","McDonald's","2.0","FL","Tampa","12205 W Linebaugh Ave","33626","Restaurants, Coffee & Tea, Burgers, Fast Food, Food","1","28.0562360481","-82.6261239394",NULL,"True","5:0-23:0","5:0-23:0","5:0-23:0","5:0-23:0","5:0-0:0","5:0-0:0"
"JJMMayeZruzAA_nKAYQTpA","McDonald's","1.5","FL","Tampa","6505 S Dale Mabry Dr","33611","Fast Food, Coffee & Tea, Burgers, Restaurants, Food","1","27.871838","-82.5068689",NULL,"True","0:0-0:0","0:0-0:0","0:0-0:0","0:0-0:0","0:0-0:0","0:0-0:0"
"eb_LtLr1D1AT_XTKsq1RSA","McDonald's","3.0","FL","Tampa","2 Columbia Dr","33606","Restaurants, Fast Food, Coffee & Tea, Burgers, Food","1","27.937994","-82.458323",NULL,"True","0:0-0:0","0:0-0:0","0:0-0:0","0:0-0:0","0:0-0:0","0:0-0:0"
"O3e9xgI92__6qK9a937LeQ","McDonald's","2.0","FL","Tampa","5393 Ehrlich Rd","33624","Fast Food, Burgers, Coffee & Tea, Restaurants, Food","1","28.0828200201","-82.5433006091",NULL,"True","5:0-0:0","5:0-0:0","5:0-0:0","0:0-0:0","0:0-0:0","0:0-0:0"
"TtFwubbGIKnVsx-0pa7KiQ","McDonald's","2.0","FL","Tampa","1520 W Kennedy Blvd","33606","Burgers, Restaurants, Fast Food, Coffee & Tea, Food","1","27.9442429463","-82.4754068955",NULL,"True","0:0-0:0","0:0-0:0","0:0-0:0","0:0-0:0","0:0-0:0","0:0-0:0"
"hOApQmKn3ACCnycMDYEgbA","McDonald's","2.5","FL","Tampa","8402 N Armenia Ave","33604","Burgers, Restaurants, Food, Coffee & Tea, Fast Food","1","28.0257265","-82.48464",NULL,"True","0:0-0:0","0:0-0:0","0:0-0:0","0:0-0:0","0:0-0:0","0:0-0:0"
"3emutOUAcgDUtwiXGDnYGQ","McDonald's","2.0","FL","Tampa","3515 S Dale Mabry","33629","Fast Food, Restaurants, Coffee & Tea, Burgers, Food","1","27.9109136658","-82.5067133495",NULL,"True","5:0-1:0","5:0-1:0","5:0-1:0","5:0-1:0","5:0-4:0","0:0-0:0"
"llmWFWNqZQ2J0UVECr0bvg","McDonald's","1.5","FL","Tampa","6717 N Dale Mabry Hwy","33614","Restaurants, Coffee & Tea, Fast Food, Burgers, Food","1","28.0083892984","-82.5045333803",NULL,"True","0:0-0:0","0:0-0:0","0:0-0:0","0:0-0:0","0:0-0:0","0:0-0:0"
"35BuVcbDU7D9mjmruxmnEw","McDonald's","1.5","FL","Tampa","104 W Bearss Ave","33613","Coffee & Tea, Fast Food, Restaurants, Burgers, Food","1","28.08767","-82.4604798",NULL,"True","0:0-0:0","0:0-0:0","0:0-0:0","0:0-0:0","0:0-0:0","0:0-0:0"
"V2hqC0b1d6Yn0JMGg4DCPA","McDonald's","2.5","FL","Tampa","926 W Fletcher Ave","33612","Fast Food, Restaurants, Burgers, Food, Coffee & Tea","1","28.0685486684","-82.4686838928",NULL,"True","5:0-0:0","5:0-0:0","5:0-0:0","5:0-0:0","5:0-1:0","5:0-1:0"
"3AFJwWG2OcGtRlJhhEbjKw","McDonald's","1.5","FL","Tampa","920 E Fowler Ave","33612","Restaurants, Fast Food, Food, Burgers, Coffee & Tea","1","28.0550656782","-82.450092161",NULL,"True","0:0-0:0","0:0-0:0","0:0-0:0","0:0-0:0","0:0-0:0","0:0-0:0"
"zIOsk_X3bUTakbDcodGPMA","McDonald's","1.5","FL","Tampa","6906 N 56th St","33617","Coffee & Tea, Fast Food, Restaurants, Food, Burgers","1","28.0114855871","-82.3940873929",NULL,"True","0:0-0:0","0:0-0:0","0:0-0:0","0:0-0:0","0:0-0:0","0:0-0:0"
"Brq-BCgyGWnf26eLuYRMyg","McDonald's","1.5","FL","Tampa","2101 E 13th Ave","33605","Burgers, Restaurants, Coffee & Tea, Food, Fast Food","1","27.964268031","-82.4352981933",NULL,"True","0:0-0:0","0:0-0:0","0:0-0:0","0:0-0:0","0:0-0:0","0:0-0:0"
"Gkfi3qXHH_FHvJ0_omUztg","McDonald's","2.0","FL","Tampa","1905 N Dale Mabry Hwy","33607","Restaurants, Burgers, Fast Food, Food, Coffee & Tea","1","27.958947","-82.504976",NULL,"True","0:0-0:0","0:0-0:0","0:0-0:0","0:0-0:0","0:0-0:0","0:0-0:0"
"2YanqRyvO7nzfwi2SPQa7w","McDonald's","1.5","FL","Tampa","6013 E Dr Martin Luther","33619","Burgers, Coffee & Tea, Restaurants, Fast Food, Food","1","27.9810193604","-82.3868065365",NULL,"True","0:0-0:0","0:0-0:0","0:0-0:0","0:0-0:0","0:0-0:0","0:0-0:0"
"rgCh1nIqJUPRf8QJM_YjSA","McDonald's","2.0","FL","Tampa","2006 50th St","33619","Fast Food, Coffee & Tea, Food, Restaurants, Burgers","1","27.9620753425","-82.4023360095",NULL,"True","0:0-0:0","0:0-0:0","0:0-0:0","0:0-0:0","0:0-0:0","0:0-0:0"
"Xa71VM37G-SdRmGjc_VzCQ","McDonald's","2.0","FL","Tampa","7909 W Hillsboro Ave","33615","Burgers, Restaurants, Fast Food, Food, Coffee & Tea","1","27.9971179007","-82.5696795434",NULL,"True","0:0-0:0","0:0-0:0","0:0-0:0","0:0-0:0","0:0-0:0","0:0-0:0"
"eQG5bKz5S4F0jG8mMw7ohQ","McDonald's","1.0","FL","Tampa","6192 Gunn Hwy","33625","Fast Food, Coffee & Tea, Food, Restaurants, Burgers","1","28.0622922","-82.5525362",NULL,NULL,"6:0-0:0","6:0-0:0","6:0-0:0","6:0-0:0","6:0-0:0","6:0-0:0"
"teWJvpV5UuMZKdWtMONvFQ","McDonald's","1.5","FL","Tampa","19080 Bruce B Downs Blvd","33647","Fast Food, Coffee & Tea, Food, Restaurants, Burgers","1","28.1460928904","-82.3537999392",NULL,"True","0:0-0:0","0:0-0:0","0:0-0:0","0:0-0:0","0:0-0:0","0:0-0:0"
"crW3WgVBvfE14EzHD8jClA","McDonald's","2.0","FL","Tampa","2205 E Fletcher Ave","33612","Food, Fast Food, Burgers, Restaurants, Coffee & Tea","1","28.068766","-82.4334912",NULL,"True","0:0-0:0","0:0-0:0","0:0-0:0","0:0-0:0","0:0-0:0","0:0-0:0"
"6rzuiMOivqs6Qc3VS1ugGg","McDonald's","1.5","FL","Tampa","10019 Adamo Dr","33619","Fast Food, Food, Burgers, Restaurants, Coffee & Tea","1","27.9436778252","-82.3365297",NULL,"True","0:0-0:0","0:0-0:0","0:0-0:0","0:0-0:0","0:0-0:0","0:0-0:0"
"KDOChZhZt7AvV_QuxXMDrA","McDonald's","2.5","FL","Tarpon Springs","40728 US Hwy 19 N","34689","Coffee & Tea, Restaurants, Fast Food, Burgers, Food","1","28.1422258791","-82.7411003318",NULL,"True","0:0-0:0","0:0-0:0","0:0-0:0","0:0-0:0","0:0-0:0","0:0-0:0"
"nGFWg8F1dvDW3iasvyOEBg","McDonald's","1.5","PA","Thorndale","3808 E Lincoln Hwy","19372","Restaurants, Coffee & Tea, Food, Burgers, Fast Food","1","39.995818","-75.745301",NULL,"True","5:30-23:0","5:30-23:0","5:30-23:0","5:30-23:0","5:30-1:0","5:30-1:0"
"5dXiNZgWI6B1VIFG3wVTqA","McDonald's","1.5","FL","Treasure Island","10771 Gulf Blvd","33706","Food, Fast Food, Restaurants, Coffee & Tea, Burgers","0","27.769976","-82.7693342",NULL,"True","4:0-0:0","4:0-0:0","4:0-0:0","4:0-0:0","0:0-0:0","0:0-0:0"
"2s1e-4t_35JfQBXAluqqzg","McDonald's","1.0","NJ","Trenton","72 S Clinton Ave","08609","Restaurants, Food, Burgers, Coffee & Tea, Fast Food","1","40.2185494519","-74.7545559704",NULL,NULL,"5:0-23:0","5:0-23:0","5:0-23:0","5:0-23:0","5:0-23:0","5:0-23:0"
"8ZHMr31oBElXmaqSmZJs2Q","McDonald's","1.5","NJ","Trenton","501 Chambers St","08609","Food, Fast Food, Coffee & Tea, Burgers, Restaurants","1","40.2174128225","-74.7435072848",NULL,NULL,"4:0-0:0","4:0-0:0","4:0-0:0","4:0-0:0","4:0-0:0","4:0-0:0"
"CcYQ5iBvUlG7OOVxacvBEw","McDonald's","2.5","NJ","Trenton","1885 N Olden Ave","08638","Fast Food, Food, Burgers, Coffee & Tea, Restaurants","1","40.2501432409","-74.7795715928",NULL,NULL,"5:30-23:0","5:30-23:0","5:30-23:0","5:30-23:0","5:30-0:0","5:30-0:0"
"IpCgkwUJ0UizDzvVCdnHow","McDonald's","2.0","NJ","Trenton","2603 S Broad St","08610","Burgers, Coffee & Tea, Fast Food, Restaurants, Food, Sandwiches","1","40.192228","-74.715752",NULL,"True","6:0-23:0","6:0-23:0","6:0-23:0","6:0-23:0","6:0-0:0","6:0-0:0"
"zYCrmx7qSuT-6ut1_F22iw","McDonald's","2.5","PA","Trevose","3560 Horizon Blvd","19053","Coffee & Tea, Restaurants, Food, Burgers, Fast Food","1","40.13689","-74.965162",NULL,"True","5:0-0:0","5:0-0:0","5:0-0:0","5:0-0:0","5:0-0:0","5:0-0:0"
"FKcQbzeClxbTAnAVJXx__w","McDonald's","2.0","FL","Trinity","10727 Sr 54","34655","Fast Food, Restaurants, Food, Coffee & Tea, Burgers","1","28.1943876465","-82.6368157473",NULL,"True","0:0-0:0","0:0-0:0","0:0-0:0","0:0-0:0","0:0-0:0","0:0-0:0"
"xR97Lcp_HwWm_yaBlfOXTQ","McDonald's","2.5","IL","Troy","103 Mcdonald's Ln","62294","Burgers, Food, Restaurants, Coffee & Tea, Fast Food","1","38.731921","-89.9060871347",NULL,"True","0:0-0:0","0:0-0:0","0:0-0:0","0:0-0:0","0:0-0:0","0:0-0:0"
"w2COOqbypjJd-HbJAa-0pw","McDonald's","2.0","AZ","Tucson","8349 N Cortaro Rd","85743","Food, Fast Food, Burgers, Coffee & Tea, Restaurants","1","32.3585068","-111.0913559",NULL,"True","0:0-0:0","0:0-0:0","0:0-0:0","0:0-0:0","0:0-0:0","0:0-0:0"
"EUiV2nhMgXZHL--ofr3Xdg","McDonald's","1.5","AZ","Tucson","2990 W Valencia","85746","Fast Food, Coffee & Tea, Burgers, Restaurants, Food","1","32.1342030691","-111.0309487443",NULL,"True","0:0-0:0","0:0-0:0","0:0-0:0","0:0-0:0","0:0-0:0","0:0-0:0"
"nEP-AgKGA_-sEpotsTIhjg","McDonald's","1.5","AZ","Tucson","1059 E Tucson Marketplace Blvd","85713","Fast Food, Burgers, Coffee & Tea, Restaurants, Food","1","32.1875556963","-110.9558583089",NULL,"True","5:0-1:0","5:0-1:0","5:0-1:0","5:0-1:0","5:0-4:0","0:0-0:0"
"WO_ntmoHq0zovM8v0niBAA","McDonald's","2.5","AZ","Tucson","9490 E Golf Links","85730","Restaurants, Coffee & Tea, Burgers, Fast Food, Food","1","32.1912006","-110.7902994",NULL,"True","5:0-0:0","5:0-0:0","5:0-0:0","5:0-0:0","5:0-4:0","5:0-4:0"
"ksma5FPvWkaZvcwHz_bZPA","McDonald's","1.5","AZ","Tucson","2130 W River Rd","85704","Restaurants, Fast Food, Burgers, Coffee & Tea, Food","1","32.3057217","-111.0128118",NULL,"True","4:30-0:0","4:30-0:0","4:30-0:0","4:30-0:0","4:30-0:0","4:30-0:0"
"3w7NRntdQ9h0KwDsksIt5Q","McDonald's","2.0","AZ","Tucson","5640 N Swan","85718","Restaurants, Food, Fast Food, Coffee & Tea, Burgers","1","32.3094714307","-110.8921464428",NULL,"True","5:0-23:0","5:0-23:0","5:0-23:0","5:0-23:0","5:0-0:0","5:0-0:0"
"8Ho1ctSlanp9w_-dPmkFSA","McDonald's","1.5","AZ","Tucson","2250 W Ironwood Hills","85745","Coffee & Tea, Fast Food, Burgers, Food, Restaurants","1","32.2512036","-111.015203",NULL,"True","5:0-0:0","5:0-0:0","5:0-0:0","5:0-0:0","5:0-1:0","5:0-1:0"
"jqVyVd07PJnmOmEb0GOJtg","McDonald's","1.5","AZ","Tucson","3800 W Lindavista Blvd","85742","Food, Restaurants, Fast Food, Coffee & Tea, Burgers","1","32.3813864101","-111.0477241543",NULL,"True","5:0-23:0","5:0-23:0","5:0-23:0","5:0-23:0","5:0-23:0","5:0-23:0"
"0KaePrBSRJwUQaHywCM5Zw","McDonald's","2.0","AZ","Tucson","5225 S Palo Verde","85706","Coffee & Tea, Fast Food, Burgers, Restaurants, Food","1","32.1572311","-110.9169941",NULL,"True","17:0-0:0","17:0-0:0","17:0-0:0","17:0-0:0","17:0-1:0","17:0-1:0"
"3qGQcQVEn8GYqkVXL-RS-Q","McDonald's","2.0","AZ","Tucson","8800 E Broadway","85710","Coffee & Tea, Restaurants, Fast Food, Burgers, Food","1","32.2204939","-110.8043023",NULL,"True","0:0-0:0","0:0-0:0","0:0-0:0","0:0-0:0","0:0-0:0","0:0-0:0"
"szreY58d1Ag-XeiGYa6KNw","McDonald's","2.0","AZ","Tucson","30 S Houghton Rd","85748","Coffee & Tea, Restaurants, Fast Food, Burgers, Food","1","32.220323644","-110.773370862",NULL,"True","4:30-23:45","4:30-23:45","4:0-23:45","4:30-23:45","4:30-0:45","4:30-0:45"
"GEdrmeb5ubO2Gq5MgMxDtQ","McDonald's","1.5","AZ","Tucson","3856 E Speedway Blvd","85716","Fast Food, Coffee & Tea, Food, Restaurants, Burgers","1","32.235683","-110.910173",NULL,"True","0:0-0:0","0:0-0:0","0:0-0:0","0:0-0:0","0:0-0:0","0:0-0:0"
"dogcOCiqIr3Q09VW_lFuEQ","McDonald's","2.0","AZ","Tucson","3310 E 22nd St","85713","Food, Restaurants, Burgers, Fast Food, Coffee & Tea","1","32.2066839198","-110.9213049951",NULL,"True","5:0-23:0","5:0-23:0","5:0-23:0","5:0-23:0","5:0-0:0","5:0-0:0"
"6OJKoWZY-lLKM4zRcbauiw","McDonald's","2.0","AZ","Tucson","6651 E Tanque Verde Rd","85715","Restaurants, Fast Food, Burgers, Food, Coffee & Tea","1","32.248168776","-110.8504723",NULL,"True","4:0-0:0","4:0-0:0","4:0-0:0","4:0-0:0","0:0-0:0","0:0-0:0"
"CGaaHAG28nnxMpbvOHhO-Q","McDonald's","2.0","AZ","Tucson","7090 E 22nd St","85710","Restaurants, Fast Food, Food, Coffee & Tea, Burgers","1","32.2058544137","-110.8414096694",NULL,"True","0:0-0:0","0:0-0:0","0:0-0:0","0:0-0:0","0:0-0:0","0:0-0:0"
"LLx6iXXDWz205YXs6Puzdg","McDonald's","2.0","AZ","Tucson","3232 N Campbell Ave","85719","Food, Burgers, Restaurants, Coffee & Tea, Fast Food","1","32.2657295301","-110.9433605522",NULL,"True","0:0-0:0","0:0-0:0","0:0-0:0","0:0-0:0","0:0-0:0","0:0-0:0"
"eqLgpNj0DnRpMj63IfGVeA","McDonald's","1.5","AZ","Tucson","4960 W Ajo Hwy","85757","Restaurants, Fast Food, Burgers, Food, Coffee & Tea","1","32.171987","-111.071107",NULL,"True","5:0-0:0","5:0-0:0","5:0-0:0","5:0-0:0","0:0-0:0","0:0-0:0"
"NHz8uMabvQ2nXk6CddCK4w","McDonald's","2.5","AZ","Tucson","3315 N Swan","85712","Fast Food, Burgers, Restaurants, Coffee & Tea, Food","1","32.2670662654","-110.8931690454",NULL,"True","5:0-23:0","5:0-23:0","5:0-23:0","5:0-23:0","5:0-23:0","5:0-23:0"
"34O0RW7K12gB_og8Xv3M3g","McDonald's","1.5","AZ","Tucson","4495 N Oracle Rd","85705","Burgers, Food, Fast Food, Coffee & Tea, Restaurants","1","32.2878877039","-110.9787556529",NULL,"True","0:0-0:0","0:0-0:0","0:0-0:0","0:0-0:0","0:0-0:0","0:0-0:0"
"ZtZNEwpzAh0uKUKA1Gg-yw","McDonald's","2.0","AZ","Tucson","292 W Mcgee","85704","Burgers, Restaurants, Coffee & Tea, Food, Fast Food","1","32.352251","-110.973893",NULL,"True","5:0-23:0","5:0-23:0","5:0-23:0","5:0-23:0","5:0-0:0","5:0-0:0"
"UIlOq8dHsaqOqTZJVvI8tQ","McDonald's","2.0","AZ","Tucson","9130 E Valencia Rd","85747","Fast Food, Restaurants, Burgers, Coffee & Tea, Food","1","32.118618","-110.7980859",NULL,"True","5:0-23:0","5:0-23:0","5:0-23:0","5:0-23:0","5:0-23:0","5:0-23:0"
"_CAtatmn5FKtMFXcyQyWdQ","McDonald's","1.5","AZ","Tucson","3105 E Valencia","85706","Restaurants, Coffee & Tea, Food, Burgers, Fast Food","1","32.1345715577","-110.9257990821",NULL,"True","5:0-23:0","5:0-23:0","5:0-23:0","5:0-23:0","5:0-0:0","5:0-0:0"
"JhjHlvSgBqD-o8-ahT0ccA","McDonald's","2.0","AZ","Tucson","1785 W Ajo Way","85713","Restaurants, Food, Fast Food, Burgers, Coffee & Tea","1","32.1774104083","-111.0027001705",NULL,"True","0:0-0:0","0:0-0:0","0:0-0:0","0:0-0:0","0:0-0:0","0:0-0:0"
"WI4V-quGkyEdrG2__hIr3A","McDonald's","2.5","AZ","Tucson","2525 S Craycroft","85711","Burgers, Restaurants, Food, Fast Food, Coffee & Tea","1","32.1935186476","-110.8745893836",NULL,"True","5:0-23:0","5:0-23:0","5:0-23:0","5:0-23:0","5:0-0:0","5:0-0:0"
"L24ouhO2blekpFZZXIgR9w","McDonald's","1.0","AZ","Tucson","9090 S Houghton Rd","85747","Fast Food, Food, Coffee & Tea, Burgers, Restaurants","1","32.0868931","-110.7732679",NULL,NULL,"5:0-0:0","5:0-0:0","5:0-0:0","5:0-0:0","5:0-0:0","5:0-0:0"
"iuftKhlrXImvtz-OngBJtw","McDonald's","1.5","AZ","Tucson","540 W Valencia Rd","85706","Coffee & Tea, Fast Food, Food, Burgers, Restaurants","1","32.1343930679","-110.9769668383",NULL,"True","0:0-0:0","0:0-0:0","0:0-0:0","0:0-0:0","0:0-0:0","0:0-0:0"
"haYikT8axUlLyNS7k-osng","McDonald's","1.5","AZ","Tucson","801 E Grant","85719","Fast Food, Restaurants, Burgers, Food, Coffee & Tea","1","32.250857","-110.959918",NULL,"True","16:0-23:0","16:0-23:0","16:0-23:0","16:0-23:0","0:0-0:0","0:0-0:0"
"Dy4cmOkfS_2e4DNNBx3O9w","McDonald's","2.5","AZ","Tucson","5870 E Broadway Blvd","85711","Restaurants, Burgers, Coffee & Tea, Food, Fast Food","0","32.219469","-110.865855",NULL,"True","7:30-21:30","7:30-21:30","7:30-21:30","7:30-21:30","7:30-21:30","7:30-21:30"
"s0NYfUhZ4wa5c1c0EPdlRQ","McDonald's","1.5","AZ","Tucson","1711 E Speedway Blvd","85719","Fast Food, Restaurants, Food, Burgers, Coffee & Tea","1","32.2364400572","-110.9461735189",NULL,"True","0:0-0:0","0:0-0:0","0:0-0:0","0:0-0:0","0:0-0:0","0:0-0:0"
"RpY32D_zRYFQPYHlrkDi9Q","McDonald's","2.5","AZ","Tucson","5445 E Speedway Blvd","85712","Fast Food, Restaurants, Burgers, Food, Coffee & Tea","1","32.2367031775","-110.8766891761",NULL,"True","5:0-23:0","5:0-23:0","5:0-23:0","5:0-23:0","5:0-23:0","5:0-23:0"
"DPDqL_--3SgiXQ4P8U4kdA","McDonald's","2.0","AZ","Tucson","1187 W Irvington Rd","85714","Coffee & Tea, Fast Food, Restaurants, Food, Burgers","1","32.162537","-110.989094",NULL,"True","0:0-0:0","0:0-0:0","0:0-0:0","0:0-0:0","0:0-0:0","0:0-0:0"
"Be8U1wz3as45341ZFYimIA","McDonald's","2.5","AZ","Tucson","9075 E Tanque Verde Rd","85749","Fast Food, Burgers, Food, Restaurants, Coffee & Tea","1","32.2584738256","-110.7984924316",NULL,"True","4:30-0:0","4:30-0:0","4:30-0:0","4:30-0:0","4:30-1:0","4:30-1:0"
"jhSSiLwrq9t3Fij2pVlvug","McDonald's","2.0","AZ","Tucson","6102 E Broadway Blvd","85711","Fast Food, Restaurants, Burgers, Coffee & Tea, Food","1","32.2220028654","-110.8619879534",NULL,"True","4:15-23:0","4:15-23:0","4:15-23:0","4:15-23:0","0:0-0:0","0:0-0:0"
"ZLiOI7MPPzZYj8fA_7FFHg","McDonald's","3.0","AZ","Tucson","7202 E 22nd St","85710","Fast Food, Restaurants","0","32.20588","-110.838833",NULL,"True",NULL,NULL,NULL,NULL,NULL,NULL
"1kzNeQbACsnSGR0ubpsNbQ","McDonald's","2.0","NJ","Turnersville","5801 NJ-42","08012","Restaurants, Fast Food, Food, Coffee & Tea, Burgers","1","39.7616493015","-75.048344",NULL,"True","6:0-23:0","6:0-23:0","6:0-23:0","6:0-23:0","6:0-0:0","6:0-0:0"
"DEULqPtQ5cbGyvc0yfZudQ","McDonald's","2.5","MO","University City","8127 Olive Street Rd","63130","Restaurants, Fast Food, Food, Burgers, Coffee & Tea","1","38.6739096807","-90.3469978727",NULL,"True","5:0-23:0","5:0-23:0","5:0-23:0","5:0-23:0","5:0-0:0","5:0-0:0"
"RPLPto1ejkyE8vsGOV5phg","McDonald's","1.5","PA","Upper Darby","1891 S State Rd","19082","Burgers, Food, Fast Food, Coffee & Tea, Restaurants","1","39.9597931076","-75.2875122428",NULL,"True","0:0-0:0","0:0-0:0","0:0-0:0","0:0-0:0","0:0-0:0","0:0-0:0"
"eOeKgRKbs-iAsIEOmHTrYg","McDonald's","1.0","PA","Upper Darby","133 S 69th St","19082","Burgers, Food, Coffee & Tea, Restaurants, Fast Food","1","39.9573732697","-75.2576498687",NULL,NULL,"5:30-0:0","5:30-0:0","5:30-0:0","5:30-4:0","0:0-0:0","0:0-0:0"
"c4x06huNhVp04VI_MUiQsw","McDonald's","1.5","MO","Valley Park","13600 Big Bend Rd","63088","Burgers, Restaurants, Coffee & Tea, Fast Food, Food","1","38.566874","-90.476937",NULL,"True","0:0-0:0","0:0-0:0","0:0-0:0","0:0-0:0","0:0-0:0","0:0-0:0"
"JFY8k6JOc-iz1oszqHFgCg","McDonald's","2.5","FL","Valrico","2050 State Rte 60 E","33594","Burgers, Restaurants, Food, Coffee & Tea, Fast Food","1","27.938419","-82.253169",NULL,"True","5:0-0:0","5:0-0:0","5:0-0:0","5:0-0:0","5:0-4:0","0:0-0:0"
"reaFfmtszLuAKAldJsEIqw","McDonald's","2.0","NJ","Voorhees","209 Haddonfield Berlin Rd","08043","Restaurants, Fast Food, Burgers","0","39.8578382","-74.9866752",NULL,"True",NULL,NULL,NULL,NULL,NULL,NULL
"Gp29XKuYZEUGol2kwIUvmQ","McDonald's","2.5","NJ","Voorhees","702-2 Berlin Rd","08043","Burgers, Restaurants, Coffee & Tea, Food, Fast Food","1","39.8520593766","-74.981098",NULL,NULL,"5:30-23:0","5:30-23:0","5:30-23:0","5:30-0:0","5:30-0:0","5:30-0:0"
"j4Fw7dF9W8wV3MrJIKDldQ","McDonald's","1.5","PA","Warrington","250 Metro Dr","18976","Burmese, Coffee & Tea, Burgers, Food, Restaurants, Fast Food","1","40.2183026554","-75.1389715075",NULL,"True","6:0-23:0","6:0-23:0","6:0-23:0","6:0-23:0","6:0-23:0","6:0-23:0"
"uYVU2WJv8mxJsB8v1dO1LA","McDonald's","1.0","PA","Wayne","516 W Lancaster Ave","19087","Restaurants, Fast Food, Burgers","0","40.0428072","-75.3737622",NULL,NULL,NULL,NULL,NULL,NULL,NULL,NULL
"tKIY9qXUUHIqOXXyT5EB6w","McDonald's","1.5","MO","Webster Groves","4 S Old Orchard Rd","63119","Fast Food, Coffee & Tea, Restaurants, Food, Burgers","1","38.5911756217","-90.3383284807",NULL,"True","6:0-23:0","6:0-23:0","6:0-23:0","6:0-23:0","6:0-23:0","6:0-23:0"
"XWrRu2QN0DfxflkMIzqRlw","McDonald's","3.5","FL","Wesley Chapel","1820 Trout Creek Dr","33544","Burgers, Restaurants, Fast Food","0","28.1823961759","-82.3542726785",NULL,"True",NULL,NULL,NULL,NULL,NULL,NULL
"SSflsIndvh-xokDPiqZFPA","McDonald's","1.5","FL","Wesley Chapel","34367 Sr 54","33545","Burgers, Coffee & Tea, Restaurants, Food, Fast Food","1","28.219304","-82.247879",NULL,NULL,"5:0-1:0","5:0-1:0","5:0-1:0","5:0-1:0","5:0-1:0","5:0-1:0"
"pqO3306gXylthbj1nE2Gyw","McDonald's","3.0","FL","Wesley Chapel","27643 State Rd 54 W","33543","Burgers, Fast Food, Coffee & Tea, Restaurants, Food","1","28.2381579","-82.3584515",NULL,"True","0:0-0:0","0:0-0:0","0:0-0:0","0:0-0:0","0:0-0:0","0:0-0:0"
"8EHiK59NngwSxjcTYAzywQ","McDonald's","2.0","FL","Wesley Chapel","1733 Bruce B Downs Blvd","33544","Fast Food, Restaurants, Burgers, Coffee & Tea, Food","1","28.1824325259","-82.3543524742",NULL,NULL,"0:0-0:0","0:0-0:0","0:0-0:0","0:0-0:0","0:0-0:0","0:0-0:0"
"wE0DNA2dGzwLUTy6rxz3IQ","McDonald's","3.0","PA","West Chester","701 E Gay St","19380","Food, Restaurants, Coffee & Tea, Fast Food, Burgers","1","39.9652430831","-75.595574677",NULL,"True","5:30-0:0","5:30-0:0","5:30-0:0","5:30-4:0","0:0-0:0","0:0-0:0"
"3xwv_lWddQZ2ms4I7uK53A","McDonald's","2.5","PA","West Chester","927 S High St","19380","Burgers, Food, Coffee & Tea, Fast Food, Restaurants","1","39.9424062016","-75.5908821523",NULL,"True","5:30-0:0","5:30-0:0","5:30-0:0","5:30-0:0","5:30-0:0","5:30-0:0"
"UPeIqSldWfA5M4gA--z-Yg","McDonald's","2.0","PA","West Conshohocken","114 Moorehead Ave","19428","Food, Burgers, Restaurants, Coffee & Tea, Fast Food","1","40.0679331387","-75.3115924448",NULL,"True","5:0-0:0","5:0-0:0","5:0-0:0","5:0-0:0","5:0-0:0","5:0-0:0"
"HCtaslujHiD_j5St_FR5IA","McDonald's","2.0","NJ","Westmont","566 Cuthbert Blvd","08108","Fast Food, Coffee & Tea, Burgers, Food, Restaurants","1","39.9044295908","-75.0610582337",NULL,"True","4:0-0:0","4:0-0:0","4:0-0:0","4:0-0:0","4:0-0:0","4:0-0:0"
"6BWcdOv10taQzy5BCVl2rw","McDonald's","1.0","LA","Westwego","501 Westbank Expy","70094","Restaurants, Sandwiches, Coffee & Tea, Food, Burgers, Fast Food","1","29.8999831825","-90.1465921104",NULL,"True","5:0-0:0","5:0-0:0","5:0-0:0","5:0-0:0","5:0-4:0","0:0-0:0"
"ww-fKGfc4XJHOAxDH0ac5Q","McDonald's","1.5","TN","White House","856 Highway 76","37188","Fast Food, Coffee & Tea, Burgers, Restaurants, Food","1","36.4693394","-86.677964",NULL,"True","0:0-0:0","0:0-0:0","0:0-0:0","0:0-0:0","0:0-0:0","0:0-0:0"
"eYZBpbi42VoMYsulwalQaA","McDonald's","1.5","IN","Whiteland","2962 County Rd 500 N","46184","Fast Food, Burgers, Coffee & Tea, Restaurants, Food","1","39.5514882844","-86.0461389169",NULL,"True","5:0-23:0","5:0-23:0","5:0-23:0","5:0-0:0","5:0-0:0","5:0-0:0"
"yh4OvNj73ioPYPhJv6MNjA","McDonald's","2.5","NJ","Williamstown","10 S Blackhorse Pike","08094","Coffee & Tea, Burgers, Restaurants, Food, Fast Food","1","39.6892475323","-74.9919911369",NULL,NULL,"6:0-0:0","6:0-0:0","6:0-0:0","6:0-0:0","6:0-1:0","6:0-1:0"
"kCrzq7PEBYCMU1xNPNQA8A","McDonald's","2.0","NJ","Willingboro","605 Beverly Rancocas Rd","08046","Coffee & Tea, Fast Food, Restaurants, Food, Burgers","1","40.0131393498","-74.8740631342",NULL,"True","6:0-23:0","6:0-23:0","6:0-23:0","6:0-23:0","6:0-0:0","6:0-0:0"
"6tQrTyDTs5hWh5e4LlPLCg","McDonald's","1.5","DE","Wilmington","101 New Rd","19805","Restaurants, Fast Food, Coffee & Tea, Burgers, Food","1","39.741459","-75.5834735837",NULL,"True","5:0-0:0","5:0-0:0","5:0-0:0","5:0-0:0","0:0-0:0","0:0-0:0"
"WXVb0_TPSNGjqRshykMY8Q","McDonald's","1.5","DE","Wilmington","3318 Kirkwood Hwy","19808","Burgers, Fast Food, Restaurants, Coffee & Tea, Food","1","39.7358939112","-75.6293197058",NULL,"True","0:0-0:0","0:0-0:0","0:0-0:0","0:0-0:0","0:0-0:0","0:0-0:0"
"Vg48ETIyEP9MALSqfDLGmA","McDonald's","2.0","DE","Wilmington","4625 Kirkwood Hwy","19808","Restaurants, Burgers, Food, Coffee & Tea, Fast Food","1","39.7229210788","-75.660783209",NULL,"True","5:30-0:0","5:30-0:0","5:30-0:0","5:30-0:0","5:30-0:0","5:30-0:0"
"ut9lc20Dq7tUH0tZMKic1w","McDonald's","2.0","DE","Wilmington","700 W 4th St","19801","Burgers, Coffee & Tea, Food, Fast Food, Restaurants","1","39.7428197","-75.5581573",NULL,"True","0:0-0:0","0:0-0:0","0:0-0:0","0:0-0:0","0:0-0:0","0:0-0:0"
"7U7IgKCBvUqHDoZvmunuAA","McDonald's","1.5","DE","Wilmington","4111 N Market St","19802","Coffee & Tea, Fast Food, Burgers, Food, Restaurants","1","39.7612831706","-75.5217777193",NULL,"True","0:0-0:0","0:0-0:0","0:0-0:0","0:0-0:0","0:0-0:0","0:0-0:0"
"jCyQknyt1mkMTBw60-ABUw","McDonald's","2.0","DE","Wilmington","2507 Concord Pike","19803","Restaurants, Coffee & Tea, Fast Food, Food, Burgers","1","39.7953853917","-75.5468717963",NULL,"True","0:0-0:0","0:0-0:0","0:0-0:0","0:0-0:0","0:0-0:0","0:0-0:0"
"5SIXBmfYWS2dVlIm5EER5w","McDonald's","1.5","NJ","Woodbury","444 N Broad St","08096","Fast Food, Burgers, Food, Coffee & Tea, Restaurants","1","39.842828646","-75.1490138553",NULL,"True","6:0-0:0","6:0-0:0","6:0-0:0","6:0-0:0","6:0-0:0","6:0-0:0"
"R84qWSVghknKWKXPbKwYLA","McDonald's","2.0","NJ","Woodbury Heights","201 S Evergreen Ave","08097","Coffee & Tea, Food, Fast Food, Burgers, Restaurants","1","39.8251325","-75.1595088",NULL,NULL,"5:0-0:0","5:0-0:0","5:0-0:0","5:0-0:0","5:0-0:0","5:0-0:0"
"rZvy8V52zR2_2Jt-_WsvzA","McDonald's","2.0","PA","Woodlyn","1253 Mcdade Blvd","19094","Restaurants, Fast Food, Burgers, Food, Coffee & Tea","1","39.878660318","-75.344205",NULL,"True","0:0-0:0","0:0-0:0","4:0-0:30","0:0-0:0","0:0-0:0","0:0-0:0"
"b01W9cJtcB0dtXqnNtsstA","McDonald's","2.5","IL","Wood River","1156 Vaughn Rd","62095","Coffee & Tea, Fast Food, Burgers, Restaurants, Food","1","38.8648642291","-90.077534616",NULL,"True","5:0-23:0","5:0-23:0","5:0-23:0","5:0-23:0","5:0-0:0","5:0-0:0"
"NyV_2EGhs-YHYYVmZRYmOQ","McDonald's","1.5","NJ","Woodstown","400 West Ave","08098","Coffee & Tea, Fast Food, Food, Burgers, Restaurants","1","39.6470143366","-75.3344234117",NULL,"True","0:0-0:0","0:0-0:0","0:0-0:0","0:0-0:0","0:0-0:0","0:0-0:0"
"t1o0DX6aEUVm9ur43kQ_Yw","McDonald's","1.5","FL","Zephyrhills","6042 Gall Blvd","33541","Restaurants, Burgers, Coffee & Tea, Fast Food, Food","1","28.246157","-82.189236423",NULL,"True","0:0-0:0","0:0-0:0","0:0-0:0","0:0-0:0","0:0-0:0","0:0-0:0"
"zi5cMfvS1imWog3TFfuFnA","McDonald's","2.0","IN","Zionsville","50 Brendon Way","46077","Food, Fast Food, Coffee & Tea, Burgers, Restaurants","1","39.9496926","-86.2753322",NULL,"True","5:30-22:0","5:30-22:0","5:30-22:0","5:30-22:0","5:30-22:0","5:30-22:0"
"aF5m1YyHVh_sFoCgPVZT5g","McDonald's","1.5","IN","Zionsville","6235 S Heartland Dr","46077","Coffee & Tea, Convenience Stores, Food, Burgers, Fast Food, Restaurants","1","39.9500011796","-86.3400305808",NULL,"True","5:0-0:0","5:0-0:0","5:0-0:0","5:0-0:0","5:0-0:0","5:0-0:0"
